{"type":"FeatureCollection","features":[{"type":"Feature","properties":{"route":1,"color":"#2563eb","kind":"routed_access_not_recorded_gps","duration":1.8,"distance":13},"geometry":{"type":"LineString","coordinates":[[51.554142,35.729941],[51.554,35.73]]}},{"type":"Feature","properties":{"route":2,"color":"#0d9488","kind":"routed_access_not_recorded_gps","duration":202,"distance":2354.4},"geometry":{"type":"LineString","coordinates":[[51.554142,35.729941],[51.554103,35.729736],[51.554805,35.728981],[51.554889,35.72889],[51.556695,35.72688],[51.556716,35.726823],[51.556716,35.726762],[51.556682,35.726687],[51.556629,35.72661],[51.556542,35.72652],[51.556248,35.726421],[51.555962,35.72632],[51.555727,35.726265],[51.554782,35.726096],[51.554043,35.726043],[51.553962,35.726038],[51.553566,35.726009],[51.553146,35.725984],[51.552861,35.725968],[51.55168,35.725891],[51.551582,35.725884],[51.550088,35.725772],[51.549714,35.725748],[51.548165,35.725626],[51.546526,35.725503],[51.545845,35.725472],[51.543374,35.725332],[51.54285,35.725292],[51.540668,35.725129],[51.540012,35.725079],[51.539264,35.725025],[51.537258,35.72489],[51.53716,35.724884],[51.537057,35.726051],[51.537,35.726]]}},{"type":"Feature","properties":{"route":3,"color":"#7c3aed","kind":"routed_access_not_recorded_gps","duration":877,"distance":12973.9},"geometry":{"type":"LineString","coordinates":[[51.554142,35.729941],[51.553566,35.730314],[51.553468,35.730426],[51.552721,35.731272],[51.552089,35.731981],[51.551337,35.732826],[51.550679,35.733556],[51.550164,35.734154],[51.550091,35.734236],[51.549365,35.735059],[51.549038,35.735429],[51.548987,35.735486],[51.54859,35.735936],[51.548285,35.736294],[51.548039,35.736661],[51.547949,35.736957],[51.547621,35.736995],[51.54775,35.737644],[51.547875,35.738289],[51.547986,35.738858],[51.548108,35.739479],[51.54822,35.740049],[51.548332,35.740626],[51.548463,35.741292],[51.545017,35.74175],[51.54372,35.741922],[51.543491,35.741993],[51.543336,35.742045],[51.543189,35.742122],[51.54306,35.742217],[51.542911,35.742425],[51.542905,35.74251],[51.542901,35.742583],[51.542909,35.742704],[51.542933,35.742807],[51.543428,35.743736],[51.543682,35.744214],[51.543937,35.744693],[51.544251,35.745282],[51.544532,35.74581],[51.544822,35.746355],[51.545119,35.746913],[51.545392,35.747425],[51.545721,35.748044],[51.546448,35.749415],[51.546579,35.749491],[51.546757,35.749596],[51.546932,35.7497],[51.547565,35.749612],[51.547707,35.749623],[51.547779,35.749657],[51.547792,35.749668],[51.547847,35.749712],[51.547901,35.749821],[51.547908,35.749907],[51.547899,35.750004],[51.547847,35.750055],[51.547767,35.750105],[51.547293,35.750165],[51.54672,35.750233],[51.546615,35.750247],[51.546377,35.750278],[51.545825,35.75035],[51.545614,35.750377],[51.544978,35.750459],[51.543392,35.750685],[51.54279,35.750773],[51.541522,35.750937],[51.538496,35.751189],[51.538041,35.751249],[51.537724,35.75129],[51.537033,35.751381],[51.533166,35.751886],[51.532297,35.752],[51.531382,35.752118],[51.527193,35.752641],[51.526141,35.752783],[51.524071,35.753062],[51.521562,35.753396],[51.520315,35.753562],[51.519413,35.75375],[51.518616,35.75389],[51.517849,35.754159],[51.516699,35.75464],[51.516458,35.754731],[51.515314,35.755249],[51.514692,35.755519],[51.512926,35.756336],[51.51219,35.756676],[51.511699,35.756903],[51.511195,35.757144],[51.510259,35.757577],[51.509081,35.758122],[51.508938,35.758173],[51.508349,35.758327],[51.507909,35.758417],[51.50737,35.758489],[51.506692,35.758516],[51.504058,35.758557],[51.50323,35.758593],[51.498154,35.758915],[51.497714,35.758942],[51.49643,35.759024],[51.495043,35.759088],[51.494503,35.759087],[51.494021,35.759069],[51.493457,35.759026],[51.492619,35.75891],[51.491877,35.758779],[51.491188,35.758655],[51.490425,35.758551],[51.490296,35.758539],[51.489661,35.758462],[51.488796,35.758423],[51.488009,35.758432],[51.487166,35.758499],[51.486768,35.758545],[51.48637,35.758603],[51.485727,35.758715],[51.485436,35.758777],[51.485145,35.758839],[51.484755,35.758953],[51.484351,35.759044],[51.483971,35.759107],[51.483553,35.7592],[51.483227,35.759241],[51.48292,35.759295],[51.482618,35.759342],[51.482344,35.759365],[51.48208,35.759381],[51.481009,35.75943],[51.480776,35.759427],[51.480433,35.759411],[51.480031,35.759376],[51.478816,35.759215],[51.47842,35.759142],[51.478,35.75903],[51.477034,35.758731],[51.476064,35.758373],[51.475545,35.758187],[51.47437,35.75772],[51.473698,35.757483],[51.473439,35.757394],[51.472772,35.757223],[51.472202,35.757085],[51.471207,35.756922],[51.47041,35.756855],[51.469374,35.756841],[51.468762,35.756828],[51.468464,35.756834],[51.468173,35.756845],[51.467866,35.75685],[51.467343,35.756852],[51.46591,35.756856],[51.46492,35.756854],[51.462528,35.756765],[51.461922,35.756716],[51.461521,35.756691],[51.460764,35.756614],[51.459949,35.756526],[51.459129,35.756411],[51.458844,35.75637],[51.458375,35.756288],[51.457781,35.756188],[51.456416,35.755834],[51.456206,35.755772],[51.455695,35.755622],[51.455268,35.755466],[51.454865,35.755292],[51.454306,35.755047],[51.453944,35.754889],[51.453233,35.754533],[51.452205,35.753918],[51.451467,35.75347],[51.450497,35.752864],[51.449721,35.752413],[51.449455,35.752285],[51.449212,35.752169],[51.448649,35.751944],[51.448199,35.751779],[51.447575,35.751566],[51.447034,35.751416],[51.446605,35.751313],[51.446045,35.751193],[51.445313,35.751101],[51.44452,35.751004],[51.444154,35.750978],[51.443795,35.750952],[51.44331,35.750928],[51.443079,35.750914],[51.442,35.751]]}},{"type":"Feature","properties":{"route":4,"color":"#d97706","kind":"routed_access_not_recorded_gps","duration":677.3,"distance":7163.4},"geometry":{"type":"LineString","coordinates":[[51.554142,35.729941],[51.553566,35.730314],[51.553468,35.730426],[51.552721,35.731272],[51.552089,35.731981],[51.551337,35.732826],[51.550679,35.733556],[51.550164,35.734154],[51.550091,35.734236],[51.549365,35.735059],[51.549038,35.735429],[51.548987,35.735486],[51.54859,35.735936],[51.548285,35.736294],[51.548039,35.736661],[51.547949,35.736957],[51.547621,35.736995],[51.54775,35.737644],[51.547875,35.738289],[51.547986,35.738858],[51.548108,35.739479],[51.54822,35.740049],[51.548332,35.740626],[51.548463,35.741292],[51.545017,35.74175],[51.54372,35.741922],[51.543491,35.741993],[51.543336,35.742045],[51.543189,35.742122],[51.54306,35.742217],[51.542911,35.742425],[51.542905,35.74251],[51.542901,35.742583],[51.542909,35.742704],[51.542933,35.742807],[51.543428,35.743736],[51.543682,35.744214],[51.543937,35.744693],[51.544251,35.745282],[51.544532,35.74581],[51.544822,35.746355],[51.545119,35.746913],[51.545392,35.747425],[51.545721,35.748044],[51.546448,35.749415],[51.546579,35.749491],[51.546757,35.749596],[51.546932,35.7497],[51.547565,35.749612],[51.547707,35.749623],[51.547779,35.749657],[51.547792,35.749668],[51.547847,35.749712],[51.547901,35.749821],[51.547908,35.749907],[51.547899,35.750004],[51.547847,35.750055],[51.547767,35.750105],[51.547293,35.750165],[51.547148,35.750283],[51.547081,35.750355],[51.547057,35.750431],[51.547052,35.750505],[51.547155,35.7507],[51.547358,35.75108],[51.547526,35.751397],[51.54791,35.752119],[51.548297,35.752849],[51.548664,35.753539],[51.549045,35.754257],[51.549142,35.754424],[51.549467,35.754983],[51.549531,35.755093],[51.550075,35.756236],[51.550311,35.756677],[51.550529,35.757097],[51.550899,35.757782],[51.551235,35.75843],[51.551289,35.758524],[51.552248,35.760338],[51.552674,35.761075],[51.55298,35.761643],[51.553157,35.761954],[51.553674,35.762909],[51.554129,35.763743],[51.555167,35.765648],[51.555466,35.766268],[51.556043,35.767599],[51.556534,35.768582],[51.556992,35.769368],[51.55717,35.769674],[51.55741,35.770041],[51.557682,35.770433],[51.557994,35.770706],[51.558204,35.770794],[51.558424,35.77084],[51.558675,35.770826],[51.558938,35.770743],[51.55912,35.770604],[51.559244,35.770395],[51.559265,35.770144],[51.55918,35.769918],[51.559016,35.76975],[51.558774,35.769636],[51.558491,35.769589],[51.558185,35.769644],[51.557815,35.769743],[51.557071,35.770052],[51.556817,35.770146],[51.556283,35.770468],[51.556205,35.770535],[51.556076,35.770735],[51.556034,35.770914],[51.55606,35.771082],[51.556159,35.771267],[51.556329,35.771413],[51.556552,35.771506],[51.556813,35.771549],[51.557066,35.771515],[51.557268,35.771418],[51.557425,35.771282],[51.557533,35.771103],[51.557552,35.770903],[51.557496,35.770682],[51.557391,35.770324],[51.557249,35.770096],[51.557015,35.769738],[51.556841,35.769439],[51.556507,35.769108],[51.556307,35.768964],[51.556091,35.7689],[51.555854,35.768886],[51.555629,35.768933],[51.555414,35.769044],[51.555279,35.769187],[51.555185,35.769371],[51.555166,35.769554],[51.555211,35.769745],[51.555353,35.769931],[51.555557,35.770065],[51.555807,35.770134],[51.556106,35.770132],[51.556448,35.770092],[51.556979,35.7699],[51.557707,35.769587],[51.558697,35.769095],[51.559,35.769]]}},{"type":"Feature","properties":{"route":5,"color":"#0891b2","kind":"routed_access_not_recorded_gps","duration":909.7,"distance":11468.6},"geometry":{"type":"LineString","coordinates":[[51.554142,35.729941],[51.553566,35.730314],[51.553468,35.730426],[51.552721,35.731272],[51.552089,35.731981],[51.551337,35.732826],[51.550679,35.733556],[51.550164,35.734154],[51.550091,35.734236],[51.549365,35.735059],[51.549038,35.735429],[51.548987,35.735486],[51.54859,35.735936],[51.548285,35.736294],[51.548039,35.736661],[51.547949,35.736957],[51.547621,35.736995],[51.54775,35.737644],[51.547875,35.738289],[51.547986,35.738858],[51.548108,35.739479],[51.54822,35.740049],[51.548332,35.740626],[51.548463,35.741292],[51.545017,35.74175],[51.54372,35.741922],[51.543491,35.741993],[51.543336,35.742045],[51.543189,35.742122],[51.54306,35.742217],[51.542911,35.742425],[51.542905,35.74251],[51.542901,35.742583],[51.542909,35.742704],[51.542933,35.742807],[51.543428,35.743736],[51.543682,35.744214],[51.543937,35.744693],[51.544251,35.745282],[51.544532,35.74581],[51.544822,35.746355],[51.545119,35.746913],[51.545392,35.747425],[51.545721,35.748044],[51.546448,35.749415],[51.546579,35.749491],[51.546757,35.749596],[51.546932,35.7497],[51.547565,35.749612],[51.547707,35.749623],[51.547779,35.749657],[51.547792,35.749668],[51.547847,35.749712],[51.547901,35.749821],[51.547908,35.749907],[51.547899,35.750004],[51.547847,35.750055],[51.547767,35.750105],[51.547293,35.750165],[51.54672,35.750233],[51.546615,35.750247],[51.546377,35.750278],[51.545825,35.75035],[51.545614,35.750377],[51.544978,35.750459],[51.543392,35.750685],[51.54279,35.750773],[51.541522,35.750937],[51.538496,35.751189],[51.538041,35.751249],[51.537724,35.75129],[51.537033,35.751381],[51.533166,35.751886],[51.532297,35.752],[51.531382,35.752118],[51.527193,35.752641],[51.526141,35.752783],[51.524071,35.753062],[51.521562,35.753396],[51.520315,35.753562],[51.519413,35.75375],[51.518616,35.75389],[51.517849,35.754159],[51.516699,35.75464],[51.516458,35.754731],[51.515314,35.755249],[51.514692,35.755519],[51.512926,35.756336],[51.51219,35.756676],[51.511699,35.756903],[51.511195,35.757144],[51.510259,35.757577],[51.509081,35.758122],[51.508938,35.758173],[51.508349,35.758327],[51.507909,35.758417],[51.50737,35.758489],[51.506692,35.758516],[51.504058,35.758557],[51.50323,35.758593],[51.498154,35.758915],[51.497714,35.758942],[51.49643,35.759024],[51.495043,35.759088],[51.494503,35.759087],[51.494021,35.759069],[51.493457,35.759026],[51.492619,35.75891],[51.491877,35.758779],[51.491188,35.758655],[51.490425,35.758551],[51.490296,35.758539],[51.489661,35.758462],[51.488796,35.758423],[51.488009,35.758432],[51.487166,35.758499],[51.486768,35.758545],[51.48637,35.758603],[51.485727,35.758715],[51.485436,35.758777],[51.485145,35.758839],[51.484755,35.758953],[51.484351,35.759044],[51.483971,35.759107],[51.483553,35.7592],[51.483227,35.759241],[51.48292,35.759295],[51.482618,35.759342],[51.482344,35.759365],[51.48208,35.759381],[51.481009,35.75943],[51.480776,35.759427],[51.480433,35.759411],[51.480031,35.759376],[51.478816,35.759215],[51.47842,35.759142],[51.478,35.75903],[51.477034,35.758731],[51.476064,35.758373],[51.475461,35.758258],[51.475156,35.758153],[51.474721,35.757996],[51.474614,35.757973],[51.474463,35.757965],[51.474344,35.757994],[51.474219,35.758044],[51.474145,35.7581],[51.474093,35.758161],[51.474046,35.75825],[51.47403,35.758327],[51.47401,35.758547],[51.474,35.75863],[51.473955,35.758754],[51.473926,35.75903],[51.473939,35.759571],[51.473911,35.760008],[51.473992,35.760201],[51.474113,35.760562],[51.474298,35.761112],[51.474324,35.761182],[51.474344,35.761245],[51.474381,35.761357],[51.474656,35.762165],[51.474808,35.762568],[51.475016,35.763123],[51.47522,35.763699],[51.475437,35.764317],[51.475453,35.764361],[51.475829,35.765408],[51.476114,35.766255],[51.476375,35.766984],[51.476401,35.767057],[51.476431,35.767085],[51.47647,35.767106],[51.476515,35.767127],[51.476571,35.767172],[51.476599,35.767235],[51.476595,35.767302],[51.476535,35.767369],[51.476463,35.767411],[51.476378,35.767436],[51.476283,35.767432],[51.47617,35.767415],[51.476117,35.76741],[51.476012,35.767408],[51.47475,35.767909],[51.472854,35.768639],[51.472494,35.7688],[51.47277,35.76928],[51.473,35.769]]}},{"type":"Feature","properties":{"route":6,"color":"#db2777","kind":"routed_access_not_recorded_gps","duration":925.4,"distance":11216.4},"geometry":{"type":"LineString","coordinates":[[51.554142,35.729941],[51.553566,35.730314],[51.553468,35.730426],[51.552721,35.731272],[51.552089,35.731981],[51.551337,35.732826],[51.550679,35.733556],[51.550164,35.734154],[51.550091,35.734236],[51.549365,35.735059],[51.549038,35.735429],[51.548987,35.735486],[51.54859,35.735936],[51.548285,35.736294],[51.548039,35.736661],[51.547949,35.736957],[51.547621,35.736995],[51.54775,35.737644],[51.547875,35.738289],[51.547986,35.738858],[51.548108,35.739479],[51.54822,35.740049],[51.548332,35.740626],[51.548463,35.741292],[51.545017,35.74175],[51.54372,35.741922],[51.543491,35.741993],[51.543336,35.742045],[51.543189,35.742122],[51.54306,35.742217],[51.542911,35.742425],[51.542905,35.74251],[51.542901,35.742583],[51.542909,35.742704],[51.542933,35.742807],[51.543428,35.743736],[51.543682,35.744214],[51.543937,35.744693],[51.544251,35.745282],[51.544532,35.74581],[51.544822,35.746355],[51.545119,35.746913],[51.545392,35.747425],[51.545721,35.748044],[51.546448,35.749415],[51.546579,35.749491],[51.546757,35.749596],[51.546932,35.7497],[51.547565,35.749612],[51.547707,35.749623],[51.547779,35.749657],[51.547792,35.749668],[51.547847,35.749712],[51.547901,35.749821],[51.547908,35.749907],[51.547899,35.750004],[51.547847,35.750055],[51.547767,35.750105],[51.547293,35.750165],[51.54672,35.750233],[51.546615,35.750247],[51.546377,35.750278],[51.545825,35.75035],[51.545614,35.750377],[51.544978,35.750459],[51.543392,35.750685],[51.54279,35.750773],[51.541522,35.750937],[51.538496,35.751189],[51.538041,35.751249],[51.537724,35.75129],[51.537033,35.751381],[51.533166,35.751886],[51.532297,35.752],[51.531382,35.752118],[51.527193,35.752641],[51.526141,35.752783],[51.524071,35.753062],[51.521562,35.753396],[51.520315,35.753562],[51.519413,35.75375],[51.518616,35.75389],[51.517849,35.754159],[51.516699,35.75464],[51.516458,35.754731],[51.515314,35.755249],[51.514692,35.755519],[51.512926,35.756336],[51.51219,35.756676],[51.511699,35.756903],[51.511195,35.757144],[51.510259,35.757577],[51.509081,35.758122],[51.508938,35.758173],[51.508349,35.758327],[51.507909,35.758417],[51.50737,35.758489],[51.506692,35.758516],[51.504058,35.758557],[51.50323,35.758593],[51.498154,35.758915],[51.497714,35.758942],[51.49643,35.759024],[51.495043,35.759088],[51.494503,35.759087],[51.494021,35.759069],[51.493457,35.759026],[51.492619,35.75891],[51.491877,35.758779],[51.491188,35.758655],[51.490425,35.758551],[51.490296,35.758539],[51.489661,35.758462],[51.488796,35.758423],[51.488009,35.758432],[51.487166,35.758499],[51.486768,35.758545],[51.48637,35.758603],[51.485727,35.758715],[51.485436,35.758777],[51.485145,35.758839],[51.484755,35.758953],[51.484351,35.759044],[51.483971,35.759107],[51.483553,35.7592],[51.483227,35.759241],[51.48292,35.759295],[51.482618,35.759342],[51.482344,35.759365],[51.48208,35.759381],[51.481009,35.75943],[51.480776,35.759427],[51.480433,35.759411],[51.480031,35.759376],[51.478816,35.759215],[51.47842,35.759142],[51.478,35.75903],[51.477034,35.758731],[51.476064,35.758373],[51.475461,35.758258],[51.475156,35.758153],[51.474721,35.757996],[51.474614,35.757973],[51.474463,35.757965],[51.474344,35.757994],[51.474219,35.758044],[51.474145,35.7581],[51.474093,35.758161],[51.474046,35.75825],[51.47403,35.758327],[51.47401,35.758547],[51.474,35.75863],[51.473955,35.758754],[51.473926,35.75903],[51.473939,35.759571],[51.473911,35.760008],[51.473992,35.760201],[51.474113,35.760562],[51.474298,35.761112],[51.474324,35.761182],[51.474344,35.761245],[51.474237,35.76127],[51.47364,35.761403],[51.472921,35.761576],[51.472712,35.76185],[51.472599,35.761966],[51.472484,35.762157],[51.472449,35.762484],[51.472508,35.762657],[51.472835,35.763037],[51.472912,35.763117],[51.470197,35.76416],[51.469675,35.763281],[51.468998,35.763514],[51.468022,35.763704],[51.467711,35.763764],[51.467,35.764]]}},{"type":"Feature","properties":{"route":7,"color":"#4f46e5","kind":"routed_access_not_recorded_gps","duration":283.2,"distance":3907.6},"geometry":{"type":"LineString","coordinates":[[51.554142,35.729941],[51.554103,35.729736],[51.554805,35.728981],[51.554889,35.72889],[51.556695,35.72688],[51.556716,35.726823],[51.556716,35.726762],[51.556682,35.726687],[51.556629,35.72661],[51.556542,35.72652],[51.556248,35.726421],[51.555962,35.72632],[51.555727,35.726265],[51.554782,35.726096],[51.554043,35.726043],[51.553962,35.726038],[51.553566,35.726009],[51.553146,35.725984],[51.552861,35.725968],[51.55168,35.725891],[51.551582,35.725884],[51.550088,35.725772],[51.549714,35.725748],[51.548165,35.725626],[51.546526,35.725503],[51.545845,35.725472],[51.543374,35.725332],[51.54285,35.725292],[51.540668,35.725129],[51.540012,35.725079],[51.539264,35.725025],[51.537258,35.72489],[51.53716,35.724884],[51.535925,35.724798],[51.535271,35.72474],[51.534104,35.724653],[51.533843,35.724636],[51.533476,35.724612],[51.532308,35.724536],[51.530837,35.72444],[51.529931,35.724376],[51.528662,35.724287],[51.527236,35.724187],[51.526755,35.724154],[51.525293,35.724052],[51.524554,35.724004],[51.523877,35.723952],[51.523282,35.723913],[51.523081,35.723901],[51.522614,35.723875],[51.522065,35.723844],[51.521697,35.723825],[51.521161,35.723784],[51.520564,35.723739],[51.519896,35.723663],[51.519794,35.72368],[51.519688,35.72368],[51.519598,35.723681],[51.519514,35.72368],[51.519461,35.723685],[51.519432,35.723717],[51.519421,35.723751],[51.519421,35.723791],[51.519475,35.72406],[51.519,35.724]]}},{"type":"Feature","properties":{"route":8,"color":"#65a30d","kind":"routed_access_not_recorded_gps","duration":740.3,"distance":11613.9},"geometry":{"type":"LineString","coordinates":[[51.554142,35.729941],[51.554103,35.729736],[51.554805,35.728981],[51.554889,35.72889],[51.556695,35.72688],[51.556716,35.726823],[51.556716,35.726762],[51.556682,35.726687],[51.556629,35.72661],[51.556542,35.72652],[51.556248,35.726421],[51.555962,35.72632],[51.555727,35.726265],[51.554782,35.726096],[51.554043,35.726043],[51.553962,35.726038],[51.553566,35.726009],[51.553146,35.725984],[51.552861,35.725968],[51.55168,35.725891],[51.551582,35.725884],[51.550088,35.725772],[51.549714,35.725748],[51.548165,35.725626],[51.546526,35.725503],[51.545845,35.725472],[51.543374,35.725332],[51.54285,35.725292],[51.540668,35.725129],[51.540012,35.725079],[51.539264,35.725025],[51.537258,35.72489],[51.53716,35.724884],[51.535925,35.724798],[51.535271,35.72474],[51.534104,35.724653],[51.533843,35.724636],[51.533476,35.724612],[51.532308,35.724536],[51.530837,35.72444],[51.529931,35.724376],[51.528662,35.724287],[51.527236,35.724187],[51.526755,35.724154],[51.525293,35.724052],[51.524554,35.724004],[51.523877,35.723952],[51.523282,35.723913],[51.523081,35.723901],[51.522614,35.723875],[51.522065,35.723844],[51.521697,35.723825],[51.521161,35.723784],[51.520564,35.723739],[51.519896,35.723663],[51.519385,35.723605],[51.519024,35.723521],[51.518629,35.723429],[51.518275,35.723317],[51.518153,35.723281],[51.517041,35.72295],[51.515786,35.722584],[51.513395,35.721822],[51.512222,35.721454],[51.511334,35.721181],[51.510963,35.721067],[51.510516,35.72093],[51.508658,35.72035],[51.508462,35.720289],[51.507962,35.720134],[51.506406,35.719653],[51.505699,35.719434],[51.505544,35.719386],[51.503747,35.71883],[51.502637,35.718499],[51.501527,35.718149],[51.501214,35.718051],[51.499151,35.717402],[51.499009,35.717357],[51.498909,35.717326],[51.498853,35.717308],[51.498359,35.717155],[51.49762,35.716928],[51.496559,35.716602],[51.49498,35.716117],[51.494481,35.715964],[51.49432,35.715914],[51.494151,35.715862],[51.493846,35.715768],[51.493138,35.715553],[51.492795,35.715442],[51.492084,35.715221],[51.490664,35.714784],[51.490435,35.714712],[51.489902,35.714545],[51.488719,35.714179],[51.487812,35.713899],[51.487286,35.713736],[51.486443,35.713478],[51.485181,35.71309],[51.484791,35.712983],[51.484516,35.712905],[51.484376,35.712864],[51.483332,35.712547],[51.48262,35.712332],[51.482571,35.712317],[51.482261,35.712223],[51.481363,35.711951],[51.479499,35.711353],[51.478582,35.711059],[51.477306,35.710685],[51.476033,35.710306],[51.474737,35.709895],[51.474134,35.709708],[51.4727,35.709263],[51.472353,35.709149],[51.472202,35.709099],[51.471778,35.708963],[51.470731,35.708629],[51.469339,35.708192],[51.468883,35.708049],[51.466843,35.707441],[51.466542,35.707349],[51.466271,35.707266],[51.465132,35.706915],[51.462477,35.706145],[51.462232,35.706076],[51.461951,35.705996],[51.461256,35.705801],[51.460528,35.705598],[51.459401,35.705288],[51.458723,35.705084],[51.458652,35.705068],[51.458068,35.704895],[51.457445,35.704713],[51.457078,35.704612],[51.455903,35.704269],[51.454079,35.703745],[51.453897,35.703693],[51.453824,35.703672],[51.45291,35.703407],[51.450941,35.702838],[51.450345,35.702661],[51.449077,35.702289],[51.448406,35.70211],[51.448105,35.702058],[51.44719,35.702014],[51.446478,35.702004],[51.446261,35.702001],[51.446233,35.702],[51.446053,35.701997],[51.445902,35.701998],[51.445218,35.701995],[51.444935,35.701993],[51.444221,35.70199],[51.443768,35.701993],[51.443688,35.701997],[51.443505,35.701997],[51.442607,35.701982],[51.441771,35.701967],[51.440761,35.701944],[51.440513,35.701938],[51.440182,35.701937],[51.438788,35.701921],[51.438376,35.701924],[51.438,35.702]]}},{"type":"Feature","properties":{"route":9,"color":"#c2410c","kind":"routed_access_not_recorded_gps","duration":1089.5,"distance":17595.8},"geometry":{"type":"LineString","coordinates":[[51.554142,35.729941],[51.554103,35.729736],[51.554805,35.728981],[51.554889,35.72889],[51.556695,35.72688],[51.556716,35.726823],[51.556716,35.726762],[51.556682,35.726687],[51.556629,35.72661],[51.556542,35.72652],[51.556248,35.726421],[51.555962,35.72632],[51.555727,35.726265],[51.554782,35.726096],[51.554043,35.726043],[51.553962,35.726038],[51.553566,35.726009],[51.553146,35.725984],[51.552861,35.725968],[51.55168,35.725891],[51.551582,35.725884],[51.550088,35.725772],[51.549714,35.725748],[51.548165,35.725626],[51.546526,35.725503],[51.545845,35.725472],[51.543374,35.725332],[51.54285,35.725292],[51.540668,35.725129],[51.540012,35.725079],[51.539264,35.725025],[51.537258,35.72489],[51.53716,35.724884],[51.535925,35.724798],[51.535271,35.72474],[51.534104,35.724653],[51.533843,35.724636],[51.533476,35.724612],[51.532308,35.724536],[51.530837,35.72444],[51.529931,35.724376],[51.528662,35.724287],[51.527236,35.724187],[51.526755,35.724154],[51.525293,35.724052],[51.524554,35.724004],[51.523877,35.723952],[51.523825,35.723936],[51.52377,35.723912],[51.523725,35.723884],[51.523679,35.723846],[51.523646,35.723808],[51.523608,35.723754],[51.523578,35.72371],[51.523186,35.723084],[51.523105,35.72293],[51.522986,35.722815],[51.522932,35.722758],[51.522873,35.722704],[51.522811,35.722673],[51.522716,35.722652],[51.522497,35.722642],[51.522285,35.722617],[51.521969,35.722579],[51.521659,35.722537],[51.52119,35.722455],[51.520724,35.72236],[51.520228,35.722282],[51.519731,35.722167],[51.517688,35.722],[51.5169,35.721883],[51.516208,35.721718],[51.515701,35.721573],[51.515275,35.721433],[51.514853,35.721266],[51.514348,35.721038],[51.513743,35.720713],[51.513117,35.720296],[51.512594,35.719909],[51.51198,35.719326],[51.511417,35.718768],[51.511181,35.718539],[51.510602,35.717992],[51.510062,35.717435],[51.509191,35.716555],[51.508849,35.716182],[51.507182,35.714231],[51.50716,35.714204],[51.50651,35.713538],[51.505799,35.712601],[51.505235,35.711914],[51.50479,35.711255],[51.504696,35.7111],[51.504576,35.710879],[51.504267,35.71027],[51.504,35.709685],[51.503547,35.708534],[51.503128,35.707462],[51.502896,35.706929],[51.502578,35.706264],[51.502459,35.705992],[51.50218,35.705417],[51.502172,35.705395],[51.50199,35.705021],[51.501833,35.704678],[51.501654,35.704299],[51.501571,35.704116],[51.50142,35.703774],[51.501233,35.703312],[51.501104,35.702989],[51.500765,35.702045],[51.500439,35.701283],[51.500297,35.700975],[51.50007,35.700574],[51.49948,35.699647],[51.498707,35.698487],[51.498152,35.697813],[51.496898,35.696369],[51.496713,35.696114],[51.496515,35.695847],[51.496096,35.695306],[51.495255,35.694249],[51.494614,35.693431],[51.493958,35.692578],[51.493777,35.692288],[51.493659,35.692042],[51.493383,35.691304],[51.49297,35.690101],[51.492854,35.689548],[51.492782,35.688644],[51.492752,35.686995],[51.492703,35.685722],[51.492648,35.683346],[51.492605,35.682812],[51.492603,35.682129],[51.492541,35.680842],[51.492518,35.680514],[51.492486,35.68014],[51.492428,35.679475],[51.492412,35.679251],[51.49239,35.67901],[51.492352,35.678261],[51.492341,35.677709],[51.492335,35.677128],[51.492325,35.6766],[51.492288,35.675333],[51.492286,35.674809],[51.492181,35.670027],[51.492157,35.669137],[51.492001,35.668262],[51.491848,35.667885],[51.491661,35.6676],[51.491409,35.667336],[51.491063,35.667123],[51.490708,35.667023],[51.490323,35.666963],[51.48977,35.66697],[51.489409,35.667009],[51.488627,35.667077],[51.488475,35.667091],[51.487426,35.667194],[51.486827,35.667275],[51.486713,35.667292],[51.48621,35.667361],[51.48467,35.66755],[51.484136,35.667621],[51.483845,35.66766],[51.483666,35.667683],[51.48267,35.667821],[51.482602,35.66783],[51.479974,35.668177],[51.477081,35.668586],[51.476561,35.66866],[51.475028,35.668877],[51.474303,35.668983],[51.473961,35.669027],[51.473864,35.669041],[51.473679,35.669066],[51.472948,35.669169],[51.47229,35.669261],[51.471679,35.669345],[51.469964,35.669622],[51.468836,35.669809],[51.467694,35.670011],[51.467155,35.670092],[51.465715,35.670377],[51.464469,35.670646],[51.46415,35.670715],[51.463169,35.670915],[51.463064,35.670936],[51.462959,35.670957],[51.462837,35.670978],[51.462089,35.6711],[51.461769,35.671143],[51.461451,35.671178],[51.460648,35.671276],[51.460266,35.671331],[51.458522,35.671651],[51.458235,35.671701],[51.457731,35.671751],[51.456277,35.671888],[51.455647,35.671958],[51.455064,35.672004],[51.454621,35.67204],[51.454218,35.672072],[51.453206,35.672263],[51.451864,35.672608],[51.450742,35.672859],[51.449083,35.673138],[51.448355,35.67326],[51.446315,35.673658],[51.446127,35.673698],[51.444963,35.673948],[51.443996,35.674065],[51.443705,35.674089],[51.44327,35.674112],[51.443012,35.674108],[51.442121,35.674138],[51.441235,35.674167],[51.441018,35.674171],[51.440906,35.674173],[51.440742,35.674179],[51.439932,35.67421],[51.439216,35.674227],[51.438731,35.674282],[51.438225,35.674363],[51.438059,35.67439],[51.437807,35.674431],[51.437231,35.674535],[51.43663,35.674631],[51.436295,35.674685],[51.436046,35.674726],[51.43562,35.674795],[51.43504,35.674892],[51.434636,35.674963],[51.43403,35.67507],[51.433506,35.67517],[51.433156,35.675237],[51.432827,35.675299],[51.432481,35.675362],[51.43155,35.675532],[51.43062,35.675714],[51.430602,35.675635],[51.431308,35.675504],[51.431517,35.675465],[51.431724,35.675425],[51.431674,35.67527],[51.431247,35.67525],[51.431001,35.675301],[51.430876,35.675332],[51.430788,35.675347],[51.430581,35.675383],[51.430204,35.675377],[51.430089,35.675375],[51.429976,35.674703],[51.429965,35.674632],[51.429823,35.673789],[51.429762,35.673428],[51.429674,35.672888],[51.429633,35.672656],[51.429546,35.672137],[51.429522,35.671996],[51.42944,35.671592],[51.429376,35.671353],[51.429316,35.670989],[51.429228,35.670245],[51.42916,35.669842],[51.429115,35.669574],[51.429073,35.669322],[51.428937,35.669305],[51.428691,35.669274],[51.428439,35.669242],[51.428,35.669]]}},{"type":"Feature","properties":{"route":10,"color":"#0284c7","kind":"routed_access_not_recorded_gps","duration":796.9,"distance":12426.1},"geometry":{"type":"LineString","coordinates":[[51.554142,35.729941],[51.554103,35.729736],[51.554805,35.728981],[51.554889,35.72889],[51.556695,35.72688],[51.556716,35.726823],[51.556716,35.726762],[51.556682,35.726687],[51.556629,35.72661],[51.556542,35.72652],[51.556248,35.726421],[51.555962,35.72632],[51.555727,35.726265],[51.554782,35.726096],[51.554043,35.726043],[51.553962,35.726038],[51.553566,35.726009],[51.553146,35.725984],[51.552861,35.725968],[51.55168,35.725891],[51.551582,35.725884],[51.550088,35.725772],[51.549714,35.725748],[51.548165,35.725626],[51.546526,35.725503],[51.545845,35.725472],[51.543374,35.725332],[51.54285,35.725292],[51.540668,35.725129],[51.540012,35.725079],[51.539264,35.725025],[51.537258,35.72489],[51.53716,35.724884],[51.535925,35.724798],[51.535271,35.72474],[51.534104,35.724653],[51.533843,35.724636],[51.533476,35.724612],[51.532308,35.724536],[51.530837,35.72444],[51.529931,35.724376],[51.528662,35.724287],[51.527236,35.724187],[51.526755,35.724154],[51.525293,35.724052],[51.524554,35.724004],[51.523877,35.723952],[51.523282,35.723913],[51.523081,35.723901],[51.522614,35.723875],[51.522065,35.723844],[51.521697,35.723825],[51.521161,35.723784],[51.520564,35.723739],[51.519896,35.723663],[51.519385,35.723605],[51.519024,35.723521],[51.518629,35.723429],[51.518275,35.723317],[51.518153,35.723281],[51.517041,35.72295],[51.515786,35.722584],[51.513395,35.721822],[51.512222,35.721454],[51.511334,35.721181],[51.510963,35.721067],[51.510516,35.72093],[51.508658,35.72035],[51.508462,35.720289],[51.507962,35.720134],[51.506406,35.719653],[51.505699,35.719434],[51.505544,35.719386],[51.503747,35.71883],[51.502637,35.718499],[51.501527,35.718149],[51.501214,35.718051],[51.499151,35.717402],[51.499009,35.717357],[51.498909,35.717326],[51.498853,35.717308],[51.498359,35.717155],[51.49762,35.716928],[51.496559,35.716602],[51.49498,35.716117],[51.494481,35.715964],[51.49432,35.715914],[51.494151,35.715862],[51.493846,35.715768],[51.493138,35.715553],[51.492795,35.715442],[51.492084,35.715221],[51.490664,35.714784],[51.490435,35.714712],[51.489902,35.714545],[51.488719,35.714179],[51.487812,35.713899],[51.487286,35.713736],[51.486443,35.713478],[51.485181,35.71309],[51.484791,35.712983],[51.484516,35.712905],[51.484376,35.712864],[51.483332,35.712547],[51.48262,35.712332],[51.482571,35.712317],[51.482261,35.712223],[51.481363,35.711951],[51.479499,35.711353],[51.478582,35.711059],[51.477306,35.710685],[51.476033,35.710306],[51.474737,35.709895],[51.474134,35.709708],[51.4727,35.709263],[51.472353,35.709149],[51.472202,35.709099],[51.471778,35.708963],[51.470731,35.708629],[51.469339,35.708192],[51.468883,35.708049],[51.466843,35.707441],[51.466542,35.707349],[51.466271,35.707266],[51.465132,35.706915],[51.462477,35.706145],[51.462232,35.706076],[51.461951,35.705996],[51.461256,35.705801],[51.460528,35.705598],[51.459401,35.705288],[51.458723,35.705084],[51.458652,35.705068],[51.458068,35.704895],[51.457445,35.704713],[51.457078,35.704612],[51.455903,35.704269],[51.454079,35.703745],[51.453897,35.703693],[51.453824,35.703672],[51.45291,35.703407],[51.450941,35.702838],[51.450345,35.702661],[51.449077,35.702289],[51.448406,35.70211],[51.448105,35.702058],[51.44719,35.702014],[51.446478,35.702004],[51.446261,35.702001],[51.446233,35.702],[51.446053,35.701997],[51.445902,35.701998],[51.445218,35.701995],[51.444935,35.701993],[51.444221,35.70199],[51.443768,35.701993],[51.443688,35.701997],[51.443505,35.701997],[51.442607,35.701982],[51.441771,35.701967],[51.440761,35.701944],[51.440513,35.701938],[51.440182,35.701937],[51.438788,35.701921],[51.438376,35.701924],[51.43806,35.701925],[51.436857,35.701913],[51.436232,35.701921],[51.436032,35.701924],[51.435391,35.701914],[51.434542,35.701902],[51.434459,35.7019],[51.433981,35.70189],[51.433872,35.701891],[51.433857,35.701892],[51.433285,35.701883],[51.432954,35.701879],[51.432655,35.701874],[51.43233,35.701869],[51.431777,35.701861],[51.430923,35.701848],[51.430177,35.701834],[51.429516,35.701828],[51.429195,35.701823],[51.429,35.702]]}},{"type":"Feature","properties":{"route":11,"color":"#9333ea","kind":"routed_access_not_recorded_gps","duration":3764.3,"distance":71307.6},"geometry":{"type":"LineString","coordinates":[[51.554142,35.729941],[51.554103,35.729736],[51.554805,35.728981],[51.554889,35.72889],[51.556695,35.72688],[51.556716,35.726823],[51.556716,35.726762],[51.556682,35.726687],[51.556629,35.72661],[51.556542,35.72652],[51.556248,35.726421],[51.555962,35.72632],[51.555727,35.726265],[51.554782,35.726096],[51.554043,35.726043],[51.553962,35.726038],[51.553566,35.726009],[51.553146,35.725984],[51.552861,35.725968],[51.55168,35.725891],[51.551582,35.725884],[51.550088,35.725772],[51.549714,35.725748],[51.548165,35.725626],[51.546526,35.725503],[51.545845,35.725472],[51.543374,35.725332],[51.54285,35.725292],[51.540668,35.725129],[51.540012,35.725079],[51.539264,35.725025],[51.537258,35.72489],[51.53716,35.724884],[51.535925,35.724798],[51.535271,35.72474],[51.534104,35.724653],[51.533843,35.724636],[51.533476,35.724612],[51.532308,35.724536],[51.530837,35.72444],[51.529931,35.724376],[51.528662,35.724287],[51.527236,35.724187],[51.526755,35.724154],[51.525293,35.724052],[51.524554,35.724004],[51.523877,35.723952],[51.523825,35.723936],[51.52377,35.723912],[51.523725,35.723884],[51.523679,35.723846],[51.523646,35.723808],[51.523608,35.723754],[51.523578,35.72371],[51.523186,35.723084],[51.523105,35.72293],[51.522986,35.722815],[51.522932,35.722758],[51.522873,35.722704],[51.522811,35.722673],[51.522716,35.722652],[51.522497,35.722642],[51.522285,35.722617],[51.521969,35.722579],[51.521659,35.722537],[51.52119,35.722455],[51.520724,35.72236],[51.520228,35.722282],[51.519731,35.722167],[51.517688,35.722],[51.5169,35.721883],[51.516208,35.721718],[51.515701,35.721573],[51.515275,35.721433],[51.514853,35.721266],[51.514348,35.721038],[51.513743,35.720713],[51.513117,35.720296],[51.512594,35.719909],[51.51198,35.719326],[51.511417,35.718768],[51.511181,35.718539],[51.510602,35.717992],[51.510062,35.717435],[51.509191,35.716555],[51.508849,35.716182],[51.507182,35.714231],[51.50716,35.714204],[51.50651,35.713538],[51.505799,35.712601],[51.505235,35.711914],[51.50479,35.711255],[51.504696,35.7111],[51.504576,35.710879],[51.504267,35.71027],[51.504,35.709685],[51.503547,35.708534],[51.503128,35.707462],[51.502896,35.706929],[51.502578,35.706264],[51.502459,35.705992],[51.50218,35.705417],[51.502172,35.705395],[51.50199,35.705021],[51.501833,35.704678],[51.501654,35.704299],[51.501571,35.704116],[51.50142,35.703774],[51.501233,35.703312],[51.501104,35.702989],[51.500765,35.702045],[51.500439,35.701283],[51.500297,35.700975],[51.50007,35.700574],[51.49948,35.699647],[51.498707,35.698487],[51.498152,35.697813],[51.496898,35.696369],[51.496713,35.696114],[51.496515,35.695847],[51.496096,35.695306],[51.495255,35.694249],[51.494614,35.693431],[51.493958,35.692578],[51.493777,35.692288],[51.493659,35.692042],[51.493383,35.691304],[51.49297,35.690101],[51.492854,35.689548],[51.492782,35.688644],[51.492752,35.686995],[51.492703,35.685722],[51.492648,35.683346],[51.492605,35.682812],[51.492603,35.682129],[51.492541,35.680842],[51.492518,35.680514],[51.492486,35.68014],[51.492428,35.679475],[51.492412,35.679251],[51.49239,35.67901],[51.492352,35.678261],[51.492341,35.677709],[51.492335,35.677128],[51.492325,35.6766],[51.492288,35.675333],[51.492286,35.674809],[51.492181,35.670027],[51.492157,35.669137],[51.492094,35.668156],[51.492077,35.667797],[51.492002,35.667377],[51.491725,35.666347],[51.490963,35.664098],[51.490825,35.663655],[51.490371,35.662366],[51.490256,35.662021],[51.490078,35.661489],[51.489952,35.661111],[51.489766,35.660552],[51.489692,35.660332],[51.489593,35.660085],[51.489483,35.659788],[51.489414,35.659596],[51.489301,35.659262],[51.489176,35.658904],[51.489117,35.658723],[51.488986,35.658349],[51.488873,35.658075],[51.48877,35.657898],[51.488497,35.657482],[51.488265,35.657181],[51.488083,35.656947],[51.487984,35.656807],[51.487885,35.656637],[51.487836,35.656506],[51.487814,35.656406],[51.487796,35.656278],[51.487796,35.656251],[51.487799,35.656117],[51.48782,35.655978],[51.487828,35.655844],[51.487842,35.65572],[51.487831,35.655623],[51.487814,35.655405],[51.487791,35.655199],[51.487776,35.655101],[51.487694,35.654635],[51.487636,35.654399],[51.487549,35.654189],[51.487488,35.654001],[51.487408,35.653776],[51.487328,35.653572],[51.487118,35.652932],[51.486748,35.651856],[51.486615,35.651485],[51.486457,35.651047],[51.486393,35.65083],[51.486017,35.649704],[51.48588,35.649358],[51.485775,35.649034],[51.485561,35.648364],[51.485329,35.647682],[51.485139,35.647011],[51.485021,35.646354],[51.484919,35.645712],[51.484864,35.645361],[51.484805,35.644873],[51.484714,35.644152],[51.484633,35.64366],[51.484582,35.643245],[51.484548,35.642903],[51.484524,35.642759],[51.484132,35.640038],[51.484051,35.63939],[51.484017,35.63908],[51.483988,35.638846],[51.48393,35.638594],[51.483834,35.638337],[51.483736,35.638114],[51.483598,35.63785],[51.483477,35.637667],[51.483331,35.637481],[51.483253,35.637392],[51.483132,35.637275],[51.48303,35.637186],[51.482907,35.637087],[51.482648,35.636915],[51.482477,35.636823],[51.482396,35.636781],[51.482268,35.636722],[51.482144,35.636675],[51.482014,35.636632],[51.481245,35.636483],[51.48101,35.636473],[51.480828,35.636473],[51.480668,35.63648],[51.480501,35.636495],[51.480302,35.636523],[51.479977,35.636594],[51.47973,35.636668],[51.479614,35.636712],[51.479496,35.636761],[51.478999,35.636999],[51.478505,35.637287],[51.478044,35.637511],[51.477691,35.637684],[51.477374,35.637839],[51.476925,35.638046],[51.476714,35.638085],[51.476377,35.638185],[51.476166,35.638249],[51.47598,35.638285],[51.47568,35.638313],[51.475463,35.638314],[51.475301,35.638313],[51.475106,35.638292],[51.474994,35.638276],[51.474864,35.638255],[51.474746,35.638231],[51.474626,35.638205],[51.474504,35.638171],[51.47434,35.638117],[51.474161,35.63805],[51.473958,35.637957],[51.473706,35.637829],[51.473515,35.637712],[51.473332,35.637577],[51.473141,35.637385],[51.472916,35.637114],[51.47279,35.636994],[51.472555,35.6367],[51.472337,35.63642],[51.471819,35.63595],[51.471525,35.635724],[51.470725,35.635163],[51.470086,35.634735],[51.468968,35.634084],[51.467725,35.633458],[51.466752,35.633001],[51.465925,35.632644],[51.464878,35.632224],[51.46362,35.631788],[51.462651,35.631472],[51.4618,35.631199],[51.460744,35.630895],[51.459743,35.630663],[51.458562,35.630419],[51.457271,35.6302],[51.456305,35.630063],[51.455141,35.629924],[51.453937,35.629798],[51.452991,35.629743],[51.451706,35.629706],[51.450466,35.629717],[51.449275,35.629748],[51.448472,35.62974],[51.447508,35.629692],[51.446446,35.629606],[51.445406,35.629526],[51.444289,35.62938],[51.443114,35.629195],[51.442538,35.629103],[51.442066,35.629028],[51.441697,35.628954],[51.44103,35.628829],[51.440143,35.628634],[51.439143,35.628388],[51.437873,35.628042],[51.436564,35.627645],[51.436062,35.627475],[51.434843,35.627053],[51.4339,35.626678],[51.432946,35.626278],[51.432528,35.62607],[51.431593,35.625639],[51.430433,35.625063],[51.4284,35.623957],[51.427921,35.623676],[51.427357,35.623322],[51.426607,35.6228],[51.425705,35.622122],[51.424382,35.621116],[51.423809,35.620646],[51.422407,35.619497],[51.421656,35.618895],[51.421158,35.618514],[51.42074,35.618206],[51.420097,35.617715],[51.418309,35.61671],[51.417704,35.616447],[51.416614,35.615999],[51.415528,35.615641],[51.415032,35.615498],[51.414635,35.615396],[51.414102,35.615273],[51.413453,35.615149],[51.41245,35.614978],[51.409828,35.614663],[51.409389,35.61461],[51.408723,35.614556],[51.40728,35.614522],[51.404203,35.614539],[51.401642,35.61454],[51.401334,35.614535],[51.400961,35.614529],[51.39398,35.614488],[51.391281,35.614473],[51.390532,35.614472],[51.389999,35.614472],[51.386974,35.61447],[51.385627,35.614471],[51.382002,35.614481],[51.378259,35.614441],[51.376529,35.614293],[51.374963,35.614144],[51.372661,35.613809],[51.37201,35.6137],[51.371185,35.613549],[51.369338,35.613145],[51.368133,35.612836],[51.367071,35.612525],[51.366208,35.612289],[51.365799,35.612141],[51.365139,35.611959],[51.364149,35.611672],[51.364048,35.611644],[51.363453,35.611474],[51.363036,35.611375],[51.361167,35.610875],[51.358656,35.610166],[51.356759,35.609619],[51.353732,35.608794],[51.352074,35.608458],[51.350892,35.608271],[51.349751,35.608158],[51.348902,35.608115],[51.347901,35.608083],[51.346792,35.608083],[51.34561,35.608142],[51.344441,35.608277],[51.343791,35.608348],[51.342603,35.608534],[51.342011,35.608659],[51.341325,35.608811],[51.340638,35.608986],[51.339228,35.609418],[51.337502,35.610061],[51.336689,35.610421],[51.335434,35.611066],[51.335319,35.611143],[51.334896,35.611472],[51.334577,35.611666],[51.334278,35.611872],[51.334142,35.611968],[51.333999,35.612065],[51.333417,35.61254],[51.333071,35.612804],[51.332824,35.613017],[51.332584,35.613281],[51.332354,35.613456],[51.331662,35.614035],[51.331263,35.614419],[51.330813,35.614836],[51.330504,35.615139],[51.330279,35.615372],[51.32997,35.615744],[51.329408,35.616385],[51.329214,35.6166],[51.32904,35.616791],[51.328253,35.617826],[51.327751,35.618308],[51.326434,35.619881],[51.32607,35.620348],[51.325929,35.620528],[51.325573,35.620965],[51.325343,35.621228],[51.324854,35.621786],[51.324475,35.622247],[51.323854,35.622976],[51.323536,35.623354],[51.323089,35.62397],[51.321902,35.625337],[51.321698,35.625553],[51.320805,35.626489],[51.320574,35.626734],[51.320101,35.627235],[51.3196,35.627701],[51.318349,35.628774],[51.31769,35.629309],[51.317031,35.629757],[51.315867,35.630531],[51.314274,35.631498],[51.312302,35.632529],[51.311257,35.633082],[51.310497,35.633486],[51.309244,35.634113],[51.307901,35.634774],[51.3071,35.635228],[51.306531,35.635493],[51.305297,35.636099],[51.304456,35.636504],[51.303993,35.636742],[51.302364,35.637587],[51.300394,35.638561],[51.300143,35.638608],[51.299829,35.638743],[51.299025,35.639077],[51.297806,35.639545],[51.294564,35.641133],[51.292339,35.642232],[51.291687,35.642508],[51.288775,35.643857],[51.287594,35.644411],[51.286602,35.644862],[51.285931,35.645166],[51.284922,35.64565],[51.280759,35.647436],[51.278635,35.648343],[51.276368,35.649245],[51.275525,35.649638],[51.274204,35.650181],[51.270805,35.651549],[51.268199,35.652493],[51.265801,35.653394],[51.263841,35.654131],[51.261479,35.654996],[51.261365,35.655036],[51.255946,35.657067],[51.253996,35.657761],[51.251449,35.658643],[51.248885,35.659559],[51.248131,35.659884],[51.248065,35.659903],[51.247935,35.65994],[51.247379,35.660097],[51.246555,35.660396],[51.245302,35.660852],[51.243413,35.661555],[51.243328,35.661594],[51.242363,35.661957],[51.241743,35.6622],[51.241202,35.662455],[51.240459,35.662794],[51.239665,35.663192],[51.238658,35.663805],[51.238091,35.664194],[51.237309,35.664733],[51.236804,35.665147],[51.236117,35.665746],[51.235081,35.666763],[51.234658,35.66728],[51.23403,35.668065],[51.233875,35.668278],[51.233638,35.668618],[51.233383,35.668993],[51.233112,35.669451],[51.23281,35.669984],[51.2326,35.670359],[51.23215,35.671404],[51.231932,35.671993],[51.231789,35.67245],[51.231683,35.672825],[51.231602,35.673106],[51.231447,35.673841],[51.231407,35.674086],[51.231364,35.674328],[51.231288,35.675],[51.231254,35.675487],[51.231241,35.675824],[51.231228,35.67661],[51.231255,35.677026],[51.231292,35.677426],[51.231345,35.677903],[51.231424,35.678422],[51.231475,35.67869],[51.23161,35.679296],[51.231782,35.6799],[51.231861,35.680197],[51.232085,35.680856],[51.232378,35.681591],[51.232517,35.681865],[51.233188,35.683053],[51.233616,35.683792],[51.233971,35.684275],[51.234697,35.685214],[51.236077,35.686612],[51.236868,35.687371],[51.239211,35.689506],[51.239728,35.689977],[51.239905,35.690136],[51.240716,35.690881],[51.241146,35.691212],[51.241348,35.691397],[51.241813,35.691826],[51.242261,35.692239],[51.2465,35.696126],[51.247101,35.696716],[51.247437,35.697075],[51.247861,35.697577],[51.24844,35.698233],[51.248936,35.698879],[51.249334,35.699435],[51.249931,35.700385],[51.25037,35.701148],[51.250806,35.702015],[51.251412,35.703329],[51.251676,35.704189],[51.251895,35.704934],[51.252002,35.705272],[51.252364,35.70645],[51.252432,35.706701],[51.252924,35.708553],[51.252984,35.708898],[51.25305,35.709448],[51.253075,35.709981],[51.253078,35.710521],[51.253046,35.711149],[51.253014,35.71151],[51.252946,35.711969],[51.252897,35.712281],[51.252968,35.712518],[51.252962,35.712718],[51.252961,35.71288],[51.252968,35.713075],[51.252907,35.713418],[51.252889,35.713562],[51.252794,35.71417],[51.252715,35.71478],[51.252682,35.715197],[51.252738,35.715415],[51.252768,35.715499],[51.252803,35.715554],[51.252845,35.715605],[51.252912,35.71566],[51.25298,35.715708],[51.253045,35.715739],[51.253116,35.715764],[51.253196,35.715783],[51.253282,35.715797],[51.253383,35.715795],[51.253445,35.715792],[51.2535,35.715783],[51.253591,35.715758],[51.253675,35.715722],[51.253751,35.715677],[51.253823,35.715619],[51.253896,35.715523],[51.253936,35.715452],[51.253964,35.715377],[51.25397,35.715338],[51.253973,35.715292],[51.253973,35.71525],[51.253967,35.715189],[51.253947,35.715128],[51.253936,35.715092],[51.253912,35.715049],[51.253881,35.715004],[51.253844,35.714962],[51.253796,35.714928],[51.253699,35.714868],[51.253541,35.714808],[51.253251,35.714757],[51.252899,35.714722],[51.251894,35.714727],[51.251396,35.714736],[51.248631,35.714897],[51.247669,35.715015],[51.24705,35.71506],[51.246497,35.715064],[51.244031,35.715545],[51.242545,35.715823],[51.242262,35.715876],[51.240385,35.716259],[51.238383,35.71668],[51.236202,35.717085],[51.234815,35.717346],[51.233501,35.717557],[51.231691,35.717732],[51.230315,35.717838],[51.226494,35.718017],[51.223403,35.71817],[51.221793,35.718307],[51.218404,35.718684],[51.215693,35.719117],[51.215147,35.719205],[51.212131,35.719812],[51.211043,35.720049],[51.210007,35.720288],[51.207122,35.721064],[51.205716,35.72148],[51.203292,35.72227],[51.200483,35.723276],[51.198357,35.724159],[51.194842,35.725494],[51.193072,35.726246],[51.191222,35.726985],[51.183029,35.73021],[51.176837,35.732701],[51.175816,35.733079],[51.175295,35.733285],[51.174686,35.733544],[51.174224,35.733724],[51.172161,35.734558],[51.168836,35.73589],[51.163828,35.737878],[51.158742,35.739941],[51.158211,35.740169],[51.157382,35.740494],[51.156331,35.740956],[51.155109,35.741385],[51.15333,35.742107],[51.152336,35.742496],[51.15051,35.74316],[51.149373,35.74351],[51.148301,35.74378],[51.146896,35.744111],[51.145574,35.744376],[51.143019,35.744719],[51.141157,35.744882],[51.140206,35.744944],[51.138642,35.744994],[51.13828,35.744971],[51.136716,35.744928],[51.136001,35.744895],[51.134996,35.744823],[51.133993,35.744724],[51.132969,35.744609],[51.131969,35.744467],[51.1311,35.744317],[51.130216,35.744129],[51.128836,35.743818],[51.127091,35.743409],[51.125027,35.742931],[51.123494,35.742582],[51.122037,35.742296],[51.120547,35.742095],[51.119159,35.741989],[51.117661,35.741959],[51.116256,35.741992],[51.114623,35.742134],[51.112661,35.742374],[51.111598,35.742498],[51.1109,35.742604],[51.108536,35.742846],[51.102613,35.743514],[51.101031,35.743671],[51.098879,35.743913],[51.097033,35.744137],[51.095261,35.744426],[51.093583,35.744766],[51.092258,35.745111],[51.091704,35.745271],[51.089305,35.746043],[51.088209,35.746485],[51.086415,35.747254],[51.085084,35.747888],[51.084105,35.748391],[51.083311,35.748865],[51.081706,35.749852],[51.080178,35.750848],[51.077886,35.752345],[51.075975,35.753539],[51.075507,35.753886],[51.073718,35.755041],[51.07179,35.756233],[51.071413,35.756469],[51.067712,35.758668],[51.064032,35.760844],[51.059171,35.763633],[51.058618,35.763939],[51.054888,35.765933],[51.046142,35.770617],[51.045579,35.7709],[51.044295,35.771621],[51.042792,35.772566],[51.041518,35.773454],[51.040027,35.774653],[51.038914,35.775603],[51.037656,35.776917],[51.034813,35.779565],[51.033743,35.780545],[51.0325,35.781696],[51.031097,35.782756],[51.030268,35.783402],[51.029375,35.784038],[51.028069,35.784886],[51.026698,35.78568],[51.025483,35.78634],[51.024469,35.786829],[51.023008,35.78748],[51.021956,35.78788],[51.021294,35.788143],[51.0208,35.7883],[51.019204,35.788801],[51.018766,35.788915],[51.017722,35.789201],[51.016835,35.789423],[51.015904,35.789628],[51.015037,35.789788],[51.013816,35.789982],[51.012383,35.79018],[51.011638,35.790369],[51.010185,35.790539],[51.009599,35.790615],[51.009295,35.790631],[51.008693,35.790661],[51.007545,35.79072],[51.006665,35.790746],[51.006096,35.790773],[51.005824,35.790783],[51.00504,35.790812],[51.004187,35.790849],[51.003036,35.790921],[51.003,35.791]]}},{"type":"Feature","properties":{"route":12,"color":"#059669","kind":"routed_access_not_recorded_gps","duration":1177.3,"distance":15540.9},"geometry":{"type":"LineString","coordinates":[[51.554142,35.729941],[51.553566,35.730314],[51.553468,35.730426],[51.552721,35.731272],[51.552089,35.731981],[51.551337,35.732826],[51.550679,35.733556],[51.550164,35.734154],[51.550091,35.734236],[51.549678,35.734137],[51.549264,35.734123],[51.548958,35.734132],[51.548839,35.734112],[51.548752,35.734098],[51.548387,35.733876],[51.547432,35.733295],[51.54641,35.732673],[51.545816,35.732312],[51.545704,35.732291],[51.545488,35.732259],[51.545325,35.732261],[51.545163,35.73228],[51.544998,35.732465],[51.544821,35.732656],[51.544818,35.73266],[51.544715,35.732753],[51.544569,35.73285],[51.544508,35.732885],[51.544314,35.732977],[51.544276,35.732995],[51.544068,35.733092],[51.543825,35.733189],[51.543797,35.733195],[51.543596,35.733237],[51.54337,35.733266],[51.541393,35.733523],[51.540299,35.733666],[51.53881,35.733859],[51.538196,35.733922],[51.538115,35.733934],[51.537543,35.734024],[51.536826,35.734116],[51.534903,35.734367],[51.534775,35.734384],[51.532598,35.734669],[51.530411,35.734956],[51.530227,35.73498],[51.529691,35.735046],[51.529564,35.735063],[51.528976,35.735145],[51.527318,35.735362],[51.524399,35.735744],[51.52247,35.736023],[51.521888,35.736107],[51.521029,35.736223],[51.520833,35.736263],[51.520642,35.736325],[51.520594,35.736514],[51.520607,35.736761],[51.520707,35.737121],[51.522316,35.739368],[51.522303,35.739403],[51.522278,35.739434],[51.522241,35.739456],[51.522198,35.739468],[51.522153,35.739469],[51.522109,35.739458],[51.520185,35.736667],[51.519412,35.735543],[51.518886,35.734777],[51.518723,35.734507],[51.51868,35.734442],[51.518615,35.734344],[51.517821,35.733187],[51.517633,35.733029],[51.517483,35.732948],[51.517351,35.732914],[51.517142,35.732906],[51.516674,35.732966],[51.51473,35.733239],[51.513352,35.73342],[51.513007,35.733465],[51.512674,35.733508],[51.510844,35.733745],[51.510737,35.733761],[51.509943,35.733874],[51.509835,35.733887],[51.509521,35.733927],[51.508757,35.734017],[51.507471,35.734168],[51.506829,35.73425],[51.506643,35.734273],[51.504768,35.734511],[51.504149,35.734589],[51.504035,35.734602],[51.503851,35.734624],[51.502193,35.734837],[51.500732,35.735034],[51.500239,35.7351],[51.499649,35.73518],[51.499103,35.735247],[51.498828,35.73528],[51.497823,35.735404],[51.497541,35.73544],[51.496336,35.735591],[51.496263,35.7356],[51.49617,35.735612],[51.495019,35.735756],[51.49493,35.735766],[51.494887,35.73577],[51.494766,35.735785],[51.494598,35.735806],[51.493398,35.735956],[51.492106,35.73612],[51.491454,35.736211],[51.491176,35.736291],[51.490996,35.736365],[51.490768,35.736445],[51.490518,35.736481],[51.489626,35.736608],[51.488639,35.736775],[51.488015,35.736888],[51.487189,35.737027],[51.48644,35.73714],[51.485729,35.737221],[51.483449,35.737577],[51.482626,35.737702],[51.481507,35.737863],[51.481155,35.73793],[51.479326,35.738309],[51.477858,35.738592],[51.476377,35.738882],[51.475663,35.739028],[51.475122,35.739127],[51.474647,35.739207],[51.474058,35.739336],[51.471525,35.739775],[51.470128,35.739978],[51.468884,35.740164],[51.467725,35.740332],[51.466973,35.740433],[51.465893,35.740579],[51.46543,35.74061],[51.464496,35.740603],[51.464255,35.74061],[51.463838,35.740637],[51.463484,35.740685],[51.463328,35.740712],[51.463169,35.74075],[51.462003,35.741093],[51.461868,35.741133],[51.461417,35.741256],[51.461067,35.741334],[51.460716,35.741384],[51.460388,35.741407],[51.460227,35.741407],[51.460077,35.741406],[51.459904,35.741401],[51.459634,35.741373],[51.459344,35.74134],[51.458978,35.741294],[51.458581,35.741244],[51.458244,35.741217],[51.457849,35.741194],[51.457578,35.741201],[51.457143,35.741219],[51.45686,35.74124],[51.45599,35.741325],[51.454495,35.741482],[51.453921,35.741538],[51.452911,35.741636],[51.452632,35.741656],[51.45189,35.741677],[51.449441,35.741913],[51.449015,35.741944],[51.448696,35.741961],[51.448365,35.741968],[51.447297,35.74198],[51.446055,35.742074],[51.445667,35.742134],[51.445266,35.742239],[51.444434,35.742483],[51.443979,35.742595],[51.443737,35.74263],[51.443353,35.742674],[51.443091,35.742686],[51.442234,35.742695],[51.441154,35.742732],[51.439655,35.74276],[51.438583,35.742779],[51.437206,35.742746],[51.436431,35.742709],[51.436157,35.74268],[51.435514,35.742571],[51.434989,35.742407],[51.434594,35.742252],[51.434072,35.742024],[51.433849,35.741907],[51.43361,35.741779],[51.433384,35.741649],[51.432985,35.741441],[51.432777,35.74134],[51.432322,35.741141],[51.432008,35.741022],[51.431715,35.740928],[51.431218,35.740788],[51.43092,35.740727],[51.430647,35.740687],[51.430402,35.740664],[51.430183,35.740637],[51.429752,35.740601],[51.429292,35.740562],[51.427684,35.740516],[51.427398,35.740507],[51.427271,35.740504],[51.425758,35.740463],[51.42528,35.740545],[51.42485,35.740551],[51.42464,35.740586],[51.424541,35.740634],[51.424453,35.740703],[51.424386,35.74078],[51.424345,35.740861],[51.424304,35.741015],[51.424278,35.741097],[51.424235,35.741179],[51.424137,35.741315],[51.423994,35.741459],[51.423837,35.741588],[51.423614,35.741785],[51.423474,35.741948],[51.423368,35.742091],[51.423256,35.742267],[51.423189,35.742391],[51.423085,35.742603],[51.423011,35.742783],[51.422956,35.742927],[51.422908,35.743096],[51.422845,35.743391],[51.422768,35.743564],[51.422713,35.743801],[51.422617,35.744232],[51.422556,35.744456],[51.422499,35.744627],[51.4225,35.745056],[51.422616,35.745728],[51.422717,35.74613],[51.422763,35.746293],[51.422781,35.746416],[51.422809,35.746718],[51.422831,35.746941],[51.42283,35.747183],[51.422793,35.747633],[51.422756,35.747858],[51.42271,35.748094],[51.422702,35.748213],[51.422703,35.748337],[51.42272,35.748452],[51.422761,35.748562],[51.422841,35.748675],[51.422921,35.748741],[51.423038,35.748813],[51.423146,35.748868],[51.423239,35.748905],[51.423388,35.748943],[51.423563,35.748972],[51.423707,35.749012],[51.423915,35.749035],[51.424159,35.749053],[51.424398,35.749066],[51.424669,35.749075],[51.424938,35.749081],[51.425212,35.749085],[51.425864,35.749165],[51.426146,35.749167],[51.427666,35.749173],[51.429064,35.749178],[51.430038,35.749181],[51.430673,35.749183],[51.432248,35.749179],[51.433072,35.749183],[51.433732,35.749187],[51.434648,35.749234],[51.436133,35.749429],[51.436939,35.74961],[51.437395,35.749747],[51.437815,35.749877],[51.438,35.75]]}},{"type":"Feature","properties":{"route":13,"color":"#be123c","kind":"routed_access_not_recorded_gps","source":"routed_from_recorded_access_corridor","duration":1603,"distance":27494.9},"geometry":{"type":"LineString","coordinates":[[51.554142,35.729941],[51.553566,35.730314],[51.553468,35.730426],[51.552721,35.731272],[51.552089,35.731981],[51.551337,35.732826],[51.550679,35.733556],[51.550164,35.734154],[51.550091,35.734236],[51.549365,35.735059],[51.549038,35.735429],[51.548987,35.735486],[51.54859,35.735936],[51.548285,35.736294],[51.548039,35.736661],[51.547949,35.736957],[51.547621,35.736995],[51.54775,35.737644],[51.547875,35.738289],[51.547986,35.738858],[51.548108,35.739479],[51.54822,35.740049],[51.548332,35.740626],[51.548463,35.741292],[51.545017,35.74175],[51.54372,35.741922],[51.543491,35.741993],[51.543336,35.742045],[51.543189,35.742122],[51.54306,35.742217],[51.542911,35.742425],[51.542905,35.74251],[51.542901,35.742583],[51.542909,35.742704],[51.542933,35.742807],[51.543428,35.743736],[51.543682,35.744214],[51.543937,35.744693],[51.544251,35.745282],[51.544532,35.74581],[51.544822,35.746355],[51.545119,35.746913],[51.545392,35.747425],[51.545721,35.748044],[51.546448,35.749415],[51.546579,35.749491],[51.546757,35.749596],[51.546932,35.7497],[51.547565,35.749612],[51.547707,35.749623],[51.547779,35.749657],[51.547792,35.749668],[51.547847,35.749712],[51.547901,35.749821],[51.547908,35.749907],[51.547899,35.750004],[51.547847,35.750055],[51.547767,35.750105],[51.547293,35.750165],[51.54672,35.750233],[51.546615,35.750247],[51.546377,35.750278],[51.545825,35.75035],[51.545614,35.750377],[51.544978,35.750459],[51.543392,35.750685],[51.54279,35.750773],[51.541522,35.750937],[51.538496,35.751189],[51.538041,35.751249],[51.537724,35.75129],[51.537033,35.751381],[51.533166,35.751886],[51.532297,35.752],[51.531382,35.752118],[51.527193,35.752641],[51.526141,35.752783],[51.524071,35.753062],[51.521562,35.753396],[51.520315,35.753562],[51.519413,35.75375],[51.518616,35.75389],[51.517849,35.754159],[51.516699,35.75464],[51.516458,35.754731],[51.515314,35.755249],[51.514692,35.755519],[51.512926,35.756336],[51.51219,35.756676],[51.511699,35.756903],[51.511195,35.757144],[51.510259,35.757577],[51.509081,35.758122],[51.508938,35.758173],[51.508349,35.758327],[51.507909,35.758417],[51.50737,35.758489],[51.506692,35.758516],[51.504058,35.758557],[51.50323,35.758593],[51.498154,35.758915],[51.497714,35.758942],[51.49643,35.759024],[51.495043,35.759088],[51.494503,35.759087],[51.494021,35.759069],[51.493457,35.759026],[51.492619,35.75891],[51.491877,35.758779],[51.491188,35.758655],[51.490425,35.758551],[51.490296,35.758539],[51.489661,35.758462],[51.488796,35.758423],[51.488009,35.758432],[51.487166,35.758499],[51.486768,35.758545],[51.48637,35.758603],[51.485727,35.758715],[51.485436,35.758777],[51.485145,35.758839],[51.484755,35.758953],[51.484351,35.759044],[51.483971,35.759107],[51.483553,35.7592],[51.483227,35.759241],[51.48292,35.759295],[51.482618,35.759342],[51.482344,35.759365],[51.48208,35.759381],[51.481009,35.75943],[51.480776,35.759427],[51.480433,35.759411],[51.480031,35.759376],[51.478816,35.759215],[51.47842,35.759142],[51.478,35.75903],[51.477034,35.758731],[51.476064,35.758373],[51.475545,35.758187],[51.47437,35.75772],[51.473698,35.757483],[51.473439,35.757394],[51.472772,35.757223],[51.472202,35.757085],[51.471207,35.756922],[51.47041,35.756855],[51.469374,35.756841],[51.468762,35.756828],[51.468464,35.756834],[51.468173,35.756845],[51.467866,35.75685],[51.467343,35.756852],[51.46591,35.756856],[51.46492,35.756854],[51.462528,35.756765],[51.461922,35.756716],[51.461521,35.756691],[51.460764,35.756614],[51.459949,35.756526],[51.459129,35.756411],[51.458844,35.75637],[51.458375,35.756288],[51.457781,35.756188],[51.456416,35.755834],[51.456206,35.755772],[51.455695,35.755622],[51.455268,35.755466],[51.454865,35.755292],[51.454306,35.755047],[51.453944,35.754889],[51.453233,35.754533],[51.452205,35.753918],[51.451467,35.75347],[51.450497,35.752864],[51.449721,35.752413],[51.449455,35.752285],[51.449212,35.752169],[51.448649,35.751944],[51.448199,35.751779],[51.447575,35.751566],[51.447034,35.751416],[51.446605,35.751313],[51.446045,35.751193],[51.445313,35.751101],[51.44452,35.751004],[51.444154,35.750978],[51.443795,35.750952],[51.44331,35.750928],[51.443079,35.750914],[51.441926,35.750843],[51.441497,35.750827],[51.440713,35.750775],[51.440206,35.750709],[51.43971,35.750609],[51.439084,35.750449],[51.437609,35.75],[51.436275,35.74964],[51.436038,35.749583],[51.435189,35.749431],[51.434876,35.749394],[51.433707,35.749393],[51.431145,35.749349],[51.430158,35.74937],[51.428415,35.749345],[51.427624,35.749343],[51.427403,35.749342],[51.427186,35.749341],[51.42698,35.749341],[51.426152,35.749343],[51.425457,35.749345],[51.424762,35.749305],[51.424381,35.749302],[51.424005,35.749317],[51.423621,35.749334],[51.42316,35.749363],[51.422813,35.749401],[51.422516,35.749442],[51.422172,35.749507],[51.421801,35.749593],[51.421394,35.749723],[51.420607,35.750054],[51.420403,35.750161],[51.4199,35.75045],[51.419521,35.750691],[51.418786,35.75116],[51.418573,35.751288],[51.418383,35.751381],[51.417901,35.751618],[51.417616,35.751737],[51.417013,35.751958],[51.416388,35.752152],[51.415642,35.752274],[51.415147,35.752307],[51.414602,35.752305],[51.414119,35.752289],[51.413581,35.752232],[51.412974,35.752123],[51.412326,35.752],[51.411525,35.751811],[51.410921,35.751682],[51.410474,35.751585],[51.409882,35.751504],[51.409274,35.751467],[51.407358,35.75145],[51.402894,35.751374],[51.400778,35.751335],[51.397505,35.751204],[51.396551,35.751161],[51.396274,35.751145],[51.395419,35.751079],[51.393897,35.750986],[51.391724,35.750849],[51.390781,35.75079],[51.389264,35.750672],[51.388481,35.750574],[51.387657,35.750515],[51.38652,35.750439],[51.385661,35.750383],[51.385493,35.750372],[51.384966,35.750337],[51.384948,35.750336],[51.382076,35.750132],[51.3814,35.750078],[51.380684,35.750029],[51.380096,35.749994],[51.379997,35.749984],[51.379606,35.749959],[51.378571,35.749909],[51.377573,35.749861],[51.376626,35.749803],[51.376041,35.749771],[51.375112,35.749678],[51.373529,35.7495],[51.373087,35.749468],[51.372024,35.749384],[51.371477,35.74935],[51.371328,35.749324],[51.370334,35.74925],[51.369736,35.749232],[51.369017,35.749234],[51.368001,35.749243],[51.366448,35.749274],[51.365565,35.749328],[51.363798,35.749447],[51.361928,35.749614],[51.359027,35.749892],[51.357081,35.750146],[51.353702,35.750653],[51.352665,35.750797],[51.351254,35.750951],[51.350669,35.751015],[51.348795,35.751151],[51.348046,35.751183],[51.347847,35.751188],[51.347788,35.751192],[51.347651,35.751197],[51.345911,35.751242],[51.345502,35.751254],[51.343914,35.751254],[51.336497,35.751033],[51.335461,35.751031],[51.335208,35.751036],[51.334408,35.751057],[51.334184,35.751066],[51.333278,35.7511],[51.332152,35.751179],[51.331572,35.751222],[51.331219,35.751297],[51.331029,35.751314],[51.330412,35.751312],[51.329218,35.75141],[51.327428,35.75163],[51.325869,35.751861],[51.324834,35.752022],[51.323646,35.752231],[51.321833,35.752542],[51.320554,35.752743],[51.319291,35.752878],[51.318108,35.753008],[51.317355,35.753068],[51.316487,35.753151],[51.316296,35.75316],[51.315427,35.753197],[51.314566,35.753226],[51.314079,35.753248],[51.313293,35.753264],[51.312427,35.753267],[51.311797,35.75326],[51.309495,35.753258],[51.307424,35.753249],[51.305439,35.753287],[51.304319,35.753289],[51.303026,35.753309],[51.302515,35.753341],[51.301278,35.753326],[51.300024,35.753389],[51.295544,35.753404],[51.294351,35.753418],[51.289507,35.753572],[51.289209,35.753587],[51.28709,35.753675],[51.28618,35.753731],[51.285341,35.753776],[51.284497,35.7538],[51.283,35.754]]}},{"type":"Feature","properties":{"route":14,"color":"#475569","kind":"routed_access_not_recorded_gps","duration":975.2,"distance":12991},"geometry":{"type":"LineString","coordinates":[[51.554142,35.729941],[51.553566,35.730314],[51.553468,35.730426],[51.552721,35.731272],[51.552089,35.731981],[51.551337,35.732826],[51.550679,35.733556],[51.550164,35.734154],[51.550091,35.734236],[51.549365,35.735059],[51.549038,35.735429],[51.548987,35.735486],[51.54859,35.735936],[51.548285,35.736294],[51.548039,35.736661],[51.547949,35.736957],[51.547621,35.736995],[51.54775,35.737644],[51.547875,35.738289],[51.547986,35.738858],[51.548108,35.739479],[51.54822,35.740049],[51.548332,35.740626],[51.548463,35.741292],[51.545017,35.74175],[51.54372,35.741922],[51.543491,35.741993],[51.543336,35.742045],[51.543189,35.742122],[51.54306,35.742217],[51.542911,35.742425],[51.542905,35.74251],[51.542901,35.742583],[51.542909,35.742704],[51.542933,35.742807],[51.543428,35.743736],[51.543682,35.744214],[51.543937,35.744693],[51.544251,35.745282],[51.544532,35.74581],[51.544822,35.746355],[51.545119,35.746913],[51.545392,35.747425],[51.545721,35.748044],[51.546448,35.749415],[51.546579,35.749491],[51.546757,35.749596],[51.546932,35.7497],[51.547565,35.749612],[51.547707,35.749623],[51.547779,35.749657],[51.547792,35.749668],[51.547847,35.749712],[51.547901,35.749821],[51.547908,35.749907],[51.547899,35.750004],[51.547847,35.750055],[51.547767,35.750105],[51.547293,35.750165],[51.54672,35.750233],[51.546615,35.750247],[51.546377,35.750278],[51.545825,35.75035],[51.545614,35.750377],[51.544978,35.750459],[51.543392,35.750685],[51.54279,35.750773],[51.541522,35.750937],[51.538496,35.751189],[51.538041,35.751249],[51.537724,35.75129],[51.537033,35.751381],[51.533166,35.751886],[51.532297,35.752],[51.531382,35.752118],[51.527193,35.752641],[51.526141,35.752783],[51.524071,35.753062],[51.521562,35.753396],[51.520315,35.753562],[51.519413,35.75375],[51.518616,35.75389],[51.517849,35.754159],[51.516699,35.75464],[51.516458,35.754731],[51.515314,35.755249],[51.514692,35.755519],[51.512926,35.756336],[51.51219,35.756676],[51.511699,35.756903],[51.511195,35.757144],[51.510259,35.757577],[51.509081,35.758122],[51.508938,35.758173],[51.508349,35.758327],[51.507909,35.758417],[51.50737,35.758489],[51.506692,35.758516],[51.504058,35.758557],[51.50323,35.758593],[51.498154,35.758915],[51.497714,35.758942],[51.49643,35.759024],[51.495043,35.759088],[51.494503,35.759087],[51.494021,35.759069],[51.493457,35.759026],[51.492619,35.75891],[51.491877,35.758779],[51.491188,35.758655],[51.490425,35.758551],[51.490296,35.758539],[51.489661,35.758462],[51.488796,35.758423],[51.488009,35.758432],[51.487166,35.758499],[51.486768,35.758545],[51.48637,35.758603],[51.485727,35.758715],[51.485436,35.758777],[51.485145,35.758839],[51.484755,35.758953],[51.484351,35.759044],[51.483971,35.759107],[51.483553,35.7592],[51.483227,35.759241],[51.48292,35.759295],[51.482618,35.759342],[51.482344,35.759365],[51.48208,35.759381],[51.481009,35.75943],[51.480776,35.759427],[51.480433,35.759411],[51.480031,35.759376],[51.478816,35.759215],[51.47842,35.759142],[51.478,35.75903],[51.477034,35.758731],[51.476064,35.758373],[51.475545,35.758187],[51.47437,35.75772],[51.473698,35.757483],[51.473439,35.757394],[51.472772,35.757223],[51.472202,35.757085],[51.471207,35.756922],[51.47041,35.756855],[51.469374,35.756841],[51.468762,35.756828],[51.468464,35.756834],[51.468173,35.756845],[51.467866,35.75685],[51.467343,35.756852],[51.46591,35.756856],[51.46492,35.756854],[51.462528,35.756765],[51.461922,35.756716],[51.461521,35.756691],[51.460764,35.756614],[51.459949,35.756526],[51.459129,35.756411],[51.458844,35.75637],[51.458375,35.756288],[51.457781,35.756188],[51.45699,35.7561],[51.456922,35.756096],[51.45686,35.756106],[51.456802,35.756127],[51.456777,35.756143],[51.456748,35.756168],[51.456734,35.756199],[51.456725,35.756232],[51.456725,35.756263],[51.456733,35.756305],[51.456752,35.756349],[51.456963,35.756708],[51.457152,35.757031],[51.457276,35.757162],[51.457284,35.757162],[51.457331,35.757175],[51.457337,35.757179],[51.45737,35.757213],[51.45754,35.757493],[51.457554,35.757535],[51.457555,35.757541],[51.457539,35.757579],[51.457534,35.757584],[51.457492,35.75761],[51.457455,35.757625],[51.457527,35.757749],[51.457697,35.758045],[51.457926,35.75844],[51.458131,35.758797],[51.458172,35.758867],[51.458206,35.758926],[51.458432,35.759317],[51.458685,35.759757],[51.458984,35.760275],[51.459234,35.760674],[51.459458,35.761057],[51.459571,35.761235],[51.459744,35.761474],[51.459953,35.761838],[51.45999,35.761873],[51.460034,35.761892],[51.460096,35.761904],[51.460635,35.761693],[51.460975,35.761523],[51.461374,35.761388],[51.461456,35.761359],[51.461503,35.761428],[51.461674,35.761709],[51.461691,35.761807],[51.4618,35.761984],[51.462067,35.762374],[51.462379,35.762836],[51.46267,35.763301],[51.463133,35.76404],[51.464998,35.763265],[51.465162,35.7632],[51.465536,35.763052],[51.465938,35.762882],[51.466,35.763]]}},{"type":"Feature","properties":{"route":15,"color":"#a16207","kind":"routed_access_not_recorded_gps","duration":1496.4,"distance":24174.6},"geometry":{"type":"LineString","coordinates":[[51.554142,35.729941],[51.553566,35.730314],[51.553468,35.730426],[51.552721,35.731272],[51.552089,35.731981],[51.551337,35.732826],[51.550679,35.733556],[51.550164,35.734154],[51.550091,35.734236],[51.549365,35.735059],[51.549038,35.735429],[51.548987,35.735486],[51.54859,35.735936],[51.548285,35.736294],[51.548039,35.736661],[51.547949,35.736957],[51.547621,35.736995],[51.54775,35.737644],[51.547875,35.738289],[51.547986,35.738858],[51.548108,35.739479],[51.54822,35.740049],[51.548332,35.740626],[51.548463,35.741292],[51.545017,35.74175],[51.54372,35.741922],[51.543491,35.741993],[51.543336,35.742045],[51.543189,35.742122],[51.54306,35.742217],[51.542911,35.742425],[51.542905,35.74251],[51.542901,35.742583],[51.542909,35.742704],[51.542933,35.742807],[51.543428,35.743736],[51.543682,35.744214],[51.543937,35.744693],[51.544251,35.745282],[51.544532,35.74581],[51.544822,35.746355],[51.545119,35.746913],[51.545392,35.747425],[51.545721,35.748044],[51.546448,35.749415],[51.546579,35.749491],[51.546757,35.749596],[51.546932,35.7497],[51.547565,35.749612],[51.547707,35.749623],[51.547779,35.749657],[51.547792,35.749668],[51.547847,35.749712],[51.547901,35.749821],[51.547908,35.749907],[51.547899,35.750004],[51.547847,35.750055],[51.547767,35.750105],[51.547293,35.750165],[51.54672,35.750233],[51.546615,35.750247],[51.546377,35.750278],[51.545825,35.75035],[51.545614,35.750377],[51.544978,35.750459],[51.543392,35.750685],[51.54279,35.750773],[51.541522,35.750937],[51.538496,35.751189],[51.538041,35.751249],[51.537724,35.75129],[51.537033,35.751381],[51.533166,35.751886],[51.532297,35.752],[51.531382,35.752118],[51.527193,35.752641],[51.526141,35.752783],[51.524071,35.753062],[51.521562,35.753396],[51.520315,35.753562],[51.519413,35.75375],[51.518616,35.75389],[51.517849,35.754159],[51.516699,35.75464],[51.516458,35.754731],[51.515314,35.755249],[51.514692,35.755519],[51.512926,35.756336],[51.51219,35.756676],[51.511699,35.756903],[51.511195,35.757144],[51.510259,35.757577],[51.509081,35.758122],[51.508938,35.758173],[51.508349,35.758327],[51.507909,35.758417],[51.50737,35.758489],[51.506692,35.758516],[51.504058,35.758557],[51.50323,35.758593],[51.498154,35.758915],[51.497714,35.758942],[51.49643,35.759024],[51.495043,35.759088],[51.494503,35.759087],[51.494021,35.759069],[51.493457,35.759026],[51.492619,35.75891],[51.491877,35.758779],[51.491188,35.758655],[51.490425,35.758551],[51.490296,35.758539],[51.489661,35.758462],[51.488796,35.758423],[51.488009,35.758432],[51.487166,35.758499],[51.486768,35.758545],[51.48637,35.758603],[51.485727,35.758715],[51.485436,35.758777],[51.485145,35.758839],[51.484755,35.758953],[51.484351,35.759044],[51.483971,35.759107],[51.483553,35.7592],[51.483227,35.759241],[51.48292,35.759295],[51.482618,35.759342],[51.482344,35.759365],[51.48208,35.759381],[51.481009,35.75943],[51.480776,35.759427],[51.480433,35.759411],[51.480031,35.759376],[51.478816,35.759215],[51.47842,35.759142],[51.478,35.75903],[51.477034,35.758731],[51.476064,35.758373],[51.475545,35.758187],[51.47437,35.75772],[51.473698,35.757483],[51.473439,35.757394],[51.472772,35.757223],[51.472202,35.757085],[51.471207,35.756922],[51.47041,35.756855],[51.469374,35.756841],[51.468762,35.756828],[51.468464,35.756834],[51.468173,35.756845],[51.467866,35.75685],[51.467343,35.756852],[51.46591,35.756856],[51.46492,35.756854],[51.462528,35.756765],[51.461922,35.756716],[51.461521,35.756691],[51.460764,35.756614],[51.459949,35.756526],[51.459129,35.756411],[51.458844,35.75637],[51.458375,35.756288],[51.457781,35.756188],[51.456416,35.755834],[51.456206,35.755772],[51.455695,35.755622],[51.455268,35.755466],[51.454865,35.755292],[51.454306,35.755047],[51.453944,35.754889],[51.453233,35.754533],[51.452205,35.753918],[51.451467,35.75347],[51.450497,35.752864],[51.449721,35.752413],[51.449455,35.752285],[51.449212,35.752169],[51.448649,35.751944],[51.448199,35.751779],[51.447575,35.751566],[51.447034,35.751416],[51.446605,35.751313],[51.446045,35.751193],[51.445313,35.751101],[51.44452,35.751004],[51.444154,35.750978],[51.443795,35.750952],[51.44331,35.750928],[51.443079,35.750914],[51.441926,35.750843],[51.441497,35.750827],[51.440713,35.750775],[51.440206,35.750709],[51.43971,35.750609],[51.439084,35.750449],[51.437609,35.75],[51.436275,35.74964],[51.436038,35.749583],[51.435189,35.749431],[51.434876,35.749394],[51.433707,35.749393],[51.431145,35.749349],[51.430158,35.74937],[51.428415,35.749345],[51.427624,35.749343],[51.427403,35.749342],[51.427186,35.749341],[51.42698,35.749341],[51.426152,35.749343],[51.425457,35.749345],[51.424762,35.749305],[51.424381,35.749302],[51.424005,35.749317],[51.423621,35.749334],[51.42316,35.749363],[51.422813,35.749401],[51.422516,35.749442],[51.422172,35.749507],[51.421801,35.749593],[51.421394,35.749723],[51.420607,35.750054],[51.420403,35.750161],[51.4199,35.75045],[51.419521,35.750691],[51.418786,35.75116],[51.418573,35.751288],[51.418383,35.751381],[51.417901,35.751618],[51.417616,35.751737],[51.417013,35.751958],[51.416388,35.752152],[51.415642,35.752274],[51.415147,35.752307],[51.414602,35.752305],[51.414119,35.752289],[51.413581,35.752232],[51.412974,35.752123],[51.412326,35.752],[51.411525,35.751811],[51.410921,35.751682],[51.410474,35.751585],[51.409882,35.751504],[51.409274,35.751467],[51.407358,35.75145],[51.402894,35.751374],[51.400778,35.751335],[51.397505,35.751204],[51.396551,35.751161],[51.396274,35.751145],[51.395419,35.751079],[51.393897,35.750986],[51.391724,35.750849],[51.390781,35.75079],[51.389264,35.750672],[51.388481,35.750574],[51.387657,35.750515],[51.38652,35.750439],[51.385661,35.750383],[51.385493,35.750372],[51.384948,35.750336],[51.382076,35.750132],[51.3814,35.750078],[51.380684,35.750029],[51.380096,35.749994],[51.379997,35.749984],[51.379606,35.749959],[51.378571,35.749909],[51.377573,35.749861],[51.376626,35.749803],[51.376041,35.749771],[51.375112,35.749678],[51.373529,35.7495],[51.373087,35.749468],[51.372024,35.749384],[51.371477,35.74935],[51.371328,35.749324],[51.370334,35.74925],[51.369736,35.749232],[51.369017,35.749234],[51.368001,35.749243],[51.366448,35.749274],[51.365565,35.749328],[51.363798,35.749447],[51.361928,35.749614],[51.359027,35.749892],[51.357081,35.750146],[51.353702,35.750653],[51.352665,35.750797],[51.351254,35.750951],[51.350669,35.751015],[51.348795,35.751151],[51.348046,35.751183],[51.347908,35.751253],[51.34776,35.751289],[51.347684,35.751299],[51.347606,35.751312],[51.347548,35.751326],[51.347483,35.75135],[51.34743,35.751376],[51.347387,35.751401],[51.347343,35.751434],[51.347299,35.751474],[51.347262,35.751522],[51.347234,35.751572],[51.347215,35.751629],[51.34721,35.751681],[51.347213,35.751727],[51.347218,35.751775],[51.347231,35.751821],[51.347256,35.75187],[51.347291,35.751917],[51.347335,35.751959],[51.347391,35.751996],[51.347446,35.752027],[51.347509,35.752057],[51.34758,35.752075],[51.347666,35.752087],[51.347756,35.752087],[51.347844,35.752076],[51.347932,35.752047],[51.347999,35.752009],[51.348041,35.751971],[51.348076,35.751918],[51.348093,35.751857],[51.348105,35.751795],[51.348134,35.751679],[51.348108,35.751317],[51.348039,35.750387],[51.348037,35.75023],[51.348031,35.750092],[51.348007,35.749754],[51.347991,35.74956],[51.347976,35.74939],[51.347961,35.749218],[51.347944,35.749051],[51.347936,35.748908],[51.347912,35.748636],[51.34789,35.748399],[51.347875,35.74821],[51.347865,35.748121],[51.347847,35.748063],[51.347836,35.747873],[51.347834,35.747682],[51.347832,35.747481],[51.347831,35.747323],[51.347825,35.747123],[51.347823,35.746878],[51.34789,35.746676],[51.347842,35.746304],[51.347723,35.745014],[51.347643,35.744516],[51.347481,35.743875],[51.347422,35.743656],[51.347365,35.743413],[51.346984,35.741971],[51.346911,35.741676],[51.346871,35.741539],[51.346807,35.741309],[51.34672,35.74099],[51.346585,35.740473],[51.346462,35.740217],[51.34638,35.740009],[51.346335,35.739906],[51.346302,35.739821],[51.346254,35.739735],[51.346188,35.739643],[51.346117,35.739573],[51.346018,35.739493],[51.345907,35.739419],[51.345786,35.739358],[51.345648,35.739306],[51.345532,35.739278],[51.345406,35.739257],[51.345254,35.739257],[51.345126,35.739268],[51.344993,35.739304],[51.34486,35.739362],[51.344737,35.739442],[51.344636,35.73954],[51.344579,35.739623],[51.344545,35.739694],[51.344516,35.739796],[51.344504,35.7399],[51.344511,35.739996],[51.344544,35.740137],[51.344618,35.740254],[51.344681,35.740326],[51.344795,35.740416],[51.344918,35.740483],[51.345035,35.74053],[51.345173,35.740567],[51.345332,35.740592],[51.345478,35.740608],[51.345849,35.740695],[51.346371,35.74071],[51.347219,35.74072],[51.347426,35.740669],[51.347564,35.74064],[51.347668,35.740616],[51.347769,35.740585],[51.347842,35.740556],[51.347917,35.740519],[51.348002,35.740472],[51.348085,35.740415],[51.348131,35.740374],[51.348176,35.740333],[51.348221,35.74028],[51.348255,35.740226],[51.348284,35.740168],[51.348311,35.740103],[51.348326,35.740026],[51.348328,35.739959],[51.34832,35.739891],[51.348308,35.739814],[51.34828,35.739737],[51.348238,35.739664],[51.348186,35.739601],[51.348126,35.739542],[51.348058,35.739485],[51.347946,35.739422],[51.347826,35.739373],[51.347689,35.739346],[51.347556,35.739339],[51.347411,35.739351],[51.347301,35.739375],[51.34718,35.739424],[51.347062,35.739493],[51.346963,35.739582],[51.346911,35.739654],[51.346861,35.739755],[51.34683,35.739843],[51.346815,35.739922],[51.346808,35.740036],[51.346811,35.740174],[51.346802,35.74046],[51.347,35.741]]}},{"type":"Feature","properties":{"route":16,"color":"#0f766e","kind":"routed_access_not_recorded_gps","duration":2204.7,"distance":30136.1},"geometry":{"type":"LineString","coordinates":[[51.554142,35.729941],[51.554103,35.729736],[51.554805,35.728981],[51.554889,35.72889],[51.556695,35.72688],[51.556716,35.726823],[51.556716,35.726762],[51.556682,35.726687],[51.556629,35.72661],[51.556542,35.72652],[51.556248,35.726421],[51.555962,35.72632],[51.555727,35.726265],[51.554782,35.726096],[51.554043,35.726043],[51.553962,35.726038],[51.553566,35.726009],[51.553146,35.725984],[51.552861,35.725968],[51.55168,35.725891],[51.551582,35.725884],[51.550088,35.725772],[51.549714,35.725748],[51.548165,35.725626],[51.546526,35.725503],[51.545845,35.725472],[51.543374,35.725332],[51.54285,35.725292],[51.540668,35.725129],[51.540012,35.725079],[51.539264,35.725025],[51.537258,35.72489],[51.53716,35.724884],[51.535925,35.724798],[51.535271,35.72474],[51.534104,35.724653],[51.533843,35.724636],[51.533476,35.724612],[51.532308,35.724536],[51.530837,35.72444],[51.529931,35.724376],[51.528662,35.724287],[51.527236,35.724187],[51.526755,35.724154],[51.525293,35.724052],[51.524554,35.724004],[51.523877,35.723952],[51.523282,35.723913],[51.523081,35.723901],[51.522614,35.723875],[51.522065,35.723844],[51.521697,35.723825],[51.521161,35.723784],[51.520564,35.723739],[51.519896,35.723663],[51.519385,35.723605],[51.519024,35.723521],[51.518629,35.723429],[51.518275,35.723317],[51.518153,35.723281],[51.517041,35.72295],[51.515786,35.722584],[51.513395,35.721822],[51.512222,35.721454],[51.511334,35.721181],[51.510963,35.721067],[51.510516,35.72093],[51.508658,35.72035],[51.508462,35.720289],[51.507962,35.720134],[51.506406,35.719653],[51.505699,35.719434],[51.505544,35.719386],[51.503747,35.71883],[51.502637,35.718499],[51.501527,35.718149],[51.501214,35.718051],[51.499151,35.717402],[51.499009,35.717357],[51.498909,35.717326],[51.498853,35.717308],[51.498359,35.717155],[51.49762,35.716928],[51.496559,35.716602],[51.49498,35.716117],[51.494481,35.715964],[51.49432,35.715914],[51.494151,35.715862],[51.493846,35.715768],[51.493138,35.715553],[51.492795,35.715442],[51.492084,35.715221],[51.490664,35.714784],[51.490435,35.714712],[51.489902,35.714545],[51.488719,35.714179],[51.487812,35.713899],[51.487286,35.713736],[51.486443,35.713478],[51.485181,35.71309],[51.484791,35.712983],[51.484516,35.712905],[51.484376,35.712864],[51.483332,35.712547],[51.48262,35.712332],[51.482571,35.712317],[51.482261,35.712223],[51.481363,35.711951],[51.479499,35.711353],[51.478582,35.711059],[51.477306,35.710685],[51.476033,35.710306],[51.474737,35.709895],[51.474134,35.709708],[51.4727,35.709263],[51.472353,35.709149],[51.472202,35.709099],[51.471778,35.708963],[51.470731,35.708629],[51.469339,35.708192],[51.468883,35.708049],[51.466843,35.707441],[51.466542,35.707349],[51.466271,35.707266],[51.465132,35.706915],[51.462477,35.706145],[51.462232,35.706076],[51.461951,35.705996],[51.461256,35.705801],[51.460528,35.705598],[51.459401,35.705288],[51.458723,35.705084],[51.458652,35.705068],[51.458068,35.704895],[51.457445,35.704713],[51.457078,35.704612],[51.455903,35.704269],[51.454079,35.703745],[51.453897,35.703693],[51.453824,35.703672],[51.45291,35.703407],[51.450941,35.702838],[51.450345,35.702661],[51.449077,35.702289],[51.448406,35.70211],[51.448105,35.702058],[51.44719,35.702014],[51.446478,35.702004],[51.446261,35.702001],[51.446233,35.702],[51.446053,35.701997],[51.445902,35.701998],[51.445218,35.701995],[51.444935,35.701993],[51.444221,35.70199],[51.443768,35.701993],[51.443688,35.701997],[51.443505,35.701997],[51.442607,35.701982],[51.441771,35.701967],[51.440761,35.701944],[51.440513,35.701938],[51.440182,35.701937],[51.438788,35.701921],[51.438376,35.701924],[51.43806,35.701925],[51.436857,35.701913],[51.436232,35.701921],[51.436032,35.701924],[51.435391,35.701914],[51.434542,35.701902],[51.434459,35.7019],[51.433981,35.70189],[51.433872,35.701891],[51.433857,35.701892],[51.433285,35.701883],[51.432954,35.701879],[51.432655,35.701874],[51.43233,35.701869],[51.431777,35.701861],[51.430923,35.701848],[51.430177,35.701834],[51.429516,35.701828],[51.429195,35.701823],[51.42876,35.701817],[51.428219,35.701809],[51.427662,35.7018],[51.42704,35.701775],[51.426739,35.70176],[51.426186,35.701747],[51.425841,35.701741],[51.424769,35.701719],[51.424152,35.701714],[51.42361,35.701706],[51.423051,35.7017],[51.422442,35.701686],[51.422425,35.701685],[51.421529,35.701659],[51.420819,35.701642],[51.420208,35.701627],[51.419851,35.701621],[51.419706,35.701641],[51.419529,35.701673],[51.419514,35.701684],[51.419495,35.701694],[51.419476,35.701704],[51.419457,35.701713],[51.419436,35.701722],[51.419417,35.701729],[51.419397,35.701737],[51.419377,35.701744],[51.419355,35.701751],[51.41933,35.701758],[51.419304,35.701764],[51.419275,35.701771],[51.419248,35.701777],[51.419219,35.701782],[51.41919,35.701787],[51.419158,35.70179],[51.419129,35.701792],[51.4191,35.701794],[51.419072,35.701795],[51.419043,35.701794],[51.418991,35.70179],[51.418957,35.701782],[51.418932,35.701776],[51.418891,35.701763],[51.418871,35.701757],[51.418849,35.701749],[51.418831,35.701741],[51.418808,35.701731],[51.418783,35.701719],[51.41876,35.701706],[51.418737,35.701692],[51.418716,35.701678],[51.418696,35.701663],[51.418676,35.701648],[51.418657,35.701632],[51.418385,35.701579],[51.418292,35.701577],[51.417666,35.701565],[51.417133,35.701555],[51.415909,35.701532],[51.41533,35.70152],[51.415123,35.701483],[51.414821,35.701457],[51.410722,35.701368],[51.410056,35.701373],[51.409817,35.701395],[51.409449,35.701392],[51.408575,35.701376],[51.406539,35.70134],[51.405712,35.701325],[51.40522,35.701318],[51.40511,35.701315],[51.404064,35.701288],[51.402864,35.701255],[51.402804,35.701252],[51.402688,35.701247],[51.400835,35.701208],[51.400578,35.701202],[51.40046,35.701199],[51.400339,35.701196],[51.400209,35.701193],[51.399183,35.701183],[51.398425,35.701164],[51.398292,35.701161],[51.398153,35.70116],[51.396358,35.701131],[51.396249,35.701129],[51.396204,35.701128],[51.39616,35.701128],[51.39438,35.701099],[51.394212,35.701096],[51.39411,35.701094],[51.393945,35.70109],[51.392946,35.70107],[51.392148,35.701079],[51.391874,35.701159],[51.391679,35.701215],[51.391357,35.701237],[51.391253,35.701266],[51.391186,35.70127],[51.39112,35.701269],[51.391038,35.701254],[51.390972,35.70123],[51.390881,35.701175],[51.390811,35.701102],[51.390768,35.701017],[51.390756,35.700925],[51.390774,35.700834],[51.390822,35.70075],[51.390896,35.70068],[51.39099,35.700629],[51.391084,35.700602],[51.39119,35.700343],[51.391325,35.699294],[51.391389,35.6988],[51.39148,35.698094],[51.391523,35.697762],[51.391597,35.697181],[51.391605,35.697108],[51.391618,35.697019],[51.391698,35.696398],[51.39171,35.696307],[51.39172,35.696224],[51.391731,35.69615],[51.391743,35.696053],[51.391782,35.695773],[51.391863,35.695183],[51.391934,35.694669],[51.391941,35.694615],[51.391961,35.694474],[51.392017,35.694067],[51.392066,35.693715],[51.392109,35.693402],[51.392122,35.693308],[51.392134,35.693218],[51.392172,35.692945],[51.392225,35.69256],[51.392297,35.692038],[51.392377,35.691457],[51.392405,35.691255],[51.39242,35.691123],[51.392356,35.691099],[51.392298,35.691065],[51.392251,35.691023],[51.392216,35.690973],[51.392194,35.690918],[51.392187,35.690867],[51.392192,35.690815],[51.392219,35.690745],[51.392268,35.690683],[51.392335,35.690634],[51.392416,35.690601],[51.392471,35.690586],[51.392486,35.690478],[51.39265,35.689287],[51.39266,35.689216],[51.392739,35.688643],[51.392764,35.68848],[51.392757,35.688434],[51.392728,35.688395],[51.392691,35.688374],[51.392657,35.688349],[51.392628,35.688321],[51.392604,35.68829],[51.392492,35.688257],[51.392453,35.688246],[51.392411,35.688241],[51.392369,35.688236],[51.392327,35.688237],[51.392091,35.688307],[51.389976,35.688951],[51.389842,35.688974],[51.389705,35.688973],[51.38957,35.688965],[51.389435,35.688945],[51.388343,35.688592],[51.387907,35.688451],[51.387823,35.688423],[51.386809,35.688095],[51.386422,35.688035],[51.386163,35.688023],[51.386117,35.688026],[51.385458,35.688069],[51.383952,35.688167],[51.383702,35.688183],[51.383499,35.688168],[51.383281,35.688151],[51.382731,35.68811],[51.381926,35.688045],[51.381703,35.688027],[51.381292,35.687994],[51.379073,35.687859],[51.377921,35.68779],[51.377641,35.687774],[51.377421,35.687761],[51.377115,35.687744],[51.376522,35.687709],[51.376478,35.687707],[51.375842,35.68767],[51.37556,35.687653],[51.374949,35.687618],[51.374863,35.687613],[51.374737,35.687602],[51.374046,35.687565],[51.373424,35.687529],[51.373045,35.687507],[51.372191,35.687458],[51.371581,35.687422],[51.370434,35.687356],[51.370254,35.687345],[51.36865,35.687252],[51.368599,35.687249],[51.368583,35.687248],[51.368481,35.687242],[51.367935,35.687211],[51.367876,35.687207],[51.36785,35.687206],[51.367178,35.687167],[51.367053,35.687159],[51.366973,35.687155],[51.366539,35.68713],[51.366339,35.687118],[51.366059,35.687102],[51.365914,35.687093],[51.365548,35.687072],[51.365297,35.687057],[51.36523,35.687054],[51.364865,35.687032],[51.364316,35.687001],[51.364308,35.687],[51.364157,35.686991],[51.364076,35.686987],[51.363898,35.686976],[51.363567,35.686968],[51.362166,35.686907],[51.361708,35.686891],[51.361517,35.686878],[51.360834,35.686847],[51.360728,35.686843],[51.359229,35.686761],[51.359114,35.686756],[51.358513,35.686731],[51.358279,35.686723],[51.358114,35.686718],[51.357939,35.686713],[51.357686,35.686698],[51.357507,35.686688],[51.357321,35.686674],[51.356731,35.686638],[51.35618,35.686618],[51.355748,35.6866],[51.355716,35.686599],[51.355458,35.686584],[51.355381,35.686587],[51.355306,35.686601],[51.355236,35.686626],[51.355171,35.68666],[51.355129,35.686692],[51.355092,35.686729],[51.355042,35.686805],[51.355016,35.686889],[51.35527,35.687903],[51.35551,35.688876],[51.355457,35.688927],[51.355392,35.688955],[51.355324,35.688964],[51.355255,35.688948],[51.355193,35.688906],[51.355153,35.688543],[51.354619,35.686528],[51.354588,35.686426],[51.354542,35.686282],[51.354413,35.685837],[51.354369,35.685636],[51.354332,35.685448],[51.354278,35.684962],[51.354274,35.684864],[51.354318,35.684659],[51.354304,35.684492],[51.354185,35.684106],[51.354153,35.68387],[51.354088,35.683506],[51.354058,35.683353],[51.353983,35.683106],[51.354005,35.682928],[51.354063,35.682582],[51.354083,35.682529],[51.354105,35.682342],[51.354257,35.68123],[51.354284,35.681059],[51.354348,35.680588],[51.354446,35.68006],[51.354481,35.679995],[51.354532,35.679673],[51.35454,35.679601],[51.354587,35.679178],[51.354635,35.678737],[51.354645,35.678645],[51.354562,35.678638],[51.354326,35.678619],[51.353151,35.678521],[51.352509,35.678468],[51.351008,35.678343],[51.350957,35.678339],[51.350748,35.678321],[51.349281,35.678199],[51.348632,35.678145],[51.348569,35.67814],[51.34815,35.678105],[51.346866,35.677998],[51.346801,35.677993],[51.346581,35.677975],[51.344464,35.677798],[51.344254,35.677781],[51.344028,35.677762],[51.34393,35.677895],[51.343698,35.678199],[51.3435,35.678471],[51.343316,35.678693],[51.343149,35.678946],[51.34306,35.679081],[51.342861,35.679438],[51.34271,35.679661],[51.342579,35.679867],[51.342442,35.679986],[51.34228,35.680087],[51.342115,35.680183],[51.342039,35.680266],[51.342006,35.680374],[51.342008,35.680455],[51.342073,35.680568],[51.342151,35.680681],[51.342261,35.680877],[51.342773,35.681436],[51.342832,35.681531],[51.343076,35.681927],[51.343264,35.682236],[51.34334,35.682429],[51.343379,35.68263],[51.343317,35.682933],[51.34329,35.683075],[51.343237,35.683202],[51.343194,35.6833],[51.343157,35.683377],[51.343107,35.683431],[51.34305,35.683459],[51.343001,35.683469],[51.342908,35.68347],[51.342796,35.683441],[51.342725,35.68339],[51.342682,35.683321],[51.342652,35.683224],[51.342646,35.683163],[51.342645,35.683106],[51.34266,35.682916],[51.342695,35.682768],[51.342713,35.682646],[51.342728,35.682505],[51.342727,35.682377],[51.342719,35.682263],[51.342703,35.682123],[51.342668,35.681977],[51.342637,35.681856],[51.342588,35.681722],[51.342537,35.681589],[51.34247,35.681465],[51.342399,35.681363],[51.342318,35.68126],[51.342147,35.681068],[51.341952,35.680871],[51.34185,35.680785],[51.341764,35.680728],[51.341661,35.680681],[51.341526,35.680643],[51.341369,35.680613],[51.341201,35.680586],[51.341031,35.680561],[51.340879,35.680545],[51.340608,35.68054],[51.339721,35.680414],[51.338901,35.680302],[51.338325,35.680218],[51.337814,35.680133],[51.337244,35.680019],[51.335634,35.67977],[51.335089,35.679678],[51.333179,35.679355],[51.332413,35.679242],[51.33186,35.679048],[51.331443,35.678866],[51.330739,35.678429],[51.330139,35.678059],[51.330029,35.677987],[51.329673,35.677826],[51.328804,35.677326],[51.328408,35.677062],[51.32823,35.676934],[51.327147,35.67623],[51.326275,35.675706],[51.32573,35.675419],[51.325326,35.675249],[51.324892,35.675145],[51.324473,35.675075],[51.323998,35.675052],[51.323691,35.675056],[51.323451,35.675065],[51.322143,35.675204],[51.321213,35.675236],[51.319464,35.675333],[51.318883,35.675364],[51.318669,35.675349],[51.317485,35.675429],[51.317256,35.675446],[51.317116,35.675443],[51.314733,35.675537],[51.314473,35.675557],[51.313187,35.675619],[51.310736,35.675751],[51.308888,35.675866],[51.308738,35.675878],[51.308252,35.675905],[51.307256,35.675943],[51.3065,35.675982],[51.306173,35.675999],[51.305178,35.676039],[51.304604,35.676051],[51.303587,35.676122],[51.302253,35.676139],[51.301145,35.676082],[51.297632,35.676169],[51.294566,35.676278],[51.293743,35.676375],[51.293655,35.676415],[51.292691,35.67645],[51.292362,35.67646],[51.291056,35.676521],[51.290916,35.676534],[51.290403,35.676554],[51.290333,35.676555],[51.290053,35.676559],[51.288824,35.676591],[51.287397,35.67664],[51.285991,35.676677],[51.284343,35.676752],[51.2826,35.67679],[51.282314,35.676796],[51.282002,35.676811],[51.280478,35.676881],[51.279316,35.676939],[51.279,35.677]]}}]}
