{"type":"FeatureCollection","features":[{"type":"Feature","geometry":{"type":"MultiLineString","coordinates":[[[51.554,35.73],[51.554,35.73],[51.554,35.731],[51.564,35.736],[51.567,35.732],[51.556,35.726],[51.524,35.724],[51.523,35.723],[51.516,35.722],[51.512,35.72],[51.505,35.711],[51.5,35.701],[51.494,35.692],[51.492,35.686],[51.508,35.675],[51.508,35.667]]]},"properties":{"route":1,"color":"#2563eb","times":[[0,5122,5125,5227,5347,5449,5647,5689,5737,5755,5803,5863,5917,5953,6100,6160]]}},{"type":"Feature","geometry":{"type":"MultiLineString","coordinates":[[[51.537,35.726],[51.536,35.726]],[[51.537,35.734],[51.53,35.735],[51.526,35.728],[51.526,35.728],[51.526,35.728],[51.526,35.729],[51.526,35.729],[51.526,35.729],[51.526,35.729],[51.526,35.729],[51.526,35.728],[51.526,35.728],[51.526,35.728],[51.526,35.728],[51.526,35.728],[51.526,35.729],[51.526,35.729],[51.526,35.729],[51.524,35.726],[51.514,35.728],[51.516,35.731],[51.514,35.728],[51.512,35.728],[51.503,35.729],[51.503,35.731],[51.504,35.731],[51.504,35.731],[51.504,35.732],[51.504,35.731],[51.504,35.731],[51.497,35.733],[51.495,35.73],[51.496,35.73],[51.496,35.73],[51.497,35.73],[51.497,35.73],[51.496,35.73],[51.496,35.73],[51.502,35.729],[51.502,35.729],[51.502,35.73],[51.502,35.73],[51.503,35.729],[51.502,35.724],[51.502,35.724],[51.502,35.725],[51.502,35.725],[51.502,35.724],[51.502,35.724],[51.502,35.723],[51.5,35.723],[51.5,35.723],[51.5,35.723],[51.5,35.723],[51.5,35.723],[51.502,35.724],[51.502,35.724],[51.502,35.724],[51.501,35.72],[51.496,35.72],[51.496,35.718],[51.496,35.719],[51.496,35.719],[51.496,35.719],[51.496,35.719],[51.496,35.72],[51.494,35.72],[51.494,35.721],[51.497,35.722],[51.497,35.724],[51.497,35.724],[51.498,35.728],[51.498,35.728],[51.498,35.728],[51.498,35.727],[51.494,35.728],[51.494,35.731],[51.49,35.731],[51.49,35.732],[51.485,35.733],[51.482,35.732],[51.475,35.733],[51.466,35.732],[51.464,35.731],[51.458,35.731],[51.458,35.73],[51.46,35.731],[51.462,35.729],[51.462,35.729],[51.461,35.729],[51.461,35.729],[51.462,35.729],[51.462,35.729],[51.462,35.73],[51.462,35.729],[51.462,35.729],[51.462,35.729],[51.462,35.729],[51.469,35.722],[51.469,35.724],[51.469,35.724],[51.469,35.723]],[[51.469,35.723],[51.472,35.721],[51.473,35.719],[51.473,35.719],[51.473,35.719],[51.472,35.721],[51.473,35.72],[51.472,35.721],[51.472,35.721],[51.472,35.721],[51.471,35.719],[51.469,35.72],[51.471,35.719],[51.471,35.719],[51.474,35.718],[51.475,35.716],[51.476,35.716],[51.478,35.715],[51.481,35.712],[51.476,35.711],[51.471,35.714],[51.471,35.714],[51.472,35.714],[51.472,35.714],[51.47,35.715],[51.47,35.715],[51.465,35.719],[51.464,35.718],[51.465,35.717],[51.465,35.717],[51.465,35.717],[51.459,35.728],[51.458,35.736],[51.461,35.741],[51.517,35.733],[51.516,35.731],[51.519,35.733],[51.536,35.73],[51.528,35.731],[51.525,35.726],[51.526,35.728],[51.526,35.728],[51.527,35.731],[51.536,35.73],[51.537,35.732]]]},"properties":{"route":2,"color":"#0d9488","times":[[0,72],[3658,3808,4042,4297,4342,4528,4735,4789,4844,4973,5303,5444,5504,5615,5648,5756,5954,6044,6125,6242,6290,6326,6341,6419,6470,6473,6605,6608,6614,6903,7056,7164,7170,7482,7485,7581,7584,7677,7758,7875,7878,8007,8025,8091,8328,8331,8703,8706,9488,9506,9545,9656,9671,9809,9824,9872,9905,9968,10037,10100,10199,10550,10757,10790,11039,11063,11099,11150,11198,11240,11662,11871,11897,11995,12082,12268,12328,12439,12469,12571,12769,12841,12916,13012,13063,13075,13096,13123,13330,13663,13963,13966,14086,14092,14182,14275,14344,14485,14696,14756,14879,14921],[15362,15512,15620,15709,15730,16128,16281,16362,16605,16617,16752,16794,16878,17163,17226,17289,17331,17385,17478,17577,17721,18225,18228,18522,18666,18799,18892,18982,19003,19108,19159,19282,19372,19405,19816,19846,19882,20077,20212,20287,20305,20842,20911,21040,21064]]}},{"type":"Feature","geometry":{"type":"MultiLineString","coordinates":[[[51.442,35.751],[51.448,35.752],[51.455,35.755],[51.46,35.756],[51.471,35.757],[51.481,35.759],[51.486,35.758],[51.486,35.757],[51.484,35.761],[51.486,35.766],[51.487,35.774],[51.49,35.779],[51.491,35.784],[51.494,35.785],[51.497,35.786],[51.498,35.785],[51.501,35.786],[51.508,35.784],[51.514,35.782],[51.519,35.779],[51.522,35.778]]]},"properties":{"route":3,"color":"#7c3aed","times":[[0,30,66,87,132,171,210,222,264,294,333,363,393,423,441,462,492,534,561,588,603]]}},{"type":"Feature","geometry":{"type":"MultiLineString","coordinates":[[[51.559,35.769],[51.539,35.776],[51.521,35.778],[51.514,35.782],[51.514,35.782],[51.514,35.782],[51.521,35.79],[51.518,35.791],[51.516,35.791],[51.516,35.791],[51.516,35.791],[51.517,35.791],[51.517,35.791],[51.521,35.79],[51.514,35.783],[51.503,35.786],[51.508,35.797],[51.524,35.794],[51.52,35.795],[51.52,35.796],[51.52,35.796],[51.52,35.796],[51.518,35.796],[51.52,35.798],[51.52,35.798],[51.523,35.801],[51.524,35.802],[51.527,35.803],[51.524,35.804],[51.526,35.807],[51.526,35.807],[51.526,35.807],[51.525,35.809],[51.525,35.809],[51.525,35.809],[51.526,35.807],[51.524,35.805],[51.526,35.803],[51.524,35.802],[51.518,35.796],[51.509,35.797],[51.509,35.799],[51.509,35.799],[51.509,35.799],[51.504,35.8],[51.506,35.804],[51.505,35.805],[51.504,35.8],[51.507,35.8],[51.507,35.8],[51.507,35.799],[51.504,35.8],[51.506,35.805],[51.512,35.809],[51.512,35.809],[51.512,35.809],[51.508,35.806],[51.505,35.807],[51.505,35.807],[51.501,35.809],[51.501,35.809],[51.501,35.808],[51.501,35.808],[51.501,35.808],[51.5,35.81],[51.5,35.81],[51.5,35.81],[51.499,35.809],[51.499,35.809],[51.498,35.809],[51.497,35.814],[51.493,35.82],[51.491,35.818],[51.489,35.817],[51.489,35.817],[51.488,35.816],[51.49,35.815],[51.49,35.813],[51.49,35.813],[51.49,35.813],[51.492,35.814],[51.492,35.814],[51.493,35.814],[51.493,35.814],[51.493,35.814],[51.491,35.814],[51.49,35.813],[51.49,35.813],[51.49,35.813],[51.489,35.816],[51.484,35.817],[51.484,35.817],[51.482,35.816],[51.482,35.816],[51.481,35.817],[51.48,35.815],[51.48,35.815],[51.478,35.814],[51.478,35.814],[51.478,35.814],[51.478,35.815],[51.478,35.815],[51.478,35.816],[51.48,35.82],[51.48,35.82],[51.48,35.82],[51.48,35.82],[51.48,35.82],[51.479,35.817],[51.476,35.817],[51.475,35.816],[51.473,35.817],[51.473,35.817],[51.473,35.817],[51.473,35.818],[51.473,35.818],[51.473,35.818],[51.473,35.818],[51.473,35.818],[51.471,35.813],[51.471,35.813],[51.471,35.813],[51.471,35.813],[51.471,35.812],[51.475,35.813],[51.475,35.813],[51.476,35.814],[51.475,35.813],[51.475,35.813],[51.474,35.813],[51.482,35.812],[51.484,35.811],[51.484,35.81],[51.484,35.81],[51.481,35.802],[51.482,35.805],[51.484,35.805],[51.485,35.805],[51.485,35.805],[51.485,35.805],[51.484,35.803],[51.483,35.801],[51.481,35.801],[51.48,35.8],[51.483,35.801],[51.483,35.801],[51.485,35.8],[51.481,35.794],[51.481,35.794],[51.48,35.794],[51.481,35.794],[51.481,35.794],[51.486,35.801],[51.488,35.802],[51.489,35.801],[51.489,35.801],[51.492,35.799],[51.492,35.799],[51.492,35.799],[51.493,35.8],[51.493,35.8],[51.493,35.801],[51.497,35.8],[51.496,35.796],[51.499,35.795],[51.499,35.795],[51.5,35.794],[51.501,35.795],[51.501,35.795]]]},"properties":{"route":4,"color":"#d97706","times":[[0,120,228,339,516,519,684,729,777,891,1143,1146,1362,1407,1527,1611,1719,1830,1875,1884,2301,2319,2349,2391,2580,2649,2679,2724,2769,2823,2913,2973,2994,4956,7266,7302,7344,7383,7401,7521,7602,7626,8091,8097,8136,8184,8205,8265,8292,8403,8412,8523,8592,8682,8706,8889,8958,8988,9159,9210,9303,9306,9504,9570,9672,9681,9783,9792,10257,10263,10332,10491,10533,10560,11058,11073,11109,11133,11142,11244,11265,11403,11406,11628,11856,11883,11904,12264,12270,12306,12375,12798,12846,13101,13137,13248,13440,13533,13869,14010,14013,14292,14325,14403,14784,14850,14937,14958,15024,15081,15129,15150,15165,15273,15276,15387,15462,15621,15660,15786,15996,16005,16110,16323,16404,16527,16566,16632,16833,16911,17052,17127,17136,17577,17664,17724,17775,17781,17925,18036,18057,18129,18168,18186,18261,18702,18729,18825,19485,19551,19578,19992,20181,20208,20232,20391,20451,20589,20802,20814,21108,21114,21168,21210,21252,21426,21441,21471,21627]]}},{"type":"Feature","geometry":{"type":"MultiLineString","coordinates":[[[51.473,35.769],[51.465,35.772],[51.468,35.775],[51.465,35.776],[51.466,35.778],[51.465,35.778],[51.465,35.781],[51.452,35.78],[51.452,35.78],[51.452,35.78],[51.452,35.78],[51.446,35.78],[51.441,35.776],[51.437,35.776],[51.436,35.778],[51.433,35.779],[51.433,35.779],[51.433,35.779],[51.432,35.778],[51.433,35.777],[51.433,35.777],[51.434,35.775],[51.434,35.775],[51.434,35.775],[51.432,35.774],[51.432,35.774],[51.43,35.773],[51.431,35.77],[51.431,35.77],[51.431,35.77],[51.431,35.771],[51.431,35.771],[51.43,35.773],[51.432,35.774],[51.432,35.773],[51.432,35.773],[51.433,35.768],[51.436,35.767],[51.436,35.767],[51.436,35.767],[51.435,35.77],[51.436,35.772],[51.437,35.768],[51.438,35.769],[51.438,35.769],[51.438,35.769],[51.437,35.768],[51.437,35.77],[51.437,35.768],[51.441,35.764],[51.442,35.763],[51.439,35.762],[51.439,35.762],[51.438,35.762],[51.439,35.764],[51.439,35.764],[51.439,35.764],[51.438,35.762],[51.435,35.763],[51.436,35.766],[51.436,35.766],[51.436,35.766],[51.435,35.766],[51.435,35.766],[51.43,35.767],[51.429,35.766],[51.429,35.766],[51.427,35.766],[51.427,35.764],[51.432,35.762],[51.432,35.762],[51.432,35.762],[51.432,35.763],[51.432,35.763],[51.435,35.762],[51.438,35.759],[51.44,35.76],[51.442,35.759],[51.439,35.759],[51.439,35.759],[51.439,35.759],[51.439,35.76],[51.442,35.759],[51.442,35.76],[51.442,35.76],[51.442,35.76],[51.442,35.76],[51.442,35.76],[51.442,35.76],[51.442,35.762],[51.443,35.763],[51.443,35.763],[51.444,35.763],[51.445,35.762],[51.445,35.762],[51.446,35.76],[51.446,35.76],[51.448,35.756],[51.448,35.756],[51.448,35.754],[51.446,35.754],[51.446,35.754],[51.446,35.754],[51.443,35.758],[51.443,35.758],[51.443,35.758],[51.44,35.758],[51.439,35.756],[51.439,35.756],[51.439,35.753],[51.44,35.751],[51.444,35.752],[51.444,35.75],[51.444,35.75],[51.444,35.75],[51.447,35.75],[51.447,35.75],[51.447,35.75],[51.447,35.747],[51.447,35.747],[51.447,35.747],[51.447,35.747],[51.449,35.747],[51.449,35.751],[51.454,35.755],[51.46,35.756],[51.467,35.756],[51.466,35.756],[51.466,35.758],[51.467,35.764],[51.469,35.769],[51.473,35.772]]]},"properties":{"route":5,"color":"#0891b2","times":[[0,138,195,231,270,312,366,543,747,900,1056,1125,1350,1557,1620,1665,1749,2472,2490,2499,2709,2781,2787,3117,3177,3375,3399,3552,3585,4446,4449,5190,5220,5310,5337,5466,5769,5811,5883,6339,6432,6468,6552,6666,6669,6774,6804,6873,6915,7011,7041,7095,7254,7260,7320,7668,7686,7722,7785,7869,9144,9279,9282,9606,9711,9741,10785,10830,10854,10992,11007,11085,11088,11358,11409,11532,11565,11637,11712,11937,11967,11988,12042,12045,12564,12594,12720,12921,13266,13329,13344,13494,13554,13572,13827,13854,14385,14484,14748,14775,14820,15213,15219,15324,15327,15618,15690,15804,16509,16551,16596,16641,16662,16923,16929,16971,17112,17124,17154,17160,17508,17736,17769,17835,17916,17955,18009,18021,18036,18078,18108,18135]]}},{"type":"Feature","geometry":{"type":"MultiLineString","coordinates":[[[51.467,35.764],[51.465,35.749],[51.458,35.736],[51.458,35.731],[51.458,35.731],[51.458,35.731],[51.456,35.73],[51.451,35.729],[51.451,35.725],[51.451,35.725],[51.451,35.725],[51.451,35.726],[51.451,35.726],[51.451,35.728],[51.452,35.728],[51.454,35.728],[51.454,35.726],[51.454,35.726],[51.454,35.726],[51.455,35.725],[51.457,35.728],[51.457,35.728],[51.457,35.729],[51.457,35.729],[51.462,35.723],[51.461,35.721],[51.461,35.721],[51.461,35.721],[51.458,35.721],[51.458,35.721],[51.457,35.721],[51.46,35.72],[51.46,35.718],[51.46,35.718],[51.46,35.718],[51.458,35.718],[51.458,35.718],[51.458,35.718],[51.457,35.718],[51.457,35.718],[51.455,35.716],[51.455,35.716],[51.451,35.713],[51.451,35.713],[51.451,35.712],[51.451,35.712],[51.45,35.712],[51.45,35.712],[51.45,35.712],[51.447,35.708],[51.447,35.708],[51.447,35.708],[51.448,35.708],[51.448,35.708],[51.448,35.708],[51.447,35.708],[51.447,35.708],[51.446,35.708],[51.447,35.708],[51.447,35.708],[51.447,35.708],[51.447,35.708],[51.447,35.708],[51.447,35.708],[51.445,35.706],[51.445,35.706],[51.445,35.706],[51.448,35.709],[51.448,35.709],[51.448,35.709],[51.446,35.707],[51.449,35.705],[51.449,35.705],[51.449,35.705],[51.457,35.712],[51.457,35.708],[51.459,35.708],[51.459,35.708],[51.459,35.708],[51.459,35.711],[51.458,35.71],[51.458,35.71],[51.458,35.71],[51.458,35.71],[51.457,35.71],[51.458,35.71],[51.458,35.71],[51.459,35.711],[51.458,35.712],[51.461,35.714],[51.462,35.716],[51.462,35.716],[51.462,35.716],[51.461,35.715],[51.462,35.711],[51.462,35.711],[51.462,35.708],[51.464,35.709],[51.464,35.709],[51.465,35.71],[51.467,35.709],[51.465,35.71],[51.465,35.71],[51.465,35.71],[51.466,35.709],[51.466,35.709],[51.468,35.71],[51.468,35.71],[51.468,35.71],[51.467,35.714],[51.467,35.714],[51.467,35.715],[51.467,35.715],[51.467,35.715],[51.459,35.727],[51.459,35.731],[51.454,35.729],[51.445,35.732],[51.447,35.742],[51.445,35.742],[51.445,35.742],[51.445,35.742],[51.444,35.742],[51.444,35.741],[51.44,35.741],[51.439,35.739],[51.439,35.739],[51.439,35.739],[51.438,35.739],[51.438,35.739],[51.438,35.739],[51.438,35.739],[51.436,35.739],[51.436,35.739],[51.433,35.74],[51.433,35.739],[51.433,35.739],[51.433,35.738],[51.433,35.738],[51.433,35.737],[51.433,35.737],[51.433,35.736],[51.433,35.736],[51.433,35.736],[51.436,35.736],[51.436,35.736],[51.436,35.736],[51.441,35.736],[51.441,35.736],[51.442,35.736],[51.444,35.739],[51.446,35.739],[51.447,35.742],[51.462,35.741],[51.465,35.75],[51.467,35.764]],[[51.467,35.764],[51.465,35.749],[51.458,35.737],[51.458,35.728],[51.454,35.724],[51.449,35.721],[51.449,35.722],[51.449,35.722],[51.449,35.722],[51.449,35.721],[51.449,35.721],[51.449,35.721],[51.449,35.722],[51.449,35.722],[51.449,35.722],[51.452,35.722],[51.451,35.72],[51.451,35.72],[51.45,35.719],[51.45,35.719],[51.45,35.719],[51.449,35.719],[51.449,35.719],[51.449,35.719],[51.45,35.718],[51.45,35.718],[51.448,35.714],[51.448,35.714],[51.447,35.712],[51.447,35.712],[51.446,35.71],[51.446,35.71],[51.446,35.71],[51.446,35.71],[51.445,35.709],[51.444,35.71],[51.445,35.712],[51.447,35.716],[51.445,35.717],[51.445,35.717],[51.445,35.717],[51.445,35.718],[51.445,35.718],[51.446,35.721],[51.446,35.721],[51.446,35.721],[51.443,35.721],[51.443,35.72],[51.443,35.72],[51.442,35.716],[51.44,35.717],[51.44,35.717],[51.44,35.717],[51.442,35.718],[51.442,35.715],[51.44,35.715],[51.44,35.715],[51.439,35.715],[51.437,35.711],[51.433,35.712]]]},"properties":{"route":6,"color":"#db2777","times":[[0,180,258,354,453,468,549,744,801,828,900,903,1242,1314,1332,1401,1443,1716,1839,1860,1902,2106,2121,2136,2208,2253,2451,2457,2550,2742,2772,2853,2874,3036,3060,3084,3147,3186,3189,3345,3555,3645,3768,3987,3990,4107,4134,4305,4335,4386,4389,4476,4479,4497,4587,4590,4725,4731,4815,4944,4959,4986,5067,5103,5142,5349,5388,5526,5892,5916,5949,6039,6045,6192,6423,6501,6531,7014,7053,7134,7152,7284,7302,7407,7428,7446,7842,7854,7890,7965,7980,8522,8774,8801,8921,9150,9519,9573,9702,9885,9914,9926,9959,10052,10070,10223,10250,11048,11069,11171,11273,11405,12146,12218,12419,12476,12521,12620,12776,12809,13235,13262,13331,13382,13427,13472,13700,14027,14030,14216,14225,14422,14440,14563,14888,14903,15211,15214,15307,15495,15714,15717,15822,15831,15870,16110,16131,16248,16362,16374,16416,16452,16551,16770,16833,16902],[86474,86642,86729,86780,86810,86921,86939,87095,87134,87137,87305,87617,87620,87710,87716,87755,87839,88031,88034,88121,88133,88136,88238,88484,88487,88691,88757,89126,89165,89461,89482,89758,89773,89884,89908,89944,89980,90031,90070,90073,90178,90181,90463,90682,90841,90925,91090,91219,91585,91759,91882,91966,92170,92215,92287,92383,92473,92476,92560,92761]]}},{"type":"Feature","geometry":{"type":"MultiLineString","coordinates":[[[51.519,35.724],[51.449,35.702],[51.438,35.702],[51.432,35.705],[51.426,35.706],[51.426,35.699],[51.428,35.7],[51.428,35.7],[51.428,35.7],[51.426,35.699],[51.424,35.689],[51.423,35.69],[51.423,35.69],[51.423,35.69],[51.424,35.691],[51.424,35.697],[51.423,35.697],[51.423,35.697],[51.422,35.698],[51.42,35.696],[51.419,35.698],[51.414,35.697],[51.414,35.697],[51.414,35.698],[51.414,35.698],[51.414,35.698],[51.414,35.696],[51.414,35.696],[51.414,35.696],[51.414,35.697],[51.414,35.697],[51.414,35.697],[51.412,35.698],[51.413,35.7],[51.423,35.699],[51.424,35.701],[51.427,35.701],[51.427,35.702],[51.427,35.702],[51.427,35.702],[51.432,35.702],[51.433,35.701],[51.433,35.701],[51.433,35.701],[51.433,35.699],[51.434,35.699],[51.433,35.695],[51.433,35.695],[51.433,35.695],[51.432,35.696],[51.433,35.699],[51.436,35.698],[51.434,35.694],[51.434,35.694],[51.433,35.693],[51.433,35.688],[51.436,35.688],[51.436,35.687],[51.436,35.687],[51.436,35.686],[51.436,35.686],[51.436,35.686],[51.436,35.687],[51.436,35.687],[51.437,35.691],[51.437,35.692],[51.439,35.692],[51.439,35.692],[51.439,35.693],[51.447,35.69],[51.446,35.679],[51.444,35.68],[51.444,35.68],[51.439,35.681],[51.439,35.682],[51.439,35.682],[51.439,35.686],[51.439,35.686],[51.439,35.688],[51.439,35.688],[51.439,35.687],[51.439,35.688],[51.439,35.688],[51.441,35.691],[51.441,35.691],[51.443,35.695],[51.445,35.691],[51.446,35.693],[51.446,35.693],[51.446,35.694],[51.446,35.693],[51.446,35.693],[51.447,35.693],[51.446,35.694],[51.446,35.694],[51.445,35.695],[51.443,35.696],[51.443,35.696],[51.44,35.697],[51.438,35.698],[51.437,35.698],[51.437,35.698],[51.437,35.698],[51.439,35.696],[51.438,35.693],[51.433,35.693],[51.431,35.686],[51.424,35.686],[51.424,35.684],[51.424,35.684],[51.424,35.683],[51.424,35.686],[51.422,35.686],[51.417,35.686],[51.416,35.684],[51.41,35.685],[51.406,35.668],[51.407,35.668],[51.407,35.668],[51.407,35.667],[51.407,35.668],[51.407,35.668],[51.406,35.668],[51.405,35.659],[51.421,35.659],[51.423,35.663],[51.421,35.663],[51.422,35.665],[51.425,35.664],[51.426,35.665],[51.426,35.666],[51.426,35.666],[51.426,35.667],[51.428,35.667],[51.43,35.665],[51.433,35.665],[51.437,35.67],[51.446,35.668],[51.445,35.666],[51.443,35.666],[51.443,35.666],[51.442,35.667],[51.442,35.667],[51.437,35.668],[51.437,35.668],[51.436,35.668],[51.438,35.673],[51.442,35.674],[51.472,35.669],[51.474,35.673],[51.481,35.672],[51.479,35.687],[51.481,35.687],[51.477,35.697],[51.477,35.697],[51.477,35.697],[51.475,35.697],[51.476,35.692],[51.457,35.69],[51.457,35.695],[51.458,35.705],[51.465,35.707],[51.466,35.706],[51.468,35.706],[51.468,35.705],[51.468,35.705],[51.469,35.705],[51.473,35.707],[51.473,35.706],[51.473,35.706],[51.473,35.707],[51.473,35.707],[51.474,35.706],[51.477,35.708],[51.476,35.708],[51.476,35.708],[51.476,35.71],[51.519,35.723]]]},"properties":{"route":7,"color":"#4f46e5","times":[[0,741,960,1047,1173,1260,1353,1653,1707,1761,1917,1974,2172,2220,2244,2343,2346,2568,2708,3029,3050,3098,3194,3197,3332,3404,3878,4049,4118,4274,4331,4367,4397,4421,4589,4634,4673,4760,4886,5057,5132,5183,5387,5432,5459,5483,5582,5714,5867,5915,5972,6032,6080,6206,6452,6521,6569,6626,6788,6857,7235,7310,7313,7505,7535,7565,7580,7778,7811,8138,8348,8435,8582,8726,8783,9137,9272,9480,9679,9811,9820,9838,9955,10018,10687,10864,10932,10950,11082,11091,11121,11238,11313,11412,11517,11532,11559,11697,11742,12060,12072,12263,12272,12302,12398,12443,12572,12695,12749,13136,13166,13229,13259,13349,13382,13454,13844,13865,13976,13985,13988,14186,14285,14468,14627,14744,14792,14882,14984,15044,15056,15227,15422,15461,15533,15584,15662,15728,15785,15818,16052,16085,16253,16460,16568,16583,16688,16760,16946,16994,17078,17270,17306,17423,18389,18525,18543,18627,18882,18936,19069,19132,19156,19192,19219,19360,19378,19456,19684,19828,19831,19933,19963,20017,20020,20149,20236,20803]]}},{"type":"Feature","geometry":{"type":"MultiLineString","coordinates":[[[51.438,35.702],[51.42,35.702],[51.42,35.702],[51.413,35.702],[51.409,35.68],[51.394,35.682],[51.394,35.682],[51.394,35.682],[51.394,35.675],[51.374,35.668],[51.375,35.668],[51.378,35.664],[51.378,35.664],[51.378,35.664],[51.375,35.662],[51.372,35.663],[51.372,35.663],[51.372,35.663],[51.373,35.662],[51.375,35.663],[51.377,35.659],[51.369,35.657],[51.368,35.654],[51.368,35.654],[51.367,35.654],[51.367,35.655],[51.367,35.655],[51.367,35.657],[51.362,35.658],[51.362,35.658],[51.361,35.658],[51.361,35.658],[51.356,35.658],[51.357,35.66],[51.357,35.66],[51.357,35.661],[51.357,35.661],[51.358,35.663],[51.357,35.664],[51.348,35.665],[51.347,35.668],[51.348,35.668],[51.353,35.671],[51.356,35.669],[51.356,35.667],[51.356,35.667],[51.356,35.666],[51.353,35.666],[51.353,35.666],[51.353,35.666],[51.353,35.665],[51.353,35.665],[51.353,35.664],[51.354,35.664],[51.353,35.663],[51.345,35.662],[51.345,35.662],[51.344,35.663],[51.345,35.66],[51.342,35.66],[51.342,35.66],[51.339,35.659],[51.339,35.659],[51.338,35.659],[51.34,35.653],[51.34,35.653],[51.341,35.653],[51.341,35.653],[51.341,35.651],[51.341,35.651],[51.342,35.649],[51.344,35.649],[51.343,35.651],[51.343,35.651],[51.343,35.651],[51.343,35.651],[51.341,35.654],[51.337,35.654],[51.338,35.651],[51.338,35.651],[51.338,35.65],[51.338,35.65],[51.338,35.65],[51.339,35.65],[51.338,35.655],[51.338,35.655],[51.337,35.655],[51.337,35.652],[51.34,35.648],[51.342,35.648],[51.342,35.648],[51.342,35.648],[51.342,35.648],[51.342,35.649],[51.342,35.648],[51.342,35.648],[51.341,35.648],[51.342,35.648],[51.342,35.648],[51.342,35.649],[51.343,35.648],[51.342,35.648],[51.345,35.642],[51.341,35.64]],[[51.34,35.64],[51.342,35.641],[51.338,35.647],[51.339,35.648],[51.339,35.648],[51.339,35.649],[51.344,35.649],[51.342,35.652],[51.341,35.652],[51.341,35.651],[51.341,35.651],[51.343,35.648],[51.339,35.646],[51.338,35.647],[51.338,35.647],[51.336,35.649]],[[51.336,35.66],[51.345,35.661],[51.353,35.64]],[[51.391,35.64],[51.394,35.646],[51.399,35.649],[51.438,35.645]]]},"properties":{"route":8,"color":"#65a30d","times":[[0,174,267,465,751,952,1045,1060,1162,1510,1537,1603,1822,2122,2218,2332,2503,2560,2593,2731,2794,2938,3004,3463,3469,3523,3778,3835,3952,4057,4060,4198,4306,4399,4561,4564,4846,4882,4918,5056,5155,5173,5290,5350,5392,5812,5818,5884,6283,6316,6319,6565,6571,6604,6673,6757,6970,6994,7048,7102,7462,7519,8197,8212,8371,8485,8566,8722,8857,9031,9067,9130,9154,9339,9345,9570,9672,9795,9852,9984,9987,10035,10236,10263,10428,10581,10617,10827,11178,11397,11610,11622,11772,11808,11847,12159,12213,12249,12390,12408,12438,12504,12618,12735],[13143,13194,13347,13458,13818,13875,14013,14073,14115,14118,14814,14889,14961,15027,15168,15240],[18507,18594,18738],[20771,20822,20870,21173]]}},{"type":"Feature","geometry":{"type":"MultiLineString","coordinates":[[[51.428,35.669],[51.416,35.668],[51.418,35.686],[51.405,35.687],[51.406,35.689],[51.406,35.689],[51.406,35.69],[51.406,35.69],[51.406,35.692],[51.406,35.692],[51.406,35.692],[51.405,35.693],[51.405,35.693],[51.405,35.693],[51.406,35.693],[51.406,35.693],[51.406,35.693],[51.407,35.697],[51.407,35.697],[51.407,35.698],[51.407,35.698],[51.407,35.699],[51.407,35.699],[51.407,35.699],[51.407,35.699],[51.407,35.699],[51.407,35.699],[51.408,35.7],[51.41,35.7],[51.41,35.695],[51.41,35.695],[51.41,35.695],[51.412,35.695],[51.411,35.69],[51.409,35.69],[51.409,35.69],[51.409,35.69],[51.409,35.69],[51.409,35.69],[51.409,35.69],[51.404,35.69],[51.404,35.694],[51.402,35.695],[51.402,35.695],[51.394,35.695],[51.394,35.695],[51.394,35.695],[51.393,35.696],[51.393,35.696],[51.393,35.699],[51.393,35.699],[51.393,35.699],[51.394,35.701],[51.394,35.7],[51.394,35.7],[51.396,35.7],[51.396,35.7],[51.396,35.7],[51.398,35.7],[51.398,35.7],[51.4,35.7],[51.4,35.697],[51.395,35.697],[51.395,35.697],[51.395,35.697],[51.395,35.694],[51.395,35.694],[51.396,35.694],[51.396,35.694],[51.395,35.691],[51.395,35.691],[51.395,35.691],[51.395,35.691],[51.396,35.691],[51.395,35.691],[51.395,35.691],[51.395,35.691],[51.395,35.691],[51.384,35.692],[51.384,35.688],[51.365,35.687],[51.365,35.681],[51.366,35.681],[51.366,35.681],[51.373,35.681],[51.372,35.678],[51.379,35.677],[51.38,35.674],[51.373,35.675],[51.373,35.677],[51.374,35.678],[51.374,35.681],[51.374,35.681],[51.374,35.682],[51.374,35.682],[51.374,35.682],[51.374,35.682],[51.374,35.684],[51.368,35.683],[51.367,35.685],[51.365,35.685],[51.365,35.685],[51.365,35.685],[51.379,35.687],[51.376,35.688],[51.376,35.696],[51.378,35.695],[51.378,35.694],[51.378,35.694],[51.378,35.694],[51.378,35.695],[51.377,35.694],[51.375,35.694],[51.375,35.694],[51.373,35.694],[51.373,35.694],[51.373,35.694],[51.373,35.694],[51.373,35.694],[51.373,35.694],[51.373,35.694],[51.373,35.694],[51.37,35.693],[51.37,35.693],[51.367,35.693],[51.366,35.696],[51.368,35.693],[51.366,35.697]],[[51.367,35.697],[51.363,35.697],[51.363,35.697],[51.363,35.697],[51.362,35.699],[51.363,35.697],[51.363,35.697],[51.364,35.695],[51.366,35.695],[51.366,35.7],[51.366,35.7],[51.366,35.7],[51.366,35.699],[51.37,35.698],[51.37,35.698],[51.375,35.696],[51.379,35.697],[51.378,35.698],[51.378,35.698],[51.378,35.698],[51.383,35.698],[51.391,35.699],[51.392,35.698],[51.394,35.698],[51.395,35.696]],[[51.381,35.698],[51.395,35.696],[51.395,35.695],[51.397,35.694],[51.396,35.693]],[[51.396,35.693],[51.394,35.694],[51.398,35.695],[51.398,35.695],[51.397,35.695],[51.397,35.695],[51.403,35.696],[51.403,35.696],[51.403,35.696],[51.42,35.695],[51.428,35.692]]]},"properties":{"route":9,"color":"#c2410c","times":[[0,132,366,510,555,1032,1035,1164,1197,1476,1641,1674,1818,2160,2163,2253,2430,2738,3044,3047,3995,3998,4142,4151,4457,4478,4645,4672,4720,4825,4831,4927,5092,5206,5224,5374,5510,5615,5870,5981,6175,6250,6295,6409,6859,6889,6952,6991,7222,7328,7452,7584,7722,7800,7967,8051,8219,8288,8309,8480,8522,8561,8639,8657,8843,8939,9041,9050,9206,9317,9476,9740,10058,10064,10070,10345,10408,11066,11207,11270,11687,11834,11852,12032,12305,12410,12602,12653,12989,13037,13091,13139,13280,13283,13397,13403,13547,13682,13820,13907,13973,14267,14282,14522,14609,14735,14789,14798,15066,15090,15165,15219,15297,15420,15537,15690,15723,15849,15975,16074,16092,16183,16555,16798,16882,17017,17157,17621],[18076,18186,18216,18330,18431,18476,18643,18685,18727,19271,19298,19361,19624,19756,20155,20215,20269,20344,21029,21198,21297,21444,21471,21513,21627],[21948,21988,22021,22054,22147],[22777,22896,22980,23091,23094,23184,23400,23454,23502,23694,23805]]}},{"type":"Feature","geometry":{"type":"MultiLineString","coordinates":[[[51.429,35.702],[51.401,35.701],[51.4,35.703],[51.398,35.703],[51.396,35.707],[51.394,35.706],[51.394,35.706],[51.394,35.707],[51.394,35.707],[51.392,35.706],[51.378,35.706],[51.379,35.704],[51.379,35.704],[51.379,35.704],[51.387,35.705],[51.385,35.709],[51.383,35.709],[51.383,35.709],[51.383,35.709],[51.385,35.708],[51.383,35.718],[51.385,35.719],[51.385,35.719],[51.385,35.719],[51.386,35.717],[51.386,35.717],[51.386,35.717],[51.389,35.718],[51.389,35.718],[51.389,35.718],[51.389,35.718],[51.389,35.718],[51.389,35.718],[51.389,35.718],[51.389,35.72],[51.389,35.72],[51.388,35.721],[51.388,35.721],[51.388,35.721],[51.393,35.721],[51.395,35.723],[51.395,35.723],[51.396,35.723],[51.401,35.718],[51.403,35.719],[51.403,35.719],[51.404,35.72],[51.404,35.72],[51.404,35.72],[51.404,35.72],[51.404,35.72],[51.401,35.722],[51.401,35.721],[51.401,35.721],[51.401,35.718],[51.404,35.72],[51.402,35.721],[51.402,35.725],[51.402,35.725],[51.402,35.726],[51.402,35.726],[51.402,35.727],[51.402,35.727],[51.402,35.727],[51.4,35.727],[51.4,35.726],[51.4,35.726],[51.4,35.726],[51.399,35.726],[51.399,35.726],[51.398,35.726],[51.398,35.726],[51.398,35.726],[51.398,35.728],[51.399,35.728],[51.399,35.73],[51.399,35.729],[51.399,35.729],[51.397,35.73],[51.398,35.731],[51.398,35.731],[51.399,35.732],[51.401,35.733],[51.401,35.733],[51.401,35.733],[51.401,35.733],[51.402,35.733],[51.401,35.735],[51.4,35.735],[51.402,35.734],[51.403,35.735],[51.403,35.735],[51.403,35.736],[51.404,35.742],[51.404,35.742],[51.404,35.743],[51.403,35.735],[51.401,35.734],[51.401,35.734],[51.399,35.734],[51.398,35.731],[51.398,35.731],[51.396,35.729],[51.398,35.725],[51.389,35.723],[51.389,35.724],[51.389,35.724],[51.389,35.725],[51.389,35.725],[51.388,35.725],[51.388,35.725],[51.388,35.729],[51.386,35.728],[51.386,35.727],[51.386,35.727],[51.386,35.727],[51.386,35.728],[51.388,35.729],[51.387,35.732],[51.387,35.732],[51.387,35.735],[51.389,35.735],[51.389,35.735],[51.395,35.734],[51.395,35.734],[51.397,35.734],[51.397,35.735],[51.397,35.735],[51.397,35.735],[51.397,35.735],[51.397,35.736],[51.395,35.736],[51.395,35.738],[51.396,35.737],[51.396,35.738],[51.396,35.738],[51.396,35.738],[51.396,35.738],[51.396,35.738],[51.396,35.738],[51.397,35.738],[51.397,35.737],[51.397,35.737],[51.397,35.736],[51.397,35.738],[51.398,35.738],[51.398,35.738],[51.399,35.738],[51.399,35.739],[51.399,35.739],[51.399,35.74],[51.399,35.74],[51.399,35.74],[51.397,35.741],[51.398,35.743],[51.398,35.743],[51.398,35.743],[51.399,35.742],[51.399,35.742],[51.399,35.742],[51.397,35.744],[51.399,35.745],[51.397,35.745],[51.394,35.749],[51.391,35.748],[51.391,35.748],[51.391,35.747],[51.392,35.748],[51.397,35.749],[51.397,35.747],[51.397,35.751],[51.415,35.752],[51.422,35.749],[51.429,35.749]]]},"properties":{"route":10,"color":"#0284c7","times":[[0,333,363,390,456,486,1059,1071,1440,1479,1641,1701,1809,2052,2151,2226,2280,2376,2586,2622,2808,2844,2973,3180,3384,3732,3777,3804,4221,4239,4296,4380,4398,4626,4662,4758,4839,4965,5040,5109,5175,5340,5358,5469,5514,5763,5766,5781,6159,6171,6327,6465,6639,7092,7137,7185,7227,7329,7476,7479,7596,7599,7683,7858,7888,7906,8011,8098,8146,8239,8242,8476,8533,8632,8665,8752,8755,8896,8926,8941,9095,9110,9194,9407,9419,9578,9590,9629,9692,9755,9782,9881,9929,10013,10121,10160,10370,10415,10511,10655,10754,10934,10967,11033,11222,11231,11603,11642,11772,11775,11874,12167,12218,12236,12368,12566,12584,12629,12665,12791,12839,12866,13025,13355,13469,13718,13733,13823,13838,13928,13937,13961,13985,14009,14051,14273,14318,14473,14482,14611,14620,14629,14905,14917,14947,14956,15370,15394,15400,15496,15499,15916,15937,15970,15997,16474,16549,16552,16796,16835,16928,16970,17036,17102,17141,17237,17258,17422,17491,17521,17578,17809,17851,17881]]}},{"type":"Feature","geometry":{"type":"MultiLineString","coordinates":[[[51.483,35.652],[51.483,35.649],[51.485,35.648],[51.484,35.639],[51.483,35.637],[51.48,35.637],[51.475,35.638],[51.47,35.635],[51.462,35.632],[51.436,35.628],[51.43,35.625],[51.42,35.618],[51.415,35.615],[51.407,35.614],[51.376,35.614],[51.351,35.609],[51.341,35.609],[51.332,35.614],[51.321,35.627],[51.314,35.632],[51.284,35.646],[51.238,35.664],[51.234,35.669],[51.232,35.675],[51.233,35.681],[51.235,35.685],[51.236,35.685],[51.236,35.683],[51.232,35.684],[51.183,35.704],[51.165,35.708],[51.15,35.714],[51.15,35.714],[51.149,35.714],[51.149,35.714],[51.148,35.714],[51.148,35.714],[51.147,35.714],[51.147,35.714],[51.146,35.715],[51.146,35.715],[51.145,35.715],[51.145,35.715],[51.142,35.716],[51.129,35.727],[51.128,35.728],[51.129,35.731],[51.114,35.738],[51.086,35.744],[51.075,35.75],[51.055,35.759],[51.041,35.767]],[[51.003,35.791],[51.006,35.784],[51.005,35.771],[50.996,35.743],[50.993,35.711],[50.976,35.658],[50.976,35.658],[50.975,35.657],[50.964,35.66],[50.936,35.671],[50.902,35.679],[50.889,35.685],[50.879,35.688],[50.846,35.692],[50.83,35.691],[50.818,35.692],[50.811,35.694],[50.8,35.699]],[[50.8,35.724],[50.806,35.727],[50.81,35.728],[50.82,35.727],[50.82,35.727],[50.821,35.727],[50.819,35.726],[50.82,35.727],[50.82,35.727],[50.82,35.727],[50.82,35.727],[50.822,35.728],[50.822,35.727],[50.82,35.727],[50.82,35.727],[50.82,35.727],[50.82,35.726],[50.82,35.727],[50.82,35.727],[50.82,35.728],[50.82,35.727],[50.82,35.727],[50.82,35.726],[50.82,35.727],[50.82,35.727],[50.82,35.728],[50.82,35.727],[50.82,35.727],[50.82,35.727],[50.826,35.726],[50.85,35.725],[50.866,35.728],[50.879,35.732],[50.895,35.742],[50.895,35.742],[50.896,35.742],[50.896,35.742],[50.895,35.742],[50.895,35.742],[50.895,35.742],[50.895,35.742],[50.907,35.748],[50.902,35.746],[50.902,35.747],[50.9,35.746],[50.9,35.748],[50.898,35.748],[50.897,35.746],[50.902,35.747],[50.902,35.746],[50.901,35.745],[50.907,35.748],[50.907,35.748],[50.908,35.749],[50.912,35.752],[50.912,35.752],[50.913,35.753],[50.907,35.748],[50.895,35.742],[50.89,35.746],[50.892,35.75],[50.889,35.748],[50.889,35.748],[50.888,35.748],[50.889,35.748],[50.889,35.748],[50.897,35.752],[50.903,35.749],[50.908,35.748],[50.914,35.754],[50.919,35.757],[50.92,35.761],[50.924,35.766],[50.922,35.764],[50.922,35.764],[50.923,35.764],[50.923,35.764],[50.922,35.763],[50.922,35.763],[50.921,35.761],[50.921,35.761],[50.92,35.761],[50.92,35.761],[50.919,35.759],[50.919,35.759],[50.919,35.759],[50.92,35.758],[50.92,35.76],[50.922,35.763],[50.939,35.78],[50.959,35.793],[50.944,35.783],[50.954,35.774],[50.955,35.774],[50.956,35.772],[50.956,35.772],[50.956,35.772],[50.955,35.774],[50.945,35.784],[50.966,35.798],[50.973,35.793],[50.977,35.795],[50.979,35.793],[50.982,35.794],[50.991,35.792],[51.006,35.79]],[[51.076,35.749],[51.086,35.743],[51.108,35.739],[51.121,35.734],[51.129,35.725],[51.149,35.713],[51.164,35.708],[51.183,35.704],[51.228,35.686],[51.232,35.682],[51.231,35.677],[51.231,35.673],[51.234,35.667],[51.238,35.664],[51.277,35.649],[51.318,35.628],[51.331,35.613],[51.341,35.608],[51.347,35.607],[51.349,35.608],[51.349,35.608],[51.378,35.614],[51.414,35.615],[51.42,35.617],[51.428,35.623],[51.436,35.627],[51.444,35.629],[51.459,35.63],[51.467,35.633],[51.474,35.637],[51.483,35.636],[51.483,35.637],[51.483,35.637],[51.484,35.638]]]},"properties":{"route":11,"color":"#9333ea","times":[[0,45,75,231,249,267,303,339,384,492,522,579,603,636,765,891,948,1002,1119,1170,1374,1647,1689,1734,1791,1863,1878,1905,1947,2208,2307,2463,2562,2565,2772,2775,3477,3480,3843,3846,3981,3984,4455,4476,4575,4584,4614,4695,4803,4854,4959,5033],[5387,5561,5720,5972,6317,6872,7244,7265,7346,7460,7616,7682,7736,7946,8066,8111,8138,8219],[20101,20167,20206,20299,20731,20737,20836,20872,20968,20986,21145,21172,21208,21293,21323,21416,21428,21494,21584,21732,21801,21951,21980,22010,22202,22212,22233,22275,22365,22431,22617,22731,22890,23238,23925,23928,24072,24129,24291,24312,24456,24558,24645,24675,24714,24765,24795,24912,24975,24996,25032,25095,25236,25248,25290,26310,26331,26424,26640,26784,26886,26967,27333,27357,27360,27504,27723,27792,27849,27912,27954,28002,28080,28131,28245,28248,28479,28590,29019,29139,29262,29265,29448,29472,29751,29922,29997,30057,30129,30318,30522,30720,30858,30891,30975,30981,31313,31346,31517,31715,31787,31832,31877,31913,31964,32033],[32435,32492,32579,32648,32741,32918,32972,33056,33296,33335,33371,33395,33422,33449,33665,33891,34014,34065,34113,34191,34281,34842,35028,35058,35118,35154,35190,35250,35292,35334,35535,35547,35652,35700]]}},{"type":"Feature","geometry":{"type":"MultiLineString","coordinates":[[[51.438,35.75],[51.423,35.749],[51.415,35.752],[51.368,35.749],[51.323,35.752],[51.328,35.769],[51.328,35.769],[51.328,35.769],[51.325,35.77],[51.325,35.77],[51.325,35.771],[51.33,35.771],[51.33,35.774],[51.334,35.773],[51.334,35.773],[51.334,35.773],[51.333,35.775],[51.33,35.776],[51.33,35.777],[51.33,35.777],[51.33,35.777],[51.338,35.779],[51.336,35.779],[51.336,35.781],[51.336,35.781],[51.337,35.785],[51.337,35.785]],[[51.336,35.786],[51.337,35.788],[51.337,35.786],[51.332,35.786],[51.332,35.786],[51.333,35.784],[51.333,35.784],[51.333,35.784],[51.333,35.78],[51.333,35.78],[51.333,35.78],[51.332,35.78],[51.333,35.78],[51.333,35.78],[51.333,35.78],[51.333,35.778],[51.319,35.778],[51.315,35.782],[51.316,35.783],[51.312,35.784],[51.312,35.784],[51.312,35.784],[51.312,35.784],[51.312,35.784],[51.316,35.783],[51.315,35.782],[51.319,35.778],[51.319,35.778],[51.325,35.779],[51.325,35.776]],[[51.325,35.776],[51.325,35.775],[51.321,35.773],[51.321,35.773],[51.321,35.773],[51.319,35.772],[51.32,35.771],[51.318,35.77],[51.319,35.764],[51.316,35.755],[51.313,35.753],[51.305,35.753],[51.304,35.755],[51.304,35.754],[51.304,35.754],[51.303,35.754]],[[51.303,35.754],[51.304,35.754],[51.304,35.756],[51.304,35.759],[51.306,35.76],[51.306,35.762],[51.306,35.762],[51.306,35.762],[51.309,35.763],[51.309,35.764],[51.309,35.764],[51.308,35.764],[51.308,35.76],[51.311,35.759],[51.311,35.753],[51.311,35.758],[51.314,35.758],[51.314,35.758],[51.314,35.758],[51.313,35.758],[51.313,35.758],[51.311,35.758],[51.311,35.761],[51.314,35.761],[51.314,35.761],[51.315,35.761],[51.314,35.761],[51.314,35.761],[51.314,35.761],[51.314,35.761],[51.314,35.761],[51.314,35.761],[51.311,35.761],[51.311,35.764],[51.312,35.763],[51.315,35.763],[51.315,35.763],[51.315,35.763],[51.311,35.763],[51.311,35.768],[51.304,35.765],[51.304,35.764],[51.304,35.764],[51.304,35.762],[51.304,35.762],[51.304,35.762],[51.304,35.762],[51.302,35.761],[51.304,35.76],[51.304,35.754],[51.304,35.754],[51.304,35.754],[51.307,35.755],[51.299,35.753]],[[51.299,35.753],[51.315,35.753],[51.331,35.751],[51.351,35.751],[51.368,35.749],[51.415,35.752],[51.424,35.749],[51.438,35.75]]]},"properties":{"route":12,"color":"#059669","times":[[0,246,525,789,1005,1206,1218,1308,1383,1542,1740,1800,2023,2116,2296,2323,2371,2771,2864,2957,3032,3248,3272,3317,3419,3700,3802],[4363,4495,4851,4944,5046,5112,5124,5217,5337,5517,5634,5670,5699,5995,6100,6124,6202,6289,6319,6376,6424,7283,7313,7580,7733,7754,7817,7832,7886,7988],[8327,8390,8487,8547,8694,8736,8757,8811,8850,8928,8955,9000,9063,9072,9288,9312],[9625,9768,10150,10442,10472,10502,10626,10917,11118,11216,11342,11423,11552,11585,11651,11699,11753,11759,12466,12469,12694,12715,12763,12796,13139,13166,13175,13271,13301,13445,13571,13775,13805,14119,14223,14310,14595,14964,15009,15066,15159,15165,15492,15579,15735,15774,15894,16038,16065,16131,16258,16276,16404,16461],[20134,20221,20299,20398,20476,20752,20800,20863]]}},{"type":"Feature","geometry":{"type":"MultiLineString","coordinates":[[[51.283,35.754],[51.317,35.753],[51.331,35.751],[51.349,35.751],[51.368,35.749],[51.385,35.75]]]},"properties":{"route":13,"color":"#be123c","times":[[0,207,273,354,429,528]]}},{"type":"Feature","geometry":{"type":"MultiLineString","coordinates":[[[51.466,35.763],[51.465,35.748],[51.463,35.745],[51.459,35.741],[51.437,35.743],[51.43,35.741],[51.418,35.74],[51.406,35.744],[51.397,35.741],[51.387,35.744],[51.369,35.74],[51.368,35.74],[51.369,35.741],[51.37,35.741],[51.371,35.734],[51.37,35.73],[51.359,35.72],[51.351,35.721],[51.36,35.72],[51.36,35.72],[51.36,35.72],[51.36,35.72],[51.36,35.72],[51.36,35.719],[51.36,35.719],[51.359,35.718],[51.364,35.719],[51.364,35.719],[51.364,35.719],[51.364,35.719],[51.365,35.719],[51.365,35.719],[51.365,35.719],[51.364,35.718],[51.364,35.718],[51.362,35.716],[51.362,35.716],[51.362,35.716],[51.364,35.717],[51.364,35.717],[51.366,35.717],[51.368,35.714],[51.368,35.714],[51.377,35.706],[51.374,35.705],[51.375,35.703],[51.375,35.703],[51.375,35.703],[51.37,35.702],[51.37,35.702],[51.37,35.702],[51.37,35.702],[51.366,35.702],[51.366,35.702],[51.366,35.702],[51.367,35.703],[51.367,35.703],[51.368,35.706],[51.368,35.706],[51.37,35.712],[51.37,35.712],[51.368,35.712],[51.367,35.711],[51.364,35.712],[51.364,35.711],[51.364,35.711],[51.367,35.711],[51.366,35.709],[51.366,35.709],[51.365,35.707],[51.365,35.707],[51.365,35.706],[51.36,35.708],[51.36,35.709],[51.36,35.709],[51.361,35.712],[51.358,35.712],[51.358,35.712],[51.355,35.713],[51.355,35.711],[51.355,35.711],[51.355,35.711],[51.355,35.711],[51.354,35.71],[51.351,35.707],[51.355,35.705],[51.355,35.703],[51.355,35.703],[51.355,35.703],[51.355,35.703],[51.355,35.703],[51.356,35.705],[51.351,35.707],[51.346,35.707],[51.348,35.707],[51.346,35.708],[51.346,35.708],[51.346,35.708],[51.347,35.707],[51.345,35.707],[51.345,35.707],[51.341,35.707],[51.341,35.709],[51.34,35.709],[51.34,35.709],[51.339,35.71],[51.338,35.709],[51.338,35.709],[51.339,35.707],[51.337,35.707],[51.337,35.71],[51.337,35.71],[51.336,35.718],[51.343,35.717],[51.343,35.717],[51.346,35.717],[51.346,35.719],[51.346,35.719],[51.348,35.724],[51.345,35.725],[51.346,35.726],[51.352,35.726],[51.355,35.728],[51.356,35.73],[51.356,35.73],[51.356,35.73],[51.355,35.73],[51.358,35.73],[51.358,35.732],[51.36,35.732],[51.36,35.734],[51.362,35.734],[51.362,35.734],[51.363,35.733],[51.363,35.733],[51.363,35.733],[51.362,35.731],[51.362,35.731],[51.362,35.731],[51.362,35.734],[51.37,35.735],[51.366,35.735],[51.366,35.736],[51.368,35.736],[51.367,35.736],[51.367,35.735],[51.368,35.736],[51.37,35.736],[51.37,35.736],[51.371,35.736],[51.37,35.736],[51.37,35.736],[51.362,35.736],[51.362,35.735],[51.36,35.734],[51.359,35.736],[51.358,35.734],[51.36,35.736],[51.36,35.735],[51.358,35.734],[51.357,35.737],[51.355,35.737],[51.355,35.737],[51.356,35.737],[51.356,35.737],[51.355,35.737],[51.354,35.738],[51.354,35.738],[51.354,35.738],[51.352,35.734],[51.345,35.735],[51.341,35.736],[51.341,35.737],[51.338,35.738],[51.338,35.738],[51.338,35.738],[51.338,35.738],[51.338,35.738],[51.333,35.737],[51.333,35.737],[51.333,35.737],[51.333,35.737],[51.333,35.737],[51.334,35.737],[51.334,35.737],[51.336,35.736],[51.337,35.731],[51.337,35.731],[51.337,35.728],[51.337,35.728],[51.337,35.728],[51.338,35.728],[51.338,35.728],[51.339,35.727],[51.342,35.731],[51.338,35.731],[51.338,35.731],[51.338,35.733],[51.338,35.733],[51.338,35.735],[51.338,35.735],[51.338,35.736],[51.346,35.734],[51.345,35.734],[51.345,35.734],[51.344,35.731],[51.344,35.731],[51.344,35.729],[51.346,35.728],[51.346,35.728],[51.346,35.728],[51.347,35.73],[51.347,35.73],[51.347,35.73],[51.347,35.73],[51.347,35.73],[51.346,35.73],[51.346,35.73],[51.346,35.73],[51.347,35.73],[51.347,35.73],[51.347,35.73],[51.349,35.73],[51.35,35.727],[51.351,35.732],[51.351,35.732],[51.352,35.734],[51.356,35.734],[51.348,35.735],[51.347,35.737],[51.348,35.748],[51.351,35.75],[51.37,35.749],[51.415,35.752],[51.423,35.749],[51.435,35.749],[51.448,35.751],[51.458,35.756],[51.473,35.757]]]},"properties":{"route":14,"color":"#475569","times":[[0,84,108,162,378,423,489,566,621,678,771,783,792,801,849,876,981,1065,1149,1260,1341,1455,1599,1602,1989,2037,2109,2301,2364,2520,2574,2676,2790,2802,2931,2955,3087,3099,3159,3396,3435,3543,3687,3897,3954,4038,4683,4686,4737,4842,5046,5067,5112,5214,5244,5439,5631,5664,6225,6468,6612,6672,6738,6858,7017,7134,7242,7260,7425,7446,7611,7617,7686,7737,7893,8046,8079,8253,8286,8400,8604,8634,8784,8808,8856,8907,8934,8976,9141,9345,9696,9726,9789,9858,9891,9996,10113,10131,10164,10182,10404,10434,10476,10488,10674,10737,10779,11235,11274,11298,11376,12108,12210,12312,12444,12663,12693,12792,13077,13185,13215,13251,13275,13299,13704,13980,14007,14097,14347,14453,14510,14531,14627,14786,14861,14882,14918,15085,15172,15226,15292,15343,15364,15394,15514,15806,15848,15866,16163,16172,16181,16457,16553,16592,16613,16781,16835,16884,16929,16950,17148,17172,17544,17649,17763,17931,18039,18071,18155,18257,18314,18344,18371,18407,18413,18530,18560,18563,18725,19508,19529,19901,19979,19982,20267,20327,20572,20698,20731,20857,20926,20938,21058,21196,21292,21343,21559,21694,21838,21856,21988,22003,22072,22087,22189,22366,22459,22513,22549,22681,22732,22855,22984,22990,23260,23899,23902,23942,24071,24087,24177,24207,24222,24255,24321,24680,24707,24961,25024,25051,25159,25198,25288,25507,25540,25591,25648,25699,25771]]}},{"type":"Feature","geometry":{"type":"MultiLineString","coordinates":[[[51.477,35.739],[51.475,35.739],[51.475,35.739],[51.474,35.739],[51.474,35.739],[51.472,35.74],[51.472,35.74],[51.471,35.74],[51.471,35.74],[51.466,35.741],[51.466,35.741],[51.464,35.741],[51.464,35.741],[51.461,35.741],[51.443,35.743],[51.436,35.743],[51.43,35.741],[51.418,35.74],[51.407,35.744],[51.403,35.744],[51.396,35.741],[51.387,35.744],[51.364,35.739],[51.347,35.741],[51.333,35.74],[51.315,35.736],[51.309,35.733],[51.304,35.732],[51.302,35.732],[51.302,35.733],[51.302,35.733],[51.301,35.734],[51.301,35.734],[51.301,35.734],[51.301,35.735],[51.301,35.735],[51.301,35.736],[51.303,35.736],[51.303,35.736],[51.304,35.736],[51.304,35.736],[51.306,35.735],[51.305,35.733],[51.305,35.733],[51.305,35.733],[51.303,35.732],[51.302,35.732],[51.303,35.737],[51.302,35.738],[51.302,35.738],[51.301,35.738],[51.3,35.738],[51.3,35.738],[51.299,35.738],[51.298,35.74],[51.298,35.74],[51.298,35.74],[51.298,35.74],[51.299,35.742],[51.301,35.741],[51.301,35.741],[51.301,35.741],[51.301,35.741],[51.304,35.74],[51.308,35.735],[51.308,35.735],[51.313,35.73],[51.325,35.726],[51.327,35.729],[51.329,35.728],[51.329,35.727],[51.33,35.727],[51.33,35.727],[51.332,35.726],[51.332,35.725],[51.332,35.725],[51.332,35.725],[51.33,35.726],[51.331,35.727],[51.329,35.728],[51.331,35.728],[51.331,35.729],[51.333,35.729],[51.333,35.729],[51.333,35.729],[51.329,35.729],[51.329,35.731],[51.329,35.731],[51.329,35.731],[51.332,35.731],[51.333,35.732],[51.333,35.732],[51.333,35.732],[51.33,35.736],[51.326,35.737],[51.326,35.737],[51.324,35.738],[51.324,35.738],[51.324,35.738],[51.321,35.737],[51.321,35.736],[51.322,35.736],[51.322,35.736],[51.327,35.735],[51.326,35.73],[51.324,35.73],[51.322,35.728],[51.322,35.728],[51.322,35.727],[51.317,35.729],[51.314,35.732],[51.314,35.732],[51.314,35.733],[51.314,35.733],[51.316,35.73],[51.313,35.731],[51.309,35.735],[51.304,35.742],[51.304,35.743],[51.306,35.743],[51.306,35.743],[51.307,35.743],[51.304,35.743],[51.304,35.746],[51.304,35.746],[51.304,35.747],[51.309,35.747],[51.307,35.748],[51.307,35.748],[51.307,35.748],[51.307,35.747],[51.306,35.747],[51.306,35.747],[51.302,35.747],[51.302,35.749],[51.302,35.749],[51.302,35.749],[51.302,35.747],[51.301,35.747],[51.301,35.747],[51.301,35.747],[51.303,35.747],[51.304,35.748],[51.304,35.748],[51.304,35.749],[51.304,35.749],[51.304,35.75],[51.308,35.75],[51.308,35.751],[51.308,35.751],[51.308,35.751],[51.31,35.75],[51.31,35.75],[51.312,35.75],[51.311,35.75],[51.311,35.75],[51.311,35.75],[51.309,35.747],[51.312,35.746],[51.312,35.746],[51.312,35.746],[51.309,35.743],[51.309,35.743],[51.307,35.74],[51.311,35.739],[51.31,35.739],[51.31,35.739],[51.308,35.739],[51.308,35.739],[51.306,35.738],[51.304,35.74],[51.302,35.734],[51.302,35.734],[51.302,35.734],[51.301,35.734],[51.301,35.735],[51.302,35.741],[51.304,35.74],[51.302,35.742],[51.301,35.742],[51.294,35.744],[51.295,35.745],[51.295,35.745],[51.295,35.745],[51.294,35.744],[51.294,35.744],[51.294,35.744],[51.287,35.747],[51.283,35.738],[51.286,35.734],[51.304,35.732],[51.309,35.733],[51.315,35.736],[51.333,35.74],[51.347,35.741],[51.363,35.739],[51.387,35.743],[51.397,35.741],[51.405,35.744],[51.409,35.744],[51.418,35.74],[51.43,35.74],[51.436,35.743],[51.443,35.743],[51.461,35.741],[51.477,35.739]]]},"properties":{"route":15,"color":"#a16207","times":[[0,90,204,207,330,465,582,585,702,1035,1131,1206,1299,1446,1812,1854,1887,1995,2159,2212,2251,2296,2410,2479,2545,2629,2662,2689,2707,2710,3154,3157,3220,3613,3616,3811,3835,3856,4030,4033,4282,4342,4432,4549,4585,4603,4621,4684,4783,4897,4909,4987,5191,5203,5254,5506,5587,5803,5917,5941,6394,6424,6721,6754,6817,7150,7228,7507,7579,7612,7633,7660,7894,7924,7936,8041,8092,8110,8149,8212,8254,8266,8347,8437,8518,8575,8665,8770,8905,8974,9001,9187,9217,9283,9337,9730,9793,9811,9918,9981,10011,10098,10188,10239,10305,10341,10516,11134,11149,11227,11299,11392,11481,11587,11683,11758,11800,11908,11926,11944,12139,12235,12283,12316,12475,12481,12538,12580,12673,12772,12799,12808,13009,13102,13141,13312,13597,13627,13630,14310,14367,14385,14418,14532,14535,14751,14763,14811,14817,14898,15102,15117,15237,15321,15384,15618,15633,15669,15702,15810,15888,16155,16293,16507,16734,16749,16905,16920,17091,17157,17220,17367,17510,17660,17675,17690,17777,17810,18009,18213,18264,18369,18441,18585,18627,18651,18720,18795,18969,19056,19131,19161,19197,19284,19341,19407,19512,19563,19605,19620,19664,19718,19745,19775,19883,19982]]}},{"type":"Feature","geometry":{"type":"MultiLineString","coordinates":[[[51.279,35.677],[51.238,35.682],[51.212,35.692],[51.219,35.688],[51.187,35.667],[51.187,35.667],[51.186,35.665],[51.186,35.665],[51.185,35.665]],[[51.179,35.704],[51.203,35.695],[51.235,35.683],[51.235,35.682],[51.234,35.683],[51.235,35.685],[51.248,35.698],[51.252,35.704],[51.253,35.709],[51.253,35.736],[51.254,35.74]]]},"properties":{"route":16,"color":"#0f766e","times":[[0,243,390,462,711,876,1119,1293,1362],[20090,20255,20417,20429,20441,20504,20606,20639,20663,20780,20801]]}}]}