{"type":"FeatureCollection","features":[{"type":"Feature","properties":{"route":2,"color":"#0d9488","kind":"routed_full_gps_connection","after_segment":0,"duration":174.4,"distance":1818.5},"geometry":{"type":"LineString","coordinates":[[51.536,35.726],[51.535822,35.725974],[51.535925,35.724798],[51.535271,35.72474],[51.535066,35.72481],[51.534917,35.72491],[51.534835,35.725046],[51.534763,35.725289],[51.534657,35.726513],[51.534649,35.726752],[51.534669,35.726989],[51.534727,35.727267],[51.534818,35.727553],[51.534943,35.727831],[51.535304,35.728549],[51.5356,35.729138],[51.535831,35.729532],[51.535907,35.729656],[51.536157,35.730077],[51.536246,35.730234],[51.536373,35.730455],[51.536741,35.731162],[51.537015,35.731667],[51.537977,35.733464],[51.53809,35.733713],[51.538151,35.733847],[51.538196,35.733922],[51.538115,35.733934],[51.537543,35.734024],[51.536826,35.734116],[51.534903,35.734367],[51.534886,35.734283],[51.537,35.734]]}},{"type":"Feature","properties":{"route":8,"color":"#65a30d","kind":"routed_full_gps_connection","after_segment":0,"duration":51.5,"distance":331.3},"geometry":{"type":"LineString","coordinates":[[51.341,35.64],[51.341965,35.640604],[51.34179,35.640881],[51.34,35.64]]}},{"type":"Feature","properties":{"route":8,"color":"#65a30d","kind":"routed_full_gps_connection","after_segment":1,"duration":241.8,"distance":2086.1},"geometry":{"type":"LineString","coordinates":[[51.336,35.649],[51.336411,35.649339],[51.33706,35.64964],[51.336937,35.649779],[51.336818,35.649914],[51.336694,35.650055],[51.33656,35.650206],[51.336369,35.650423],[51.336326,35.650474],[51.335024,35.649913],[51.334831,35.650192],[51.334753,35.650305],[51.334635,35.650475],[51.334488,35.650687],[51.334411,35.650799],[51.334205,35.651097],[51.334119,35.651221],[51.333922,35.651505],[51.333651,35.651897],[51.333426,35.652224],[51.333371,35.652303],[51.333108,35.652685],[51.332871,35.65303],[51.332638,35.653367],[51.332395,35.653721],[51.332158,35.654064],[51.331921,35.654409],[51.331684,35.654752],[51.331442,35.655104],[51.331178,35.655486],[51.331146,35.655534],[51.331086,35.65562],[51.330961,35.655951],[51.330947,35.656009],[51.330881,35.656126],[51.33068,35.656495],[51.329827,35.658027],[51.329599,35.658437],[51.329602,35.658567],[51.329618,35.658636],[51.329637,35.658683],[51.329682,35.658747],[51.329768,35.658832],[51.329863,35.658909],[51.330731,35.659235],[51.330973,35.659325],[51.331392,35.659464],[51.331733,35.659577],[51.332131,35.659747],[51.332744,35.660003],[51.332924,35.660074],[51.334007,35.660385],[51.334088,35.660401],[51.334243,35.660417],[51.336,35.66]]}},{"type":"Feature","properties":{"route":8,"color":"#65a30d","kind":"routed_full_gps_connection","after_segment":2,"duration":454.5,"distance":8081.3},"geometry":{"type":"LineString","coordinates":[[51.353,35.64],[51.35341,35.639908],[51.353542,35.639585],[51.353636,35.63935],[51.353699,35.639171],[51.35374,35.639051],[51.353805,35.638899],[51.353861,35.638746],[51.353929,35.638499],[51.353969,35.638318],[51.353992,35.638189],[51.353976,35.638039],[51.353933,35.637708],[51.353864,35.637522],[51.353806,35.637394],[51.353738,35.637277],[51.353683,35.6372],[51.353565,35.636994],[51.3534,35.636758],[51.353104,35.636536],[51.352675,35.636313],[51.352223,35.636121],[51.35169,35.63589],[51.351627,35.6358],[51.351327,35.63566],[51.350768,35.635399],[51.350484,35.635267],[51.350202,35.635151],[51.349898,35.635025],[51.349698,35.634943],[51.349399,35.634813],[51.348091,35.634247],[51.347731,35.634091],[51.347469,35.633958],[51.34721,35.633828],[51.34553,35.632979],[51.34335,35.631893],[51.343192,35.631757],[51.343188,35.631697],[51.343231,35.631646],[51.343293,35.631614],[51.34356,35.631677],[51.344071,35.632006],[51.344492,35.632264],[51.344777,35.632412],[51.346011,35.633054],[51.346376,35.633243],[51.347296,35.633708],[51.347553,35.633838],[51.348251,35.634163],[51.349762,35.634827],[51.350153,35.634995],[51.350577,35.635177],[51.350966,35.635363],[51.35129,35.635518],[51.351682,35.635694],[51.351953,35.635789],[51.352237,35.635835],[51.35267,35.635849],[51.35332,35.635867],[51.353975,35.635906],[51.354455,35.635947],[51.354911,35.63603],[51.355301,35.636118],[51.355697,35.636223],[51.35617,35.636382],[51.35667,35.636589],[51.357225,35.636857],[51.357385,35.636948],[51.357929,35.637292],[51.358391,35.637572],[51.358631,35.637732],[51.358749,35.637809],[51.359238,35.638088],[51.359591,35.638251],[51.360099,35.63849],[51.360504,35.638634],[51.360646,35.638694],[51.360948,35.638818],[51.361286,35.638993],[51.361474,35.639102],[51.361798,35.639273],[51.363169,35.639922],[51.363227,35.639955],[51.364348,35.640574],[51.36442,35.640617],[51.365211,35.641169],[51.365636,35.641487],[51.366258,35.642039],[51.366347,35.642123],[51.366509,35.642267],[51.366681,35.642406],[51.367038,35.642679],[51.367693,35.643165],[51.368373,35.643776],[51.368907,35.644264],[51.369481,35.644869],[51.369875,35.645384],[51.370054,35.64567],[51.370256,35.646036],[51.370655,35.646887],[51.37074,35.64712],[51.370862,35.647456],[51.371222,35.648549],[51.37137,35.648944],[51.371529,35.649351],[51.371745,35.649806],[51.371941,35.650172],[51.372147,35.650491],[51.372542,35.651066],[51.373038,35.651579],[51.37312,35.651601],[51.373581,35.651992],[51.373998,35.652312],[51.374322,35.652527],[51.37466,35.652712],[51.374964,35.652889],[51.375857,35.653287],[51.376713,35.653594],[51.376906,35.653649],[51.377549,35.65383],[51.377931,35.653918],[51.378459,35.653998],[51.380278,35.654216],[51.380733,35.654288],[51.38103,35.654319],[51.381266,35.654373],[51.381425,35.654404],[51.381602,35.654402],[51.381745,35.654361],[51.381874,35.654283],[51.381996,35.654159],[51.382284,35.653807],[51.382457,35.653628],[51.382633,35.653467],[51.38281,35.653334],[51.383062,35.653158],[51.38336,35.653073],[51.383594,35.652933],[51.384093,35.65268],[51.384894,35.652304],[51.386081,35.651728],[51.386757,35.651328],[51.387869,35.6506],[51.388782,35.649882],[51.389296,35.649386],[51.389816,35.648906],[51.390264,35.648436],[51.390426,35.648048],[51.390942,35.647461],[51.392153,35.645855],[51.392411,35.645457],[51.392552,35.645122],[51.392662,35.644765],[51.392705,35.644356],[51.392695,35.643934],[51.392575,35.643459],[51.39237,35.642936],[51.392137,35.642518],[51.392211,35.642219],[51.392138,35.642089],[51.39148,35.640983],[51.391273,35.64057],[51.391221,35.640468],[51.391,35.64]]}},{"type":"Feature","properties":{"route":9,"color":"#c2410c","kind":"routed_full_gps_connection","after_segment":0,"duration":159.5,"distance":1149.8},"geometry":{"type":"LineString","coordinates":[[51.366,35.697],[51.365118,35.696961],[51.364418,35.69691],[51.364392,35.69691],[51.363913,35.696874],[51.363349,35.696831],[51.363211,35.696821],[51.363218,35.696755],[51.363265,35.696325],[51.363312,35.695881],[51.363316,35.69585],[51.363356,35.695472],[51.363363,35.69541],[51.363392,35.695136],[51.363412,35.694946],[51.36342,35.694873],[51.363536,35.69488],[51.364785,35.694958],[51.365283,35.694991],[51.365314,35.694993],[51.366594,35.695081],[51.366561,35.695541],[51.366554,35.69564],[51.366534,35.695917],[51.366507,35.696285],[51.366502,35.696359],[51.366474,35.696742],[51.367684,35.696847],[51.367642,35.697179],[51.367542,35.69717],[51.367,35.697]]}},{"type":"Feature","properties":{"route":9,"color":"#c2410c","kind":"routed_full_gps_connection","after_segment":1,"duration":200.4,"distance":2086.3},"geometry":{"type":"LineString","coordinates":[[51.395,35.696],[51.395084,35.69597],[51.395127,35.695684],[51.395178,35.69537],[51.395219,35.695127],[51.395267,35.694835],[51.395334,35.694429],[51.395351,35.694325],[51.395401,35.694026],[51.395425,35.693879],[51.395481,35.693541],[51.395494,35.693461],[51.395561,35.693059],[51.395574,35.692974],[51.395492,35.692983],[51.395102,35.693024],[51.394813,35.693054],[51.394131,35.693125],[51.394008,35.693139],[51.393924,35.693147],[51.392699,35.693275],[51.39259,35.693286],[51.392332,35.693313],[51.392244,35.693322],[51.392122,35.693308],[51.39204,35.693301],[51.390943,35.693388],[51.390813,35.693397],[51.390687,35.693407],[51.390068,35.693453],[51.389974,35.693457],[51.389225,35.69351],[51.388822,35.693538],[51.38851,35.69356],[51.388394,35.693568],[51.388295,35.693575],[51.387848,35.693606],[51.387744,35.693613],[51.387391,35.693638],[51.387197,35.693651],[51.387001,35.693665],[51.386847,35.693676],[51.386273,35.693716],[51.386137,35.693725],[51.386072,35.69373],[51.385726,35.693754],[51.385478,35.693771],[51.385078,35.693799],[51.384766,35.693821],[51.383788,35.693889],[51.383709,35.693895],[51.383633,35.6939],[51.383505,35.693909],[51.38326,35.693926],[51.382305,35.693993],[51.382045,35.694011],[51.381413,35.694054],[51.381237,35.694081],[51.381226,35.694188],[51.38113,35.695132],[51.38109,35.695521],[51.381065,35.695773],[51.381063,35.695793],[51.381045,35.695965],[51.381031,35.696099],[51.381024,35.696172],[51.381009,35.696316],[51.380994,35.696462],[51.380975,35.696648],[51.380969,35.696747],[51.380962,35.696814],[51.380954,35.69689],[51.380905,35.697363],[51.380849,35.697905],[51.381,35.698]]}},{"type":"Feature","properties":{"route":11,"color":"#9333ea","kind":"routed_full_gps_connection","after_segment":0,"duration":392,"distance":6375.3},"geometry":{"type":"LineString","coordinates":[[50.8,35.699],[50.799603,35.699088],[50.798428,35.699434],[50.796891,35.699835],[50.79658,35.699923],[50.79627,35.70003],[50.795947,35.700131],[50.7956,35.700219],[50.794858,35.700344],[50.79386,35.700601],[50.790459,35.701488],[50.789692,35.701684],[50.788957,35.701878],[50.787745,35.702189],[50.787219,35.702327],[50.78665,35.702457],[50.785455,35.702694],[50.784314,35.70286],[50.783453,35.702976],[50.782619,35.70308],[50.781877,35.703177],[50.779086,35.703527],[50.777871,35.703699],[50.77678,35.703842],[50.775091,35.704064],[50.773061,35.704314],[50.772029,35.704558],[50.771765,35.704638],[50.771422,35.704774],[50.771102,35.704937],[50.770827,35.705104],[50.770409,35.705489],[50.769875,35.706121],[50.769453,35.706619],[50.769326,35.706928],[50.769293,35.707257],[50.769393,35.707583],[50.769533,35.707849],[50.769771,35.708094],[50.770058,35.708353],[50.778712,35.713078],[50.783541,35.715751],[50.784533,35.716287],[50.786047,35.717118],[50.787742,35.717983],[50.788769,35.718505],[50.789266,35.718758],[50.79122,35.719736],[50.791438,35.719845],[50.792161,35.720201],[50.792307,35.720273],[50.792448,35.720341],[50.793513,35.720852],[50.797385,35.72273],[50.798572,35.723309],[50.798864,35.723452],[50.8,35.724]]}},{"type":"Feature","properties":{"route":12,"color":"#059669","kind":"routed_full_gps_connection","after_segment":0,"duration":28.8,"distance":176.7},"geometry":{"type":"LineString","coordinates":[[51.337,35.785],[51.33699,35.785776],[51.336,35.786]]}},{"type":"Feature","properties":{"route":16,"color":"#0f766e","kind":"routed_full_gps_connection","after_segment":0,"duration":866.8,"distance":7590},"geometry":{"type":"LineString","coordinates":[[51.185,35.665],[51.184755,35.664875],[51.184698,35.664833],[51.184616,35.664771],[51.184763,35.664642],[51.184888,35.664745],[51.185004,35.66482],[51.185869,35.665465],[51.1865,35.665964],[51.187108,35.666458],[51.1878,35.66695],[51.188372,35.667323],[51.188532,35.667428],[51.18973,35.668198],[51.19026,35.668538],[51.19121,35.669159],[51.191722,35.669432],[51.191868,35.66946],[51.192117,35.669541],[51.192458,35.669676],[51.192755,35.669891],[51.193109,35.670269],[51.193276,35.670492],[51.193433,35.670645],[51.195273,35.671901],[51.195275,35.671974],[51.195271,35.672032],[51.195222,35.672079],[51.19514,35.672093],[51.195043,35.67208],[51.194909,35.67204],[51.194724,35.671973],[51.193317,35.670925],[51.192998,35.670698],[51.19273,35.670554],[51.192542,35.670448],[51.192373,35.670359],[51.192145,35.670406],[51.191972,35.670467],[51.1918,35.670546],[51.190024,35.671703],[51.184804,35.675095],[51.178698,35.67924],[51.177156,35.680318],[51.175626,35.681327],[51.175541,35.681384],[51.17481,35.68188],[51.173826,35.682547],[51.172493,35.683453],[51.174319,35.685274],[51.17755,35.688507],[51.178841,35.689799],[51.178883,35.689843],[51.178941,35.68988],[51.179092,35.689937],[51.180115,35.690246],[51.180215,35.690258],[51.180309,35.690249],[51.180386,35.690217],[51.18096,35.689915],[51.181277,35.689771],[51.181647,35.689628],[51.181888,35.689507],[51.182012,35.689437],[51.182053,35.689424],[51.182098,35.689421],[51.182136,35.689431],[51.182161,35.689453],[51.182351,35.689809],[51.182531,35.69017],[51.182944,35.690995],[51.183337,35.691833],[51.183785,35.692786],[51.183038,35.693032],[51.18263,35.693167],[51.182442,35.693229],[51.182299,35.693276],[51.181221,35.693633],[51.180892,35.693741],[51.180247,35.693954],[51.180074,35.694011],[51.17865,35.694482],[51.1785,35.694547],[51.178407,35.694586],[51.178309,35.694632],[51.178247,35.694678],[51.178182,35.694727],[51.178117,35.694814],[51.17812,35.694842],[51.178118,35.69487],[51.178166,35.695031],[51.178231,35.695287],[51.178397,35.695659],[51.178846,35.696575],[51.179288,35.697479],[51.179605,35.698127],[51.179917,35.698772],[51.180212,35.699304],[51.180283,35.69944],[51.180505,35.699818],[51.180875,35.700408],[51.181669,35.701675],[51.182004,35.702209],[51.182061,35.702274],[51.182157,35.702411],[51.182304,35.702651],[51.182378,35.702764],[51.182357,35.702844],[51.182272,35.702865],[51.18204,35.702992],[51.181397,35.703216],[51.180483,35.703311],[51.179999,35.703403],[51.179555,35.703466],[51.178582,35.703584],[51.178446,35.7036],[51.179,35.704]]}}]}
