{"type":"FeatureCollection","features":[{"type":"Feature","properties":{"region":1,"kind":"fixed-service-footprint","label_center":[51.4406960870607,35.805339152967576]},"geometry":{"type":"Polygon","coordinates":[[[51.397616952371955,35.802275603387],[51.40037041434945,35.802420731442105],[51.402833960158375,35.80363442892648],[51.40312867148214,35.805873397070854],[51.40464036744609,35.80779090373239],[51.40320841781784,35.809286307386714],[51.40271181985083,35.811020221862485],[51.40235701512705,35.81307718998294],[51.400517352180245,35.814850412951245],[51.400224955024306,35.81704899834161],[51.402281604856164,35.81640735743344],[51.40405214998239,35.81675697054054],[51.40420818401132,35.81900807989821],[51.40577791435859,35.82030650022179],[51.4072141892746,35.8183046824052],[51.40947468173683,35.8170432872885],[51.41008350094885,35.81490224202366],[51.411544377621844,35.81315458824067],[51.41408889288401,35.81374284292405],[51.41632218631268,35.81496262099075],[51.41900282889289,35.81518569833051],[51.42151486865208,35.81459462965588],[51.42438860449148,35.814793373723866],[51.42711949812993,35.81546366959939],[51.42907983520676,35.81729695259883],[51.43149443869737,35.81799044450936],[51.43377720091114,35.81672926500616],[51.4358448350169,35.818379099200364],[51.4365712977871,35.81660892602951],[51.437765896511955,35.81452993436368],[51.44052395243879,35.81385046205768],[51.44342129816504,35.81408223377426],[51.44640226680457,35.814209235500186],[51.449004434740786,35.8151498191057],[51.45111686964534,35.81655752285752],[51.45407520952289,35.816718236550074],[51.455750271162565,35.81492651696782],[51.45783414058059,35.814843203505326],[51.46016148175457,35.814387284621134],[51.462572162227914,35.81374223257619],[51.46465774012465,35.814701847785834],[51.46501068415344,35.81701762356837],[51.467641461534974,35.81680162802568],[51.46989386132992,35.816557807030506],[51.47272183499178,35.815958668901395],[51.474993967329226,35.81705779721505],[51.476620655866746,35.81843154594079],[51.47923645194567,35.81828662416957],[51.481902417912224,35.81849417200477],[51.48324443347092,35.81673365461638],[51.48267124610632,35.81489013492947],[51.483691198792854,35.813360751611626],[51.4834112885391,35.81070954232499],[51.482334290557816,35.80866780656472],[51.479675760489414,35.807522566577525],[51.478005475286835,35.804804908864305],[51.47665129624586,35.80273493771931],[51.473989815584225,35.801945848032176],[51.47067684813248,35.8021430222202],[51.468395463162636,35.802186489324946],[51.46567581715472,35.80272689183381],[51.463330365280875,35.80319102759808],[51.46059781658796,35.80095164116982],[51.459294998788394,35.79894891710257],[51.458353477170654,35.79746706364815],[51.4557150613203,35.797428395964225],[51.453113321957396,35.79788909365729],[51.44992002163615,35.79857990897534],[51.446893583826565,35.79818995613933],[51.44446068519753,35.79674477999822],[51.44179609007568,35.795522881380585],[51.438980214196214,35.79461619256434],[51.43616637017475,35.79405669593574],[51.43391692037679,35.79258819165597],[51.43104824923913,35.79104691204181],[51.4296676055514,35.79290698331629],[51.42781165705434,35.794851846348806],[51.426181854635956,35.796947772173915],[51.42337070901754,35.79774361281117],[51.42003957365454,35.79795444708009],[51.41749336533257,35.79894531999889],[51.41490436006503,35.79805849378376],[51.412324707225906,35.79712227979358],[51.41030869469674,35.7980877202821],[51.407485721835855,35.7983183244354],[51.404456739604356,35.797813367414406],[51.40188000508479,35.79686497793814],[51.401023321497284,35.79895397759925],[51.39885820455504,35.80046209501701],[51.397587750395765,35.801867799826034],[51.397616952371955,35.802275603387]]]}},{"type":"Feature","properties":{"region":2,"kind":"fixed-service-footprint","label_center":[51.36342198817662,35.75726388474078]},"geometry":{"type":"Polygon","coordinates":[[[51.347193565434935,35.79202722378888],[51.34907161953915,35.79119217939623],[51.34976044899335,35.789257465750204],[51.350721032167726,35.787534131067176],[51.35130934895884,35.785599680675766],[51.352114338702464,35.78370094587213],[51.352269752214355,35.781678628490084],[51.352850236184295,35.77971487998032],[51.35398157825509,35.7782148772038],[51.35607220395735,35.77911841491067],[51.35752819048221,35.78088288844722],[51.359011811523224,35.782117455208805],[51.36075343820178,35.78069289240458],[51.36264905126743,35.779220934996985],[51.36394799837965,35.77740260962575],[51.36484058476521,35.776021513534715],[51.36646938945655,35.775033155077985],[51.36831152950509,35.77368543132704],[51.36916286995411,35.77191526094563],[51.371086903551806,35.772269097752265],[51.37356924816094,35.77294109060518],[51.37634940577034,35.773152562014616],[51.37806170392604,35.7720335294403],[51.37910018232663,35.77102654187837],[51.37938778597397,35.76940707338866],[51.379824809334714,35.76742868490894],[51.37887872526921,35.76511878586142],[51.37720976727284,35.76252558652323],[51.37716937613428,35.75845977776978],[51.377509515766576,35.75634169956625],[51.37655004960011,35.75402619877544],[51.376189721592155,35.75197758181363],[51.376196880250475,35.75061664117318],[51.37570566665156,35.74848443219748],[51.37485677544465,35.74624695113603],[51.3748050176456,35.74405172204018],[51.37479574278866,35.74211957937014],[51.37477232939931,35.74010347304438],[51.37388980417104,35.737966888666875],[51.37226930142133,35.73515495688502],[51.3720492474652,35.73364351034607],[51.371934717058544,35.731207644601994],[51.37192497501884,35.72914668257593],[51.37184508936798,35.72677231001763],[51.370925453431546,35.725172927158155],[51.368715187163886,35.725127296262386],[51.36656387810692,35.725070030945105],[51.36394442775957,35.725000026261796],[51.36103648413929,35.72492484472691],[51.358483915244356,35.72487136589556],[51.35576300264923,35.72480301711463],[51.35222863286977,35.72471397885621],[51.35034408375324,35.723438129532205],[51.348751133715695,35.72480760501186],[51.35051296682335,35.72580168726086],[51.35000777022813,35.72974773570348],[51.34966421423664,35.732194804065806],[51.34943659390767,35.733943072995146],[51.34929286361324,35.73532532307078],[51.34914735955698,35.736751334935896],[51.348531175245405,35.74080680633529],[51.34816846730177,35.743439790260794],[51.34799851456599,35.745005906198195],[51.34779614226439,35.74626744431651],[51.347472167333066,35.74824866650331],[51.347201261531396,35.750517479741575],[51.34737217301718,35.751676431445404],[51.348201514897916,35.75387450432918],[51.34904139932586,35.756089460978764],[51.34982895759459,35.75818606991531],[51.35008921252256,35.760808844672866],[51.34955224002952,35.76400085854777],[51.349484810379835,35.766450120731776],[51.349931216500046,35.76989241831841],[51.350381449199965,35.77221675566393],[51.35090486975596,35.773809389432245],[51.350344677382786,35.775777819110715],[51.34994177213967,35.777729329730775],[51.34875885377105,35.77965839336644],[51.34871994179119,35.78179290232289],[51.348880653776625,35.78383191503712],[51.34912762322943,35.786017198674536],[51.34833763445139,35.787846698554084],[51.34809716205363,35.78988564755147],[51.34689079132038,35.79181590644516],[51.347193565434935,35.79202722378888]]]}},{"type":"Feature","properties":{"region":3,"kind":"fixed-service-footprint","label_center":[51.42534744859545,35.77100767376183]},"geometry":{"type":"Polygon","coordinates":[[[51.40906617857137,35.78272049195617],[51.409536926464185,35.78339660847198],[51.411134897580716,35.784046614823154],[51.41279043067296,35.78454766702748],[51.41445218600042,35.78516622788878],[51.41592791594476,35.784866537574],[51.417684897837006,35.78425443949318],[51.41992904216068,35.784127374744365],[51.421674421802216,35.783840506455206],[51.423394073874235,35.78322210085233],[51.42452921564242,35.782050500883685],[51.42550686564833,35.78051665157169],[51.4266330813801,35.77937843058668],[51.42766602404638,35.77824594817374],[51.42864069569918,35.777433849415544],[51.4306935947422,35.778456200925525],[51.431742177844434,35.77949036775691],[51.43337858941304,35.78033102461415],[51.43507200474445,35.78062873014812],[51.437019844904405,35.781158806751606],[51.438627800823745,35.78164667698084],[51.44043687495837,35.78235625510466],[51.44195358629746,35.78318085528982],[51.44363775445747,35.784156734850356],[51.445074190918405,35.78490016004978],[51.44713224087444,35.784854237653754],[51.44918766802739,35.784363246133154],[51.45105731257809,35.78400316560569],[51.452654379154296,35.78373636764133],[51.453892748488755,35.78363919344328],[51.45353507754862,35.782864558831065],[51.452818556902955,35.78222701909025],[51.45111205517339,35.781449140764934],[51.45048399981626,35.780461582402424],[51.44961199860732,35.77891060849831],[51.44899336844584,35.777516464171505],[51.44812310929248,35.7762428600231],[51.44655152599945,35.77446020097317],[51.44486196045623,35.772548819096336],[51.443916853728645,35.77148588164042],[51.44301271574125,35.76937056713307],[51.44220089165724,35.767991432967705],[51.441752623035434,35.766558302526896],[51.441422987906314,35.76534472712628],[51.44047028967244,35.76393262100491],[51.439688182698944,35.762586818714034],[51.439856847978355,35.761055678740554],[51.43937086146908,35.76027236021419],[51.43864162610178,35.75904572179951],[51.437967518337125,35.75860401032218],[51.436181177113355,35.75868295030777],[51.43422992183533,35.75873145115846],[51.432201444257075,35.758563224560575],[51.43068922288314,35.75778355455841],[51.428977318123856,35.75756242665871],[51.42680958458144,35.757404853928804],[51.42554335502432,35.75758495274222],[51.42541080944957,35.758876771755006],[51.42530420291169,35.76028213758583],[51.42500602023902,35.76140924467657],[51.42452881558763,35.7622373849711],[51.423531930838465,35.763057007650644],[51.4213168906897,35.76360190554826],[51.41941437189278,35.763319190774304],[51.417106805480856,35.76313076950154],[51.41499019383351,35.76310691548597],[51.41265787852854,35.76303205193907],[51.41034970523289,35.76287384546858],[51.40844589430093,35.762734451176904],[51.406851342871704,35.76261080359837],[51.406131418639575,35.762915547715345],[51.40613678253785,35.76402442610117],[51.40647406083058,35.76556907372607],[51.40727884449678,35.76716261344392],[51.40731409730299,35.76875863469435],[51.40697912902397,35.77052946588323],[51.40700217117469,35.773856068909716],[51.40817948466612,35.775700409058096],[51.409211362705,35.77729878045555],[51.409748820565184,35.77897155985956],[51.40945296752912,35.78030543523547],[51.40911008247522,35.78186348014777],[51.40906617857137,35.78272049195617]]]}},{"type":"Feature","properties":{"region":4,"kind":"fixed-service-footprint","label_center":[51.511441252403145,35.7615281328779]},"geometry":{"type":"Polygon","coordinates":[[[51.49539843638035,35.77097640749197],[51.49744680575793,35.77230358839532],[51.49871603733359,35.774265753091505],[51.50136072636184,35.7771228308126],[51.50415543141253,35.77658902392289],[51.507174423328095,35.77597953630709],[51.509914606751295,35.776063015943926],[51.513336479949416,35.77596709195793],[51.516025481668066,35.77714269606719],[51.51712294061438,35.78072811819494],[51.52013959494318,35.78223752824992],[51.52190369016267,35.78427625075442],[51.522170813050664,35.78722288370071],[51.52477955006409,35.78634631366322],[51.52829876430527,35.78620864033684],[51.530352461529084,35.78463928933936],[51.53300771290872,35.783826630203485],[51.536242847388024,35.783897272715556],[51.539620778336506,35.785132135619605],[51.54284527602804,35.78566194485712],[51.54482544255184,35.78450387273071],[51.5446498561741,35.782400809323185],[51.54434724043623,35.77993851759376],[51.543913486680495,35.77899705006309],[51.543168852924175,35.777085391374335],[51.541693482137205,35.77619572776118],[51.54049860873501,35.77402009485946],[51.53749210604808,35.77356650200942],[51.53475142516111,35.772693100613175],[51.531617759915655,35.77265824899148],[51.52869520834551,35.772092499814434],[51.52709941901955,35.76986449717854],[51.52593287886921,35.76732275558257],[51.52472219848479,35.764987475571665],[51.52728501896965,35.76428799217995],[51.5305334239734,35.76347394271902],[51.53384700492608,35.762276148803814],[51.53923954784582,35.759874108530006],[51.5427329223848,35.75971231034506],[51.54600405852376,35.757406440892225],[51.548474589884265,35.755303529659706],[51.55081441359001,35.75325507355535],[51.55310903299301,35.75134740344822],[51.555990775205615,35.7495316856886],[51.55928322672929,35.748685454034835],[51.562585832869885,35.74810506504488],[51.5658347975939,35.74752594808412],[51.568037664335606,35.74652540613939],[51.566634604022155,35.744404069329775],[51.564475255699485,35.742203329783806],[51.56207832446568,35.74011037387957],[51.55928334304727,35.73828889980079],[51.55608339846425,35.73682445264611],[51.554140478398544,35.735334915915764],[51.55131340148604,35.734828342399226],[51.548364338517814,35.7352294409515],[51.54645776774769,35.73579184879036],[51.543061610182775,35.7362007010733],[51.53958751738075,35.73657457129571],[51.53637939507384,35.73572685156034],[51.532794884058035,35.73582892713298],[51.528921013753376,35.736190436691246],[51.52857429797679,35.739213689850395],[51.5258106565211,35.74032043535859],[51.522387959433665,35.74074941007205],[51.51923200059306,35.74113347909527],[51.51593600134398,35.74155610406103],[51.51259325973964,35.741989643489376],[51.50926369832721,35.74240661568316],[51.50582311905665,35.74284518280548],[51.502557691497984,35.74325111006382],[51.49926855232323,35.74375994166675],[51.495999626084966,35.7443120758186],[51.49220346225529,35.74493689191278],[51.4893606350947,35.74529644650416],[51.48599648069229,35.74559253733685],[51.482792498196574,35.74588945449328],[51.4798576698309,35.74653042669414],[51.481046632208525,35.748364841897306],[51.48088870674346,35.75080141554133],[51.48276218143392,35.753176180160274],[51.48346828667677,35.755579236378374],[51.484930147824144,35.758768558647965],[51.48669647601121,35.76078011695199],[51.48978639792556,35.76428348423594],[51.4910336349252,35.766775207452795],[51.49237945019292,35.7690369441756],[51.494648496550084,35.77032272655879],[51.49539843638035,35.77097640749197]]]}},{"type":"Feature","properties":{"region":5,"kind":"fixed-service-footprint","label_center":[51.305762098058835,35.76017871420414]},"geometry":{"type":"Polygon","coordinates":[[[51.282382140192304,35.77027007185748],[51.279902048670124,35.77235453722092],[51.277393715361065,35.77493359026072],[51.27920510867061,35.77717098864411],[51.28003906202029,35.77983934099749],[51.28093514921103,35.782555607482024],[51.2828316713731,35.784697777490294],[51.283698434871575,35.78766137514191],[51.285378978045465,35.78976875694065],[51.284974352939976,35.79305854200756],[51.28567297838492,35.79622758018705],[51.28570768016989,35.79938631546353],[51.28832686995366,35.79587019618708],[51.288685332518355,35.79262151775709],[51.28903490126887,35.78920289862686],[51.2878734994243,35.786152112906144],[51.286134784285984,35.78329594566705],[51.28435530665511,35.780104591077446],[51.282359499482546,35.77677767062401],[51.28385125292158,35.774553385082605],[51.28711605644939,35.773352010288725],[51.289581268355754,35.77142669983944],[51.29346772816685,35.77219276143136],[51.29666860696043,35.77433857597473],[51.29933608539746,35.77629677864599],[51.301660343933854,35.777671981898],[51.30130219021676,35.78079064337851],[51.303724443521055,35.78055037136196],[51.30473056483516,35.77742425098063],[51.30652822206148,35.77970190997656],[51.307372499448654,35.78248238815915],[51.30983474575491,35.78129940750467],[51.30992113427273,35.778016121363315],[51.31182121691314,35.774789157181694],[51.315259389761515,35.775341686170826],[51.31814910907675,35.7769632786036],[51.321311781749976,35.77781040588006],[51.32210541865445,35.780991681610914],[51.322198262013856,35.78432137408559],[51.32253810836598,35.787692583127956],[51.32256904529877,35.79100485566367],[51.32456059100105,35.78987415686009],[51.32526546746094,35.7868727945898],[51.32514145670464,35.78354905712391],[51.32511078248199,35.78026021983533],[51.32611604196141,35.777228701837586],[51.32720527531807,35.77424573967256],[51.32642133286835,35.771128739762716],[51.32569767702058,35.766203524747134],[51.32625728548612,35.76213899501041],[51.32578183444605,35.75772268221481],[51.324553443608856,35.75447633079808],[51.32354505011129,35.751660956445754],[51.323854081883916,35.74857113327796],[51.32429991286409,35.745937927291216],[51.32457053512497,35.74361833031038],[51.325396459213344,35.73783804347429],[51.32572726533467,35.735218576807895],[51.32601614294758,35.73279663053469],[51.32665682223412,35.72805891672968],[51.325081029391825,35.72520483778675],[51.3208797183734,35.725103143635785],[51.31483436011171,35.72495967989611],[51.31014294760896,35.72483605927927],[51.302764510943724,35.7255606466749],[51.29903524000458,35.72622995663499],[51.29816916936833,35.72887069167825],[51.2987664076586,35.73075314104838],[51.2995560172264,35.73367162426077],[51.29934594327301,35.73597436940549],[51.297310549592574,35.7386515370706],[51.29554485464286,35.74055163192346],[51.292609902377606,35.74221846360589],[51.28917579867945,35.74477496833961],[51.28738670731831,35.74802358425399],[51.28768862574515,35.751382301301696],[51.28821251668993,35.7541645622899],[51.28731916828703,35.756103583338884],[51.285688910614056,35.758218433397865],[51.28504620648559,35.76419055692092],[51.284430041314714,35.76693812862184],[51.282925848502536,35.76956800931606],[51.282382140192304,35.77027007185748]]]}},{"type":"Feature","properties":{"region":6,"kind":"fixed-service-footprint","label_center":[51.40455002263393,35.72743594795047]},"geometry":{"type":"Polygon","coordinates":[[[51.41690237120166,35.7148182417419],[51.41575083079772,35.71477583662491],[51.414701981234174,35.71475164447021],[51.41318572788256,35.714719772839],[51.412125481862155,35.71469557733983],[51.41073466827989,35.71467250754601],[51.40907023399467,35.714641048287604],[51.40790574000615,35.71461441485723],[51.406948041532154,35.714580483863955],[51.40568266861277,35.714566173391646],[51.404462798097036,35.714533088994614],[51.40341400601199,35.71451800524165],[51.402091501882914,35.71447591953071],[51.39820406906245,35.71440502077659],[51.39405433943081,35.71430682450366],[51.39113686230677,35.71517648170268],[51.3910521515053,35.716140039116645],[51.39106356886711,35.71710329407914],[51.391123583417276,35.7181784064818],[51.39110626528487,35.71887292599657],[51.39113184284997,35.71992574393975],[51.391157316033045,35.72095615976201],[51.39118931375822,35.72191374796848],[51.39126962424586,35.722921588509045],[51.39133479847382,35.72363264894875],[51.391467909819774,35.724186680790886],[51.39193352556173,35.7253389181468],[51.392970904704036,35.72684217141594],[51.39367017013444,35.72800485358691],[51.39392127281964,35.72880492558165],[51.39396527856576,35.72938723770398],[51.39398983534962,35.73021043336754],[51.393994351187104,35.73115130327601],[51.39399116503961,35.731918581992005],[51.3940091240199,35.73279780301126],[51.394020591092755,35.73375545144547],[51.39403941245758,35.734813885013274],[51.394112089141714,35.73564252607474],[51.39452286980899,35.73677811294559],[51.39490427505,35.73751615610335],[51.39519733029814,35.738450497502285],[51.39536665343324,35.739368433464264],[51.395431736427,35.7400402825218],[51.396125940039674,35.74009965255362],[51.397026229065276,35.74015274703534],[51.3980366656753,35.74025027386817],[51.39930128361275,35.74034135162706],[51.400579675434805,35.74043795887371],[51.40193247569651,35.74052090089432],[51.40327616344403,35.74057841249177],[51.40474653623505,35.74062513844589],[51.406013822008504,35.740610532477994],[51.4073197619182,35.740719738927275],[51.40868896906075,35.74080803972955],[51.409944656489834,35.74100000991664],[51.410832230741605,35.741079591031884],[51.412136302506575,35.74082712523634],[51.41328621033277,35.740182601536546],[51.4138034127556,35.73972623392635],[51.414105054554796,35.73924995800461],[51.41436834305264,35.73871183063872],[51.41446644329779,35.738091637065025],[51.414626041718805,35.737119979127954],[51.414685406617544,35.73636562071025],[51.41477005839306,35.73560084215955],[51.414829199692036,35.734805160766264],[51.41477495393537,35.73413384856867],[51.41458099889373,35.733401043163425],[51.41442435295287,35.73253380498987],[51.41419207219713,35.731739147774476],[51.413883450868035,35.730882772367714],[51.41386680054506,35.73012867987353],[51.41431817355946,35.72922831187992],[51.41485958339722,35.728585894214625],[51.41547693859146,35.727932872609955],[51.41606711914075,35.72693902329098],[51.41635365958076,35.72602889293815],[51.416742144012645,35.72523203818167],[51.41724584680266,35.724662049298956],[51.41781729846916,35.72387102068404],[51.417550777351586,35.723072363717606],[51.416917446399395,35.721903100055805],[51.416684760181376,35.72102993624667],[51.41668034027299,35.720202449691904],[51.416664123295384,35.71930062256901],[51.41664726182405,35.718277926265536],[51.41675579713483,35.71725478415159],[51.41680837390209,35.71642709405543],[51.41688320048016,35.71549704887795],[51.41690237120166,35.7148182417419]]]}},{"type":"Feature","properties":{"region":7,"kind":"fixed-service-footprint","label_center":[51.44212539561788,35.72543351176556]},"geometry":{"type":"Polygon","coordinates":[[[51.44470353570795,35.735703112396294],[51.44602162452447,35.735583788246984],[51.44703622394884,35.73549284454489],[51.448157639252955,35.73539603380993],[51.449212235729725,35.73529401374929],[51.45033360873933,35.73519171970794],[51.45140155063322,35.7350896115564],[51.45255633480054,35.7349925934017],[51.45359097060079,35.73490691036175],[51.45416369367462,35.7346324555973],[51.45381349899312,35.734132926692624],[51.45327439356497,35.73336779390693],[51.45277853874882,35.73271863006476],[51.452266758285205,35.73210240694656],[51.45160085826851,35.73133551120957],[51.451015947265816,35.730620909732615],[51.45043912229492,35.72990627151263],[51.44976689177841,35.72942875260867],[51.44953783477984,35.72887061325596],[51.450017718441394,35.72816507395441],[51.45049754794086,35.7274529544216],[51.45100695166555,35.72669224101217],[51.45148903705872,35.725962814695755],[51.452048625024034,35.72510568884634],[51.45259248186239,35.72432096207213],[51.45301611635417,35.723668230257495],[51.45348697160514,35.722818011968975],[51.45403883609225,35.72203324113684],[51.45449526057404,35.72147902129651],[51.45522442040267,35.72068039428155],[51.4559299040334,35.7199739250181],[51.45663520806388,35.71924114174847],[51.45746105127096,35.718442107709784],[51.45633020064772,35.71811773053783],[51.45532523356059,35.71783350870836],[51.454322658722674,35.7175227449095],[51.45327784245,35.71720229519759],[51.45208241875207,35.71689716076194],[51.45123099655159,35.71665459960149],[51.45016828216077,35.71635875114768],[51.44919006279784,35.71607731277171],[51.44815529217986,35.71576801744397],[51.44713912090651,35.71548364045436],[51.44599746820472,35.7151811240721],[51.44445947751694,35.71476618759604],[51.44344162721911,35.71475370246073],[51.44232442478677,35.714739259163935],[51.4410589333117,35.71470674734011],[51.440158312715155,35.71469146634333],[51.4393602832459,35.7146757969454],[51.43804925043255,35.71465268872275],[51.43681796085187,35.7146199666394],[51.43546128457859,35.7145876716018],[51.434174672605316,35.71457409138393],[51.43278591044109,35.715229490624566],[51.43271108386303,35.71615953580204],[51.43265850709577,35.71698722589821],[51.432549971784994,35.71801036801215],[51.43256683325632,35.71903306431562],[51.43258305023393,35.71993489143852],[51.432587470142316,35.72076237799328],[51.43282015636033,35.72163554180242],[51.43345348731252,35.722804805464214],[51.4337200084301,35.723603462430646],[51.4331485567636,35.724394491045565],[51.432644853973585,35.72496447992828],[51.4322563695417,35.72576133468477],[51.43196982910168,35.72667146503759],[51.4313796485524,35.72766531435657],[51.43076229335815,35.728318335961234],[51.43022088352039,35.72896075362653],[51.429769510506,35.72986112162014],[51.42978616082897,35.73061521411433],[51.43009478215807,35.731471589521085],[51.430327062913804,35.73226624673648],[51.43048370885467,35.73313348491004],[51.430677663896304,35.73386629031528],[51.43073190965298,35.73453760251288],[51.431657319972224,35.73460665017711],[51.43274751952255,35.734685429132696],[51.43415462525276,35.734783717360564],[51.435308359793524,35.73489321668355],[51.43612052530061,35.735107236920896],[51.43713747717809,35.735692413434975],[51.43817787630898,35.73592624031519],[51.439407228964235,35.73595274186032],[51.44058555160172,35.7359174222997],[51.44171324168555,35.73589259870327],[51.44284109269897,35.73586560744905],[51.443727502306096,35.73578180601616],[51.44470353570795,35.735703112396294]]]}},{"type":"Feature","properties":{"region":8,"kind":"fixed-service-footprint","label_center":[51.49771027582216,35.72546986712034]},"geometry":{"type":"Polygon","coordinates":[[[51.480157916241495,35.73350105339553],[51.48097865242602,35.73338351235289],[51.48198617709904,35.73323255985121],[51.48347406071896,35.73300347099687],[51.48474832916886,35.73279152952054],[51.485782340928715,35.73260774375703],[51.48692980268142,35.73241259725737],[51.487930504335935,35.73224524302565],[51.489051267166985,35.73205560960518],[51.490065307006645,35.731888167347776],[51.49116615015098,35.73172035488986],[51.49234040634173,35.73154677800225],[51.49336804484922,35.73142278249071],[51.494408998709154,35.73129327066298],[51.4956058339004,35.73114085074391],[51.496670979588764,35.73100077855858],[51.49787871664541,35.730848736354254],[51.49904641317096,35.73070228362159],[51.50017407008557,35.73056142259625],[51.5011815571698,35.73042649495443],[51.50237597458339,35.73028531142781],[51.50363034142193,35.73012207090062],[51.50472450818585,35.72997038216105],[51.50571871618773,35.72985177199946],[51.50689299734673,35.729699700129224],[51.50806734083845,35.72955849494026],[51.509014715436805,35.7294291470337],[51.509995578475746,35.729315971671866],[51.51110312616055,35.72917500190735],[51.512170674277414,35.72904507801048],[51.513398326121774,35.72889264869787],[51.514605973230445,35.72874572884614],[51.51559337136485,35.72861610329702],[51.51683435163894,35.72846354711032],[51.517939786355925,35.728017575062864],[51.51835701282054,35.72750935778882],[51.51849673951232,35.726452497903594],[51.51864284044794,35.7253520527265],[51.518703728597124,35.724486104629676],[51.51841341879898,35.72406498768744],[51.517355284125905,35.72387400982445],[51.516304436635544,35.723643129641786],[51.51521589101083,35.72352257826145],[51.51403714644741,35.723615732670545],[51.51292676488884,35.72361479368592],[51.51189363223522,35.723612322501644],[51.51218649633511,35.72442447586413],[51.51206081012941,35.72497943837648],[51.51106126162428,35.72504501880393],[51.50962485345613,35.72492635739292],[51.50861585777149,35.724799226545585],[51.5074528176782,35.72454779131443],[51.5063133456938,35.72419758295992],[51.505198214872166,35.723866979014],[51.503945661040866,35.72348433021482],[51.50287895616496,35.723153477430685],[51.50190123159966,35.72286168840941],[51.50079419359445,35.72252439452515],[51.499800285594404,35.7222194876376],[51.49874175136749,35.721895106155294],[51.49758633608584,35.72155138155264],[51.49656009326746,35.721226828035576],[51.495589824570445,35.72082310564004],[51.494547608954655,35.72051831511245],[51.49350540842228,35.720213507075066],[51.492398507376926,35.71987606326295],[51.491307792544184,35.71954511043075],[51.49022503843246,35.71919437616823],[51.4891100865806,35.718850329892376],[51.48797926394404,35.71854578752113],[51.48691284942804,35.71822123655096],[51.485668575393085,35.71781845669587],[51.4847880155934,35.71755231802081],[51.48386699211323,35.71726002038561],[51.48297305791486,35.71745427612974],[51.482291650014034,35.718134357322775],[51.481570132791,35.71885404837521],[51.48087282164389,35.71958021304515],[51.480223948839985,35.7203193342886],[51.47973541704938,35.72089998472599],[51.47919211041259,35.72177021739871],[51.478745097516125,35.72256115195397],[51.47828927573729,35.723227160659455],[51.477721599364,35.724077744458455],[51.47720190976,35.72486237149611],[51.47671411955909,35.72558768151417],[51.47619424051926,35.72634599403712],[51.47570652917932,35.727091025652754],[51.47516271836396,35.72790203425181],[51.475947027724494,35.72823444245996],[51.47649884587663,35.728811070521516],[51.4770755631585,35.72950597739994],[51.477660480529046,35.73022057703209],[51.47826954043048,35.73092192423312],[51.47883809681455,35.731590539184],[51.47941024165691,35.732409622480105],[51.47982113824899,35.73301236193894],[51.480157916241495,35.73350105339553]]]}},{"type":"Feature","properties":{"region":9,"kind":"fixed-service-footprint","label_center":[51.32505718349199,35.686671096699754]},"geometry":{"type":"Polygon","coordinates":[[[51.337257420055614,35.69348993946988],[51.338511992283316,35.693412573668354],[51.33956099676624,35.69386717518213],[51.33991021245961,35.69464403057002],[51.34190178945633,35.6946917460636],[51.34313599705046,35.69471870667332],[51.34430479580441,35.69475345851039],[51.34543613315539,35.69477304600989],[51.34651141059554,35.69480040348801],[51.347624119440404,35.694835257893125],[51.34871806372913,35.69485489644072],[51.34990118198588,35.694891039274665],[51.34998655929451,35.694068889882246],[51.35007185171918,35.69322857700702],[51.35016217646824,35.69227018651445],[51.3502200986072,35.69152248063065],[51.35006570157623,35.69109998718064],[51.34806417114782,35.69073772163299],[51.347467353035896,35.68800768668534],[51.347342557033585,35.68762782718553],[51.347168795676005,35.68711180360303],[51.3469906784742,35.68618434606709],[51.34705948802469,35.68558779596968],[51.34717089267936,35.684681736818206],[51.34725003375269,35.68393718977427],[51.34730541258298,35.683303534403166],[51.34741659341929,35.68240931690559],[51.34669522182736,35.681072958763174],[51.34640735198156,35.680618810036336],[51.345939484640375,35.67980565462287],[51.34597629541542,35.679398109420696],[51.34488229261379,35.67887099554155],[51.344112414565515,35.67851795140758],[51.34325595518934,35.678128574547635],[51.342388823428536,35.67772954028167],[51.341912084139096,35.677534213308256],[51.341089225804154,35.6773348255501],[51.33945157133075,35.677374769813454],[51.33816687518228,35.677575072469935],[51.33704279526589,35.67775977196537],[51.33591256661577,35.677954555074514],[51.33466495972813,35.678164770187365],[51.33362735496489,35.67834412765893],[51.33261442237958,35.67851331427298],[51.33114446295826,35.678769452313794],[51.329631200450734,35.67902062784427],[51.328463837914484,35.67922041889268],[51.327074097296546,35.67945607562806],[51.32569054120118,35.67969672884408],[51.324399602680835,35.67991693902587],[51.323452228119585,35.6800763519627],[51.32302889567803,35.680493516267475],[51.32302286531064,35.68093482839672],[51.323087098306274,35.68156508777914],[51.32127319072199,35.68203621765631],[51.32060106638,35.68205682757529],[51.3199984551392,35.68207095159342],[51.31887049534845,35.6820989897302],[51.317719401510026,35.68213967325602],[51.31641375359272,35.682174410681135],[51.31519314011736,35.68222152249352],[51.31395704797332,35.68226234363766],[51.31228824939435,35.682297870513615],[51.311090784036665,35.6823385428636],[51.30986241031179,35.682379264903695],[51.30842544115179,35.68242675248648],[51.306987763517206,35.68247446656524],[51.305737986067605,35.68252167280623],[51.30442299174439,35.68256900161969],[51.30028397704453,35.682990123660495],[51.301321550409526,35.68449544045941],[51.30277302862924,35.686230389796485],[51.303341554650316,35.687204623349764],[51.303648221668496,35.68788501533233],[51.303989948905844,35.68864336710392],[51.30440352047564,35.68952819943993],[51.30503967157789,35.69059316527257],[51.30586930766096,35.69179380923892],[51.30700969854807,35.69331841065743],[51.307913368421744,35.69457898231149],[51.30879748512994,35.69584005289422],[51.310364890883484,35.69555818187992],[51.311830389064426,35.695299268541],[51.31308591702869,35.695071202979065],[51.313751363240854,35.694948478288474],[51.314276905814275,35.694857634237415],[51.31597784333826,35.69455156609075],[51.31930970265348,35.694137998905795],[51.3209551374845,35.69414483844788],[51.322439641884735,35.69419641849512],[51.323720508997276,35.6942277316866],[51.32463337877426,35.69424450896496],[51.32616401099062,35.69428790514104],[51.32772534760765,35.694320036789875],[51.32956684807692,35.694360091811156],[51.3311470431291,35.694408110528016],[51.33256701897483,35.6944347540684],[51.33375750701536,35.69447070043931],[51.334942623145366,35.694497930958946],[51.33578072945534,35.6945130368269],[51.33654149882716,35.693921382918006],[51.337257420055614,35.69348993946988]]]}},{"type":"Feature","properties":{"region":10,"kind":"fixed-service-footprint","label_center":[51.36452519593084,35.68527128575904]},"geometry":{"type":"Polygon","coordinates":[[[51.37075379802168,35.67794040353864],[51.3691154796459,35.677334310598425],[51.36804008168887,35.67696073407799],[51.36720241863397,35.67669846338028],[51.36661505766269,35.6765678437805],[51.36552039791686,35.67646407656632],[51.36510752762143,35.676480485991696],[51.36476891079532,35.67650045211064],[51.364430276291706,35.676516630273866],[51.36407325542292,35.67657072435806],[51.36367913253128,35.67662871528147],[51.36332673225476,35.67667900489989],[51.36296505149943,35.676729320617326],[51.362612769682165,35.67680610911725],[51.362269714774726,35.67687150928417],[51.361861769572165,35.676952247521086],[51.361398229984886,35.67705208084645],[51.36095792146863,35.67715941355948],[51.36050369105641,35.67726678475735],[51.35998458462243,35.677393276803755],[51.35954411673487,35.67746652444467],[51.359159292352096,35.67753203167344],[51.35894157073192,35.67761218660183],[51.35869140248343,35.67770000910197],[51.35853035529808,35.67775902269402],[51.35828446000728,35.67785115164469],[51.357974191653405,35.677959201161926],[51.357654570194725,35.67807769707319],[51.35714633896854,35.67825944085575],[51.356783694906945,35.67839103440699],[51.35652943765601,35.67848329562047],[51.35660995583178,35.678634488892996],[51.35666145799728,35.678724690351935],[51.35675434614729,35.67887923478364],[51.357077823172965,35.67944764430646],[51.3571161879907,35.679444685029004],[51.35723221086076,35.67964646641876],[51.357365693018764,35.6799017930333],[51.35803781531281,35.68114719928259],[51.35811107153923,35.68114413654723],[51.35808706461069,35.68123815117572],[51.35803997049442,35.681633992846116],[51.35801295296641,35.681836194051776],[51.357975883774394,35.682132368673294],[51.357932530873185,35.68247104531218],[51.35795814760659,35.68247246238093],[51.35792050494409,35.68276602404439],[51.3578993361186,35.68294992299578],[51.35787826629394,35.68315624073389],[51.35784136387076,35.683510571088334],[51.357803965117945,35.683752807388565],[51.357745831974164,35.6842775851892],[51.3577299592161,35.6844166302398],[51.35770884823332,35.68461398031575],[51.357671705387006,35.68491450532093],[51.3576611496656,35.68501318033721],[51.35763400726739,35.68508948505237],[51.3575683937339,35.68516590287431],[51.35783926686741,35.68594063787315],[51.35790605978842,35.686130554924276],[51.357955091409515,35.686281066655695],[51.35801302822499,35.68645666145566],[51.358066393911315,35.68659281210299],[51.35810655349406,35.68672541459009],[51.358137824227306,35.68683652095547],[51.3581313029318,35.68696017255599],[51.35808027682333,35.68733662679494],[51.35873464233923,35.68956655590311],[51.360424868721694,35.689695882276375],[51.36063768221475,35.68973007808047],[51.36073617276764,35.68992882145077],[51.36081663335578,35.69018732996108],[51.360841301149854,35.69024696749794],[51.36089056979861,35.69035131490078],[51.36092212123661,35.69058508989861],[51.36086486244755,35.6908355547731],[51.36083264765965,35.69109902078458],[51.36080618286469,35.691403337244274],[51.36076391807328,35.69183797605177],[51.36074232291059,35.69205741127715],[51.36071542827835,35.69226637097745],[51.36069440627831,35.69254342588514],[51.36065703048592,35.692897724152374],[51.36063576297417,35.693120289496356],[51.360614474844056,35.69333831402783],[51.36057165317729,35.693719873544794],[51.36109030790587,35.69373203506939],[51.36149238758303,35.69374608057497],[51.3618757348261,35.69375255397634],[51.36229647854082,35.693758912245734],[51.36259571876317,35.693773260760125],[51.36295098438764,35.693772186504745],[51.36329697039056,35.69378639016494],[51.36369808520383,35.69379150037116],[51.36405750914108,35.69379653278435],[51.36446095503375,35.69380930459995],[51.36491592888817,35.69382891692904],[51.365302177873026,35.69383473523865],[51.36572604446648,35.69385531207184],[51.36598356286362,35.693863271540366],[51.36614448660717,35.693862776476024],[51.36652001587137,35.69387037042636],[51.36677753448397,35.69387832662669],[51.367067237945136,35.69388618224633],[51.36720666453077,35.6938770000913],[51.36753928105277,35.693884720710216],[51.36790412329022,35.69390109031654],[51.368193786164525,35.69390019001326],[51.36849425921452,35.69391675636055],[51.36881614797164,35.693924503610454],[51.369277504212796,35.69393181314209],[51.369577936673224,35.69393962357933],[51.3701144323102,35.69395544235059],[51.370393367158094,35.693954565563494],[51.37043396288075,35.69346439123426],[51.37046399522964,35.693009253382726],[51.370505499933365,35.69271159438533],[51.37053640039256,35.692440221222306],[51.37058859043585,35.692133777646845],[51.37063054901539,35.69193237627171],[51.37076138190299,35.69074684916303],[51.37088633827505,35.68973333336526],[51.37099354148094,35.68888620654121],[51.37104699810669,35.688432400974996],[51.37109909099793,35.68769129616209],[51.37117115196058,35.687252552836746],[51.37124364203001,35.68690453544669],[51.371297452493295,35.68652633447877],[51.371369796686665,35.68614807484664],[51.37138660788597,35.685785111889274],[51.37144027204307,35.68537666864377],[51.371457082379195,35.68501370558375],[51.37151060122293,35.68457502014394],[51.37156447831499,35.68421193972208],[51.37179719766219,35.68111406226575],[51.37207891742283,35.67842607152265],[51.37075379802168,35.67794040353864]]]}},{"type":"Feature","properties":{"region":11,"kind":"fixed-service-footprint","label_center":[51.39283261551006,35.680885648648704]},"geometry":{"type":"Polygon","coordinates":[[[51.38916324243739,35.69288683250068],[51.39031461910018,35.69290170059991],[51.39095309249995,35.69292751787542],[51.39242363923661,35.69294130686785],[51.39396267225912,35.692973430615254],[51.39484052532041,35.692998416629536],[51.39535356823603,35.69301530736781],[51.39575252940685,35.69301397868678],[51.39616302944949,35.69304050234048],[51.39655059189084,35.69303920664339],[51.39701799340505,35.69304693864155],[51.39721182153453,35.693055586093436],[51.39765642551046,35.693063389846714],[51.39807823182349,35.69307126728936],[51.398431692050266,35.69308867049047],[51.398807903097826,35.693096696943144],[51.39922966252654,35.69309526897891],[51.39969706496966,35.693102980962784],[51.40002772823687,35.693120452574384],[51.400381094346656,35.69311924947695],[51.400654763443654,35.69313691195605],[51.40103087969224,35.69312632976268],[51.40128170344107,35.69313476977598],[51.40181925743217,35.693163545386426],[51.40258298459399,35.693160920774865],[51.40258207047788,35.692984265699465],[51.40256855488499,35.69257520893706],[51.40233409272412,35.69132081197944],[51.402153689267685,35.69056739617272],[51.40204203098377,35.68994573987009],[51.40158816539945,35.68771425230958],[51.40053603749857,35.68186190001091],[51.398747496574124,35.672684015297015],[51.39839730715638,35.670870124545],[51.39746167471138,35.67090520540865],[51.39708448214929,35.67094163522178],[51.396691731596185,35.67095467224285],[51.396360350333204,35.67096164111107],[51.395936714433084,35.67097360446681],[51.39557481288697,35.67098067095135],[51.39521252289662,35.670981875986314],[51.394889040382715,35.670988810819445],[51.39452716761473,35.671001731804076],[51.39417295122502,35.67103806797992],[51.39377283267685,35.67108627495994],[51.39340320428665,35.67112851829675],[51.39307235363854,35.6711706319214],[51.392741143245146,35.671212744980814],[51.3917366582028,35.67106961595219],[51.390646080496495,35.67065733436973],[51.38974190738143,35.67047125037332],[51.389162717248304,35.67043531861043],[51.388352016813975,35.67041902754693],[51.387633867044286,35.67038352805228],[51.386730527085454,35.670367512572405],[51.3863000103756,35.6728184166858],[51.38577362337655,35.67627554019108],[51.38567449847752,35.6772214065434],[51.38539277871688,35.6799093972865],[51.385160059369674,35.683007274742835],[51.38510618227762,35.6833703551647],[51.38505266343388,35.6838090406045],[51.385035853097754,35.68417200366453],[51.384982188940654,35.68458044691003],[51.38496537774135,35.684943409867394],[51.38489303354798,35.68532166949952],[51.3848392230847,35.685699870467445],[51.38476673301527,35.6860478878575],[51.38469467205262,35.686486631182845],[51.38464257916138,35.687227735995755],[51.38458912253563,35.687681541561965],[51.38448191932974,35.68852866838601],[51.384356962957675,35.68954218418378],[51.384226130070076,35.69072771129247],[51.38418417149054,35.6909291126676],[51.38413198144725,35.69123555624306],[51.38410108098805,35.69150692940609],[51.38405957628433,35.69180458840348],[51.38402954393544,35.69225972625501],[51.38398894821278,35.69274990058425],[51.38680336286831,35.69282932160249],[51.38916324243739,35.69288683250068]]]}},{"type":"Feature","properties":{"region":12,"kind":"fixed-service-footprint","label_center":[51.426536494018634,35.68161285857279]},"geometry":{"type":"Polygon","coordinates":[[[51.42692369604282,35.69256101569626],[51.427316778646166,35.692571329401304],[51.427822693724536,35.69256669158681],[51.42821030801609,35.69257459591413],[51.428586523485286,35.69258253892373],[51.429031183212714,35.69259953033557],[51.429566984289366,35.69260689095173],[51.429988846700326,35.6926239580738],[51.43042205760408,35.692631683326994],[51.430798273870046,35.69263961303509],[51.431140293391515,35.69264766513414],[51.43151650989267,35.6926555905229],[51.432109306683394,35.69266272125773],[51.431855770377375,35.692161568083776],[51.43137238007026,35.69131723445965],[51.42950402246516,35.688022214453206],[51.42932445353739,35.68775046728166],[51.42870382871949,35.68413890992785],[51.431303658960864,35.683312291882665],[51.43330452290076,35.682869128082146],[51.43657262989842,35.682166948174554],[51.436285063792795,35.677974167081416],[51.43596825099575,35.673723764348686],[51.4357923954659,35.67133583624255],[51.43512545914725,35.67125697917718],[51.43475770524517,35.67121259157325],[51.43437126571633,35.6711682708474],[51.43400982661075,35.67113910541785],[51.43368567636641,35.671094550640696],[51.433224493643195,35.67105049812107],[51.43280694128564,35.671011365406066],[51.432426706373164,35.67096192659013],[51.432046500254636,35.67091756865902],[51.43152923443404,35.67086862543868],[51.43114285692658,35.67083445114121],[51.43073150952914,35.670790198659596],[51.43032019068221,35.67075102667244],[51.4299711322621,35.670706543048134],[51.429670209550345,35.67070670322857],[51.42928048717616,35.67072546528763],[51.42891906774972,35.670735446510804],[51.42837694605859,35.670751860460264],[51.42814199257198,35.67075390996789],[51.42806652821738,35.67076417541803],[51.42778862987986,35.67074529872208],[51.42745349307336,35.670721400811026],[51.42710238026857,35.67069719756381],[51.426735634788514,35.67066668301688],[51.4263767574561,35.67064886862113],[51.42598658050778,35.6706120680759],[51.425635503366784,35.670594221653445],[51.42528442650586,35.67057637326047],[51.424878719978175,35.6705523512957],[51.424519810506034,35.67052816117986],[51.42415313574781,35.67051036161363],[51.42371616535239,35.670473712142154],[51.42340408733915,35.67045571573528],[51.423068611314164,35.670437800001245],[51.42260827782226,35.67040759007533],[51.42216351034042,35.670370957101916],[51.42146132989237,35.6703288542951],[51.42082934536292,35.670286499478216],[51.420181829558544,35.67025692251804],[51.41972146686587,35.67022032626804],[51.419362595962255,35.67020247162444],[51.4189412643778,35.670172099957874],[51.41856669673163,35.67013519930937],[51.41822342573074,35.67011728443164],[51.417848793594125,35.67006764932841],[51.4174976258568,35.67003066199294],[51.417044936512234,35.66996855900592],[51.41663131036032,35.66991904987464],[51.416194254643386,35.66986325258403],[51.41590580947757,35.6698896946501],[51.41531338412246,35.66995535784996],[51.41479891812124,35.670014386642585],[51.41430001711731,35.67006699350512],[51.41465020653506,35.671880884257135],[51.41643874745951,35.68105876897103],[51.417490875360386,35.686911121269695],[51.417944740944705,35.68914260883021],[51.41805639922862,35.68976426513284],[51.41823680268506,35.69051768093956],[51.41847126484593,35.69177207789718],[51.41848478043882,35.692181134659585],[51.41848569455493,35.692357789734984],[51.41894184383345,35.69239340889714],[51.41938640167833,35.692391873604954],[51.42002478949021,35.69239896119271],[51.420446597992594,35.692406795043325],[51.42077721526059,35.692414943398774],[51.42109648241315,35.692432427355484],[51.421506892457074,35.69244029377405],[51.421837461281,35.69243913889794],[51.42228206825719,35.69244688066243],[51.422703926568076,35.69246399691941],[51.42335371463261,35.69247101052916],[51.4236729338917,35.69247918370935],[51.42399210391767,35.692478057638276],[51.42440256419616,35.69249520268386],[51.424835822656675,35.6925122642401],[51.42512084563303,35.692520551220774],[51.425554104600096,35.692537607800844],[51.42692369604282,35.69256101569626]]]}},{"type":"Feature","properties":{"region":13,"kind":"fixed-service-footprint","label_center":[51.4826358240265,35.702683542005694]},"geometry":{"type":"Polygon","coordinates":[[[51.475245985386664,35.70610345465798],[51.47617499015863,35.7063825716964],[51.477007163671864,35.70664890717399],[51.47824328864143,35.707038573081796],[51.479293649410664,35.70737634785495],[51.4804325307427,35.70768086429399],[51.481482724710055,35.707985719470464],[51.48267050577846,35.708368916730485],[51.48373698265012,35.70869339755211],[51.48481968553566,35.70903094678618],[51.48590232422559,35.70935532412706],[51.4868880033179,35.70964720083475],[51.48789834121272,35.710011302686205],[51.48884401619553,35.710349351253925],[51.49001567777036,35.710712745549856],[51.491146870317124,35.71104998148658],[51.4921569446212,35.71136140202571],[51.49322352850518,35.71167914316072],[51.49421746170408,35.71198402206316],[51.49528411917805,35.71230830421824],[51.49640741682837,35.712658631576375],[51.49765994247048,35.71303468807023],[51.498726653073696,35.71335891098351],[51.499817274269745,35.713636975177025],[51.500891218507995,35.71382959672405],[51.50223877866936,35.71392892740108],[51.50339853328282,35.71382546622853],[51.50395965630549,35.71363428261862],[51.50368963041908,35.71279858689351],[51.50329847867248,35.71222832016972],[51.50264590265205,35.71168264181166],[51.50160125527963,35.7112922197382],[51.500586508853026,35.71080084815935],[51.499786563576706,35.71018428287355],[51.49906382470067,35.70955682352057],[51.49894806485498,35.70872043687684],[51.49976122856344,35.70828674308614],[51.50072646992422,35.708472423295675],[51.50167908157237,35.7081025625432],[51.50234307011437,35.70739286933453],[51.50300782929154,35.70674880394832],[51.50323933194249,35.70595192077954],[51.50347074830629,35.705143315835194],[51.50371823336282,35.70442958023789],[51.50324777017184,35.70358890261238],[51.502548002450254,35.70294848757491],[51.5016108805744,35.7024860925903],[51.50093411730142,35.70184087000373],[51.50115275029341,35.69968322333415],[51.50022540558326,35.69943877763254],[51.49968041632281,35.698828130424346],[51.49939482526735,35.696347999104425],[51.49961078215201,35.69553361236166],[51.499294203283775,35.69463245553597],[51.49877776126951,35.693815382615746],[51.49833829406435,35.69295694839745],[51.498932509454484,35.6922053939173],[51.49478614176695,35.69555085859652],[51.49467813308756,35.696353047777535],[51.49402146761664,35.69702160670933],[51.49007468222756,35.69700075952701],[51.48738155959388,35.69779468186389],[51.480308607827844,35.69721725416369],[51.46692353899268,35.69626351704149],[51.46137426564061,35.691769953210056],[51.453505464461685,35.693741914963354],[51.456174015812444,35.70092023949516],[51.45724161458525,35.70228311061232],[51.457948349999604,35.70228051596551],[51.45902005825028,35.7023137573152],[51.46010316698243,35.7023469379961],[51.46135710540593,35.70235156936188],[51.46244063566197,35.70245909028721],[51.46398192500372,35.70288099142109],[51.465020779273225,35.70314669842874],[51.4660437249487,35.703457922628466],[51.46705475595673,35.703764380576615],[51.46801483803887,35.704036049824985],[51.469101670078345,35.70433180025309],[51.469820185822094,35.70452570208997],[51.47114866806376,35.70490406924915],[51.472114946385425,35.705195318813004],[51.473238211017346,35.70552527314084],[51.47421204960852,35.70580500694838],[51.475245985386664,35.70610345465798]]]}},{"type":"Feature","properties":{"region":14,"kind":"fixed-service-footprint","label_center":[51.48314588980138,35.67386785176841]},"geometry":{"type":"Polygon","coordinates":[[[51.466815896722466,35.68454645163981],[51.47551764002232,35.685181763835814],[51.4854378497712,35.68589080692474],[51.491608470021646,35.68633005635952],[51.493696515985654,35.686398800288295],[51.495203924170916,35.68567431228805],[51.49628384366496,35.685751826601255],[51.49930254463658,35.68545305733541],[51.499807375030926,35.68502660053858],[51.49994896053738,35.684531363049786],[51.50005219838019,35.68399409256994],[51.504108642238045,35.68013679231104],[51.5041288350184,35.679817888444546],[51.503524355831644,35.67948410576675],[51.502904885734495,35.67916327513733],[51.50222400427,35.678841530363606],[51.501565570166996,35.678490378798244],[51.50093791222591,35.67812033456583],[51.5004096981408,35.677686564687534],[51.5006133064906,35.67717933846556],[51.50069310042428,35.676630444801496],[51.500648544840864,35.676011755512626],[51.50053530443894,35.67543438390225],[51.500375140814405,35.674763442694804],[51.500269373785585,35.67417431720697],[51.500248565524984,35.67356138632984],[51.50028007681484,35.67281929851832],[51.500313432727424,35.672253021012274],[51.50038498391719,35.671651416582925],[51.500906461497344,35.671384287358364],[51.50161458228609,35.671328507426644],[51.50239255133172,35.67130172202212],[51.503170678770736,35.67129954084287],[51.503956621898105,35.67128442281995],[51.50475714891081,35.67119304367765],[51.50545733716375,35.67107864863791],[51.50575355548044,35.67063546863374],[51.505763112949914,35.670010685693136],[51.505765636067416,35.66946329338478],[51.505675285109064,35.668879969742505],[51.50556203414307,35.6683084667851],[51.50531727531601,35.66766720823863],[51.50501908864461,35.66709064753797],[51.504775468403174,35.66656659401961],[51.504570156242764,35.66602479142761],[51.50444137607759,35.665435771318826],[51.5042354481889,35.664852945698364],[51.503884534347364,35.664389131322565],[51.50345666846174,35.66396081107735],[51.50309756146033,35.66344897034317],[51.502822998962834,35.66290746001955],[51.50157654824219,35.66224587931902],[51.50102674987574,35.661942310255306],[51.5004464374648,35.66163769451638],[51.499803840552744,35.66130403559362],[51.499246708146245,35.66102861299946],[51.49856867573532,35.66099046789278],[51.4977455031096,35.66110530576151],[51.49696720570142,35.66110741947782],[51.49619196545785,35.66117610480081],[51.49556867713339,35.6612347644933],[51.49503123873693,35.66129772903533],[51.49466844112372,35.66092562643151],[51.49376494889798,35.66100878972717],[51.493413308570226,35.66150529936011],[51.49358833836031,35.66204631977849],[51.49376328518759,35.6625733292065],[51.49399072570506,35.66325890755844],[51.49420077428107,35.66390719551759],[51.49441672706946,35.66458347941376],[51.494626730577274,35.66522242532497],[51.494863049306986,35.66592665953682],[51.495724504827145,35.668535651434105],[51.49557187450289,35.66955861325093],[51.49481725051149,35.66971593327391],[51.493973395946064,35.66991418455912],[51.49296066864695,35.670137466946315],[51.49212658735467,35.67031131181342],[51.49133226791089,35.670484981522044],[51.490498272859604,35.67067503170167],[51.48948446907763,35.66911325611857],[51.48862391477444,35.66704993470628],[51.48825345206186,35.66729429871458],[51.487453380254436,35.6674703544517],[51.48683015522528,35.66755694865651],[51.485892423178875,35.667682169798454],[51.48526916331173,35.6677640783851],[51.48445723034039,35.66787476031],[51.48357665182492,35.66799037674762],[51.48269612421826,35.66811532109667],[51.481844119930024,35.66822612898502],[51.48110644950685,35.668317791322764],[51.480317328688265,35.66841898873615],[51.47959690168494,35.66852457591654],[51.478762047913094,35.668635274358984],[51.47793863467493,35.66874591692351],[51.47709804926275,35.66885661562976],[51.47650906175967,35.66893363324023],[51.47605727792215,35.66898676156591],[51.47552526799034,35.66902151650395],[51.474711171523914,35.668767801552015],[51.47434427933244,35.66865713115092],[51.473647585072605,35.668912006275114],[51.47309322138378,35.66904023136771],[51.472356240060506,35.66925788468158],[51.47162569530253,35.66960160139707],[51.47104991854478,35.66999142371299],[51.47055382416589,35.67030621451079],[51.469966422699585,35.67066804949854],[51.4693677506236,35.671062613228024],[51.468712101947624,35.67150408821288],[51.468293787761596,35.67171813833924],[51.46775784396138,35.671769207646044],[51.467288901138026,35.671831677639986],[51.46680851088357,35.67189418688236],[51.46589912868129,35.67200032214524],[51.46650350758397,35.680443505971105],[51.466815896722466,35.68454645163981]]]}},{"type":"Feature","properties":{"region":15,"kind":"fixed-service-footprint","label_center":[51.49448151259653,35.620843601075194]},"geometry":{"type":"Polygon","coordinates":[[[51.46562206924716,35.64491651006771],[51.465825582355485,35.64767178292487],[51.46877442592651,35.64727771288421],[51.47288513772226,35.64463728242396],[51.47569846969051,35.643683145983694],[51.47754341306476,35.64419314856339],[51.49139601347072,35.642359012891845],[51.4921455394378,35.64186018060271],[51.493721818777665,35.64625473365806],[51.49934445381164,35.645001873351774],[51.499170267713176,35.64465890632667],[51.499163079637114,35.64464257211356],[51.4991578486545,35.64462574948662],[51.49915462322299,35.644608594287774],[51.49915343322116,35.644591265439786],[51.49915428967163,35.644573923473914],[51.49915718463909,35.64455672904288],[51.499162091303816,35.64453984143256],[51.49916896421021,35.64452341708639],[51.49917773968789,35.64450760815615],[51.49918833644157,35.64449256109239],[51.49920065630424,35.64447841528789],[51.499214585146525,35.644465301786234],[51.499229993934044,35.64445334206793],[51.499246739922704,35.64444264692506],[51.499264667981095,35.64443331543489],[51.49928361202756,35.644425434042134],[51.49930339656878,35.64441907575811],[51.49932383832538,35.64441429948438],[51.49934474792986,35.64441114946722],[51.500424051364554,35.644292053708405],[51.49731200437334,35.635059860269216],[51.49901403211278,35.63489114295779],[51.49906309228638,35.635348983506304],[51.50391318920347,35.63492389238828],[51.507945501180984,35.63676503376053],[51.506707170216785,35.63432247502638],[51.50792805552418,35.629863681376236],[51.50702903900665,35.62680551252342],[51.507713772955476,35.62297516476221],[51.50703142462422,35.62220849553903],[51.50699473040368,35.61817561575578],[51.51175131291518,35.615629066496496],[51.516846945721696,35.61421017697592],[51.51895612212814,35.61265793417869],[51.52303263096408,35.611521784984824],[51.52413336379387,35.61047018724606],[51.53167891509368,35.60607537322625],[51.52865344621357,35.60366645404334],[51.52737585765405,35.601977429033845],[51.521417612976265,35.5993945115276],[51.52159461520173,35.598346937265354],[51.51743122970145,35.59387339021322],[51.51592819387127,35.59652526867646],[51.514211974639075,35.59829217560674],[51.51375202278731,35.59848483901321],[51.51052603165735,35.59735304133373],[51.49217923446049,35.606904904897625],[51.48074940093034,35.602285150612914],[51.47515090072798,35.60105908143699],[51.475058928874006,35.60272568276118],[51.472722519189944,35.605794169258814],[51.47192606455313,35.60801449111822],[51.47262746644719,35.608218545406466],[51.47330699568273,35.60832127538016],[51.473907654558,35.60827732231479],[51.47453642364666,35.60813307908002],[51.47519345435239,35.60797457944243],[51.475925516508035,35.6077571617116],[51.47593200419981,35.60775532762777],[51.4766561087989,35.60756085959503],[51.47667661740565,35.607556232885464],[51.47669757607686,35.60755323957672],[51.476718790222485,35.607551907460056],[51.47674006288063,35.607552248903446],[51.47676119654614,35.60755426073678],[51.4767819950043,35.60755792428122],[51.47680226515258,35.607563205522744],[51.47682181879338,35.60757005542784],[51.476840474381426,35.60757841039878],[51.4768580587092,35.60758819286409],[51.477498027423614,35.60798237548182],[51.47751543984728,35.60799429615196],[51.47753126004873,35.608007614964286],[51.47754532052094,35.608022190897564],[51.47755747238886,35.60803786961994],[51.477567586985764,35.608054485123034],[51.47789908445415,35.608677555388496],[51.47790196049865,35.60868322292855],[51.47820310037175,35.609306412953615],[51.47820378773426,35.60930785344916],[51.478491050218864,35.609917573237475],[51.47849209270667,35.60991983087129],[51.47873335699297,35.6104530934787],[51.478736555567465,35.61046067800551],[51.47894889370219,35.61100307173767],[51.47894935072738,35.611004253125124],[51.47922206309886,35.61171771778179],[51.47922222314648,35.61171813829568],[51.47941925118771,35.61223805104068],[51.47942211319332,35.61224629125902],[51.479604713356245,35.61282395189764],[51.47974972903016,35.61326361606489],[51.48166494836669,35.61340820782847],[51.483722151619794,35.61294551989198],[51.48480302958733,35.614615514296055],[51.48574618210039,35.617739951340155],[51.48216479832837,35.61968298044368],[51.481723240513936,35.62200422170672],[51.480652892772575,35.622579245117315],[51.47361204940966,35.62284613713797],[51.47360940239684,35.62286254062214],[51.47360412004286,35.622880623426944],[51.47359658562438,35.622898166101876],[51.47358687921441,35.6229149822065],[51.47357510396971,35.62293089302213],[51.473561385034415,35.62294572945123],[51.47354586821019,35.62295933381456],[51.473528718406584,35.62297156152706],[51.47248288577433,35.62364289149962],[51.47246281591269,35.62365436309762],[51.472441313394114,35.6236639491953],[51.47170310369244,35.62395086549812],[51.47168458066966,35.62395723759387],[51.47166542482447,35.623962208346356],[51.471645794816794,35.62396573658493],[51.47090650632459,35.62407006999969],[51.4708890367275,35.62407195291926],[51.47025294439253,35.62411952542453],[51.47025027484871,35.62411971174459],[51.46950996260334,35.6241676880552],[51.46950666582869,35.62416788143707],[51.46881114925944,35.62420440794641],[51.4687972216205,35.62420477966804],[51.46804902923029,35.6242054642134],[51.46742043220726,35.624241320051105],[51.46740609259522,35.624241756427246],[51.466705068104204,35.6242444806694],[51.46594497098983,35.624303062838116],[51.46593967805536,35.62430341839243],[51.4650958320156,35.62435176892896],[51.46508904202856,35.62435207227264],[51.464289926966124,35.6243777030362],[51.46428903763185,35.62437773009262],[51.46347472465896,35.624401160058284],[51.46346799039356,35.62440126988747],[51.46272974992919,35.62440411451229],[51.4620806088422,35.624417842134115],[51.462075931037354,35.624417900575395],[51.46140920194323,35.62442046214308],[51.46072797865151,35.624423075586215],[51.46043226098518,35.624424208877585],[51.45849499152855,35.638982136778736],[51.45706730865052,35.64424423677702],[51.46562206924716,35.64491651006771]]]}},{"type":"Feature","properties":{"region":16,"kind":"fixed-service-footprint","label_center":[51.40924770999657,35.63896402313654]},"geometry":{"type":"Polygon","coordinates":[[[51.40432992434388,35.64984931755414],[51.40534329134903,35.649737681898976],[51.40622416186995,35.64964557663305],[51.4070748437388,35.64975088305494],[51.40787870082069,35.64984997337743],[51.40859660395819,35.64991752335839],[51.40939250318882,35.64998479567346],[51.4102117367851,35.65003924656707],[51.41149123711893,35.650111178344126],[51.41263818504883,35.650189914124354],[51.413433994565715,35.6502380397843],[51.414183042974365,35.650292685662656],[51.41490862720474,35.650334675344716],[51.41566541059335,35.650376545702464],[51.41640666468266,35.650431192670155],[51.417132287495136,35.65047952161284],[51.41781853710643,35.6505276227711],[51.41817189979854,35.65053623401691],[51.419645768208355,35.64597394666007],[51.42126888704183,35.6336869454198],[51.42120472747276,35.63331388666702],[51.42069225046311,35.633297020102475],[51.42027830636164,35.63311745633696],[51.418683473236946,35.632349004757906],[51.41791656629745,35.63194592303555],[51.417517605998,35.63170385023863],[51.41701122321148,35.63139347848147],[51.416512494919594,35.631083075270205],[51.4158373949994,35.63067964022535],[51.41437074599041,35.62953600031295],[51.41381790582516,35.62910713634814],[51.413373479068646,35.62893387757801],[51.41319905530248,35.62920921316992],[51.41289027712342,35.62910743058511],[51.41238988593223,35.62870234547669],[51.41175547076761,35.62831858785605],[51.411236590794374,35.62803873920942],[51.41067324857432,35.627805983674435],[51.409521491895525,35.627429214047886],[51.40902279835145,35.62734226506784],[51.40853070969495,35.62729701651113],[51.408166535307174,35.627282620344474],[51.407617334874566,35.627310583146205],[51.40702970107119,35.62731780885504],[51.406543175932136,35.62711083306029],[51.4064187278597,35.627758027440734],[51.40498254747862,35.62922856719073],[51.404149289988574,35.629935525392234],[51.404042880742644,35.63036880248716],[51.40342759788129,35.63123670886641],[51.40312942437775,35.63164976444086],[51.40274246293051,35.63219351293919],[51.40227301653915,35.63285228396966],[51.40186694549331,35.63341173839378],[51.401080221855956,35.634509691215015],[51.400706192620675,35.635095110898945],[51.40033155731439,35.63556056505449],[51.39986834683234,35.63620364932641],[51.39948766436451,35.63674214058817],[51.39913866036636,35.6372283664807],[51.398878480066244,35.637589117515724],[51.39852948762991,35.638080555765306],[51.398085338545975,35.63871313222335],[51.39776193641713,35.639214914049724],[51.396992126196075,35.639895489038814],[51.397066459492805,35.64034266470098],[51.39731645445048,35.64088544791175],[51.39760083306833,35.64140854547216],[51.397863098091136,35.64195372477096],[51.39797632595667,35.64264608700706],[51.397610461411965,35.6433726147549],[51.397412487626084,35.64372370217615],[51.39687618602011,35.644312234948444],[51.39639298550569,35.64479830957019],[51.395902198911635,35.64524447349744],[51.395355080996936,35.64567003235652],[51.39492734011041,35.64600555402676],[51.39433942860577,35.6463548797498],[51.39380805505002,35.646621208645875],[51.39321458700919,35.64698902648856],[51.3926474087686,35.64740647594193],[51.39228544751533,35.647854678695055],[51.39201377993696,35.64854946216965],[51.39266314427296,35.64934670558154],[51.39428463400147,35.64939822055607],[51.395674524568925,35.649450443382456],[51.3976692753903,35.65004880896133],[51.399004970826034,35.65014982493054],[51.399705449864356,35.65006546796908],[51.40045978480223,35.64998092481322],[51.40114514008412,35.64996106899545],[51.40186933162059,35.64995279747595],[51.40262434878368,35.64993386525199],[51.40339429189888,35.64988439841779],[51.40432992434388,35.64984931755414]]]}},{"type":"Feature","properties":{"region":17,"kind":"fixed-service-footprint","label_center":[51.36089778389232,35.65515024796366]},"geometry":{"type":"Polygon","coordinates":[[[51.36979053032382,35.655352936343995],[51.3694185216029,35.65528196660634],[51.36886196652958,35.65522264505976],[51.36841144310174,35.655077850867556],[51.36784114701893,35.65485026696561],[51.3675694956585,35.65467389837712],[51.36730494347704,35.654499333722995],[51.36687385781874,35.65422164660887],[51.36651089189853,35.653887939612616],[51.36615736594669,35.653482451122116],[51.36567624127071,35.65294182671471],[51.364920981201074,35.65225854203254],[51.364244213123726,35.65164675764696],[51.363704824890014,35.651170074139664],[51.36299868229363,35.650534449021876],[51.362429840676114,35.65001798273608],[51.3617433426813,35.64939822796905],[51.36128243317427,35.648985063633255],[51.36073323879116,35.64848446677053],[51.36025288854637,35.64808729767555],[51.359704004750846,35.64765046867088],[51.35897896999524,35.647260370118985],[51.358421952986426,35.64701787142293],[51.35795383479835,35.64681633782766],[51.35750971862279,35.646623286728314],[51.35706110331833,35.646427800873134],[51.35676608656328,35.64642500322852],[51.356600553563176,35.64658073895687],[51.356597302541104,35.64691567294022],[51.356534311324424,35.64713969153249],[51.35641879232553,35.64732174436838],[51.35629661664603,35.64763731665123],[51.3560978759549,35.648104415740846],[51.35587618350996,35.64862201552426],[51.35562411915126,35.649259484331075],[51.35534129216959,35.64992856323778],[51.35510427208498,35.650477726134866],[51.35486732857614,35.65104580060617],[51.35463035112183,35.65160756993824],[51.354339906358476,35.652308187367915],[51.35403427878216,35.653071889927624],[51.353636636667666,35.65399346368804],[51.35333851678464,35.654713011012184],[51.353048056416995,35.65541992617121],[51.35278657372482,35.65604227939959],[51.35257244700856,35.65654219270653],[51.35238290340386,35.657011774132194],[51.35219320327787,35.65744605159789],[51.351954625423375,35.658011597002655],[51.3517589100813,35.658486237460735],[51.35162431797746,35.65880435697794],[51.35146526377814,35.659183066916],[51.35138578975825,35.65938503005235],[51.351287947887094,35.6596273927384],[51.351165579056705,35.65991521586952],[51.35098211993458,35.66036964507451],[51.351346593416444,35.66177066658397],[51.35163757212786,35.661885831713946],[51.35223827167515,35.66216149452974],[51.35269046446668,35.66236502782335],[51.35318444446877,35.66258826349665],[51.353848466208184,35.6628945971328],[51.35431680189113,35.663107448817264],[51.355048207225515,35.66344492171267],[51.35554773299288,35.66379865341258],[51.35641860828066,35.66348531607878],[51.35704849809322,35.663258770650266],[51.35745544056937,35.663107628107554],[51.357923330438034,35.662939650679014],[51.35874862270837,35.66280089580934],[51.35972195955457,35.662567032565065],[51.3606258076581,35.66235986652667],[51.3613768077681,35.662213728122836],[51.3620907703407,35.66208662390547],[51.36283729350886,35.66197834336364],[51.36353294888126,35.66190807111622],[51.3642844360028,35.661871695571904],[51.36596645671991,35.66210608238587],[51.367879517731836,35.66274192960401],[51.37084295550877,35.663833690528236],[51.37146846740685,35.659430700670626],[51.37131007879208,35.656296457975486],[51.37100798120119,35.65576768148407],[51.36979053032382,35.655352936343995]]]}},{"type":"Feature","properties":{"region":18,"kind":"fixed-service-footprint","label_center":[51.3129993427099,35.64469213938217]},"geometry":{"type":"Polygon","coordinates":[[[51.29231056498657,35.66734105334571],[51.294408033007954,35.66726532895907],[51.29678426330008,35.66717879391397],[51.298978357278855,35.667110594589616],[51.301249730741745,35.667048436881366],[51.303528777054375,35.66697356958074],[51.30560697475221,35.666911724982036],[51.30756926979338,35.666850101866736],[51.308697204471855,35.66681574494417],[51.310974671548465,35.66633713950516],[51.31090152540641,35.665397995241044],[51.31142824150532,35.664820417890894],[51.313578114443374,35.6644687805701],[51.31583877373531,35.66408460559621],[51.3179017315946,35.663731137567524],[51.32050199562177,35.663285365999],[51.322175790718184,35.6630034187137],[51.32417071743969,35.66266506070167],[51.326054448424465,35.662347124195946],[51.32856863507583,35.66204751718304],[51.32950843828756,35.66069321192632],[51.32983885372309,35.65992062850266],[51.3301446890973,35.65918341737484],[51.33064626724271,35.6579816500482],[51.331129430632686,35.65681523516319],[51.33179158074948,35.65524860946249],[51.332662985802365,35.65314676780405],[51.33332039254099,35.65158139905648],[51.333947189571695,35.650091763440656],[51.334550939919744,35.64864001419116],[51.33493313820422,35.647743685860824],[51.33505361752802,35.647116337407176],[51.33443799352728,35.64647095625678],[51.332915933269575,35.645746786074106],[51.33157212204275,35.64510298413137],[51.33046336973153,35.644555071178964],[51.32843240680135,35.64357363119897],[51.32697833180286,35.6428748280464],[51.32310886702765,35.640569294616775],[51.321907148221264,35.63965563671727],[51.32071646193268,35.63881178855621],[51.319000763356215,35.63772480871143],[51.31335264756804,35.63474433908301],[51.311892791675746,35.63335084583426],[51.31069072303148,35.63222738049076],[51.309542552542716,35.631199817039494],[51.30828707614056,35.63005897400272],[51.306158286379,35.62854731096939],[51.30388376278079,35.626760474961685],[51.30255640958939,35.625493710086324],[51.30123929293815,35.62424338526415],[51.29996246393222,35.622943455780465],[51.29891955969264,35.622104763920696],[51.29835778640324,35.62312868441097],[51.29681910503019,35.623844200069996],[51.295917820060225,35.62496569517861],[51.29463867505956,35.62598138055875],[51.295332115290265,35.6273007932777],[51.295733352949284,35.628673621076594],[51.295873904057714,35.630193568168565],[51.29606031929515,35.631691137078725],[51.29601624914117,35.63325839605357],[51.29610395214811,35.634949595794964],[51.29534180566901,35.63621844621437],[51.294320134060364,35.63779967217491],[51.29401353331754,35.64048809532078],[51.29534007665572,35.64328529132857],[51.29524994358345,35.64482920758539],[51.29576805259972,35.6464197752147],[51.29558382281087,35.647741201901454],[51.29462898960419,35.64900345152547],[51.29498537609869,35.650535787933116],[51.29462439165937,35.651938494482565],[51.293784543136624,35.653160612874515],[51.293578165074244,35.65464618065977],[51.293764283537364,35.65604763022371],[51.29415015174935,35.657373604779444],[51.29403741431687,35.65904767119598],[51.29378483646764,35.66057436731465],[51.292793058716526,35.662161349863176],[51.29249383277102,35.6636119565913],[51.29240283777742,35.66505036911035],[51.291577444997095,35.66618333876453],[51.29231056498657,35.66734105334571]]]}},{"type":"Feature","properties":{"region":19,"kind":"fixed-service-footprint","label_center":[51.37260202171591,35.63040946746155]},"geometry":{"type":"Polygon","coordinates":[[[51.3617194523315,35.63510910852399],[51.362003869210476,35.63542488129065],[51.36220431898516,35.63537661650295],[51.362701888949864,35.63546805352107],[51.363392067220225,35.63576795110209],[51.36413925821693,35.63608967505794],[51.36514223717272,35.63660208194532],[51.36598518985075,35.63727719524772],[51.36672066559614,35.637936676907685],[51.367554230476685,35.638683547205396],[51.3684369147155,35.639486062296314],[51.36946668877231,35.640407698093476],[51.37035921362295,35.64121015530698],[51.371379379255096,35.64214773292606],[51.3719491243204,35.642839552887054],[51.37252776265739,35.64334000622601],[51.373007728080374,35.64362551165155],[51.37355736100943,35.64391182972557],[51.37430019895145,35.64417425833419],[51.375080410602195,35.644253212261475],[51.37644621362306,35.64471929475851],[51.376959519780954,35.64443938294517],[51.37760472248249,35.643756867489095],[51.37848212731565,35.643205912896],[51.37926294105817,35.64280324296832],[51.38002915326256,35.64225473660664],[51.38083658510873,35.64161058165352],[51.381550258285735,35.64089693919857],[51.38211591482724,35.640186063742895],[51.382650398222296,35.63923079125718],[51.3823860088148,35.638253680282155],[51.38199052671611,35.637470152161875],[51.3816673454282,35.63671490385483],[51.38243600868276,35.63579961829985],[51.38294331777579,35.635015576906866],[51.38355255233187,35.63417382176584],[51.38395226305127,35.63360397639073],[51.38454241909797,35.63278835357654],[51.38518340387587,35.63192039794041],[51.38575429412158,35.63109439546514],[51.38674409380096,35.62972453945796],[51.38741653519613,35.62877821718931],[51.38794942938897,35.6280357754978],[51.38871695300827,35.62695350673728],[51.38900763854034,35.626326620579746],[51.39109280012533,35.62434273169085],[51.39087812065347,35.623581942437056],[51.38973418985709,35.623476290256264],[51.38852063339248,35.62349603289094],[51.3873581237056,35.62350514944941],[51.385992527813045,35.62351858528292],[51.38474253468145,35.62352768316239],[51.38388028473855,35.623411606799486],[51.38274978882088,35.62327848030167],[51.381371276191636,35.623196342848416],[51.38136363446748,35.619585740710065],[51.3814124228548,35.6172819827757],[51.379883004982084,35.61693831271254],[51.37889725617445,35.616918042464704],[51.37793488099054,35.61690823130119],[51.37697265141297,35.61692888057611],[51.375794690137994,35.616931443123704],[51.37471680743664,35.61692780826382],[51.37363829121341,35.61686554974398],[51.372668333631225,35.61684513211446],[51.37165978374957,35.61685881104784],[51.370566479449735,35.6168563246587],[51.36946514158977,35.61682336807599],[51.36825616406346,35.61679071952863],[51.36717993727352,35.61699324705265],[51.36606395597131,35.61705521851474],[51.365088787354104,35.617393374844625],[51.36436094983278,35.617919494704964],[51.36367342984724,35.61864006203677],[51.36286884215936,35.61918397432915],[51.362064623354584,35.61973490802068],[51.36110357778513,35.61996043513993],[51.36001000727686,35.61991556845852],[51.35902480826155,35.61995359127342],[51.35946932558654,35.6207599091409],[51.3596843031141,35.621755605418834],[51.35989877482696,35.622632915852705],[51.35998281300843,35.62363485177218],[51.35999664090927,35.62450102329665],[51.359803349519346,35.625439297430354],[51.35977792346037,35.62833338340842],[51.359259534218985,35.62904754815813],[51.35862505764948,35.63188361360623],[51.35779876033848,35.632627957577725],[51.357835167198715,35.63317345125122],[51.35855729049978,35.633518998955495],[51.35935444587154,35.63389870154697],[51.36018356554087,35.63430258876632],[51.36116239054827,35.63476560521337],[51.3617194523315,35.63510910852399]]]}},{"type":"Feature","properties":{"region":20,"kind":"fixed-service-footprint","label_center":[51.42822047432756,35.600710123201196]},"geometry":{"type":"Polygon","coordinates":[[[51.41746128431682,35.608561616719506],[51.41947967325553,35.608539171266],[51.421193084934686,35.60883587127976],[51.42258609097124,35.60893020560433],[51.423723571139796,35.60902017558943],[51.42565614645844,35.60968632446929],[51.427078826952126,35.61055762242002],[51.42779303473271,35.61058146283787],[51.42969696504464,35.611998299070784],[51.431430778875544,35.61304106374133],[51.43274266669387,35.61382306387804],[51.435111806127175,35.61494460536234],[51.43623413487757,35.614019007272454],[51.43794531661081,35.6140317322294],[51.439891161423986,35.614062667795466],[51.44185253786733,35.61408713063314],[51.44363498947401,35.61412491518543],[51.44557186270673,35.61394602077564],[51.44761511903913,35.613644742033344],[51.44946336374385,35.61362121955794],[51.45141853347523,35.61353158680044],[51.45327336128255,35.61340829499921],[51.45485893257864,35.61066863847765],[51.45636858079796,35.60979645190155],[51.45776215582514,35.60890828289866],[51.45722542279948,35.60743001902431],[51.45659591150175,35.60591226608495],[51.45517362642689,35.6052744027741],[51.45337197602947,35.60528618817733],[51.45154826555939,35.60539177861048],[51.450066169523375,35.60494274583922],[51.44850412393847,35.60506012745941],[51.44670585042337,35.605472578903864],[51.4460145468931,35.6047496620266],[51.445885124996764,35.60313494947797],[51.44560072981113,35.60139775042894],[51.4459972531377,35.60002249597346],[51.44659269859972,35.598553880748796],[51.44801738987601,35.5968042846316],[51.44861254384017,35.595305174615646],[51.44786014368701,35.59372801974975],[51.44837361744097,35.59256562847474],[51.44890693471324,35.59105503014834],[51.44901250204317,35.589893030709426],[51.44779043394732,35.58921319720865],[51.44685334748727,35.59031273639861],[51.44620249726582,35.59160574727959],[51.44483387215758,35.59089125032017],[51.44364200181711,35.591042270635725],[51.4444514835327,35.59209414293939],[51.44332801678781,35.592104241639944],[51.44184302814722,35.59129517362414],[51.44037600687165,35.59073918608628],[51.4387087139125,35.590155771743326],[51.43672063799376,35.589872383494544],[51.43466593646194,35.589931439561006],[51.43309478805885,35.58979528571939],[51.43178516406875,35.58872630241362],[51.43017825280142,35.587993581571034],[51.42879796434039,35.58859392028158],[51.427860914289674,35.589792809586804],[51.42690926341624,35.58917608421251],[51.42631916668991,35.58759223524372],[51.425353880642476,35.58813126853505],[51.42402980392445,35.589072401232855],[51.422652103683504,35.590060575788996],[51.4212064596931,35.59117319901893],[51.419959853689114,35.59221947417961],[51.41846861918576,35.59342596004016],[51.41694401431438,35.59436175661773],[51.415235366732944,35.594372133028756],[51.41362261394157,35.594841627866195],[51.411586823725784,35.59537810058638],[51.41011455936591,35.595760308870396],[51.41027850612226,35.598421715710685],[51.41058271839295,35.599965614073824],[51.410710737499464,35.601574549652845],[51.41113493677435,35.60584118077102],[51.412495272219324,35.60834136131141],[51.41423303738782,35.60856663128322],[51.416229473361675,35.60856992062654],[51.41746128431682,35.608561616719506]]]}},{"type":"Feature","properties":{"region":21,"kind":"fixed-service-footprint","label_center":[51.18557463519823,35.713874085651014]},"geometry":{"type":"Polygon","coordinates":[[[51.122717669952976,35.736285397224755],[51.12532877431668,35.73501871319185],[51.12854008352116,35.733369585371044],[51.13088793857045,35.73196094040529],[51.13411313135537,35.72999973520949],[51.136568392163106,35.72851463764383],[51.13930230082188,35.727318804740946],[51.142830926779745,35.72625248140834],[51.14722315322757,35.725214684323426],[51.150113711423295,35.724771946659345],[51.15326022976966,35.72472505564722],[51.156862837499354,35.72493666861349],[51.160743907077716,35.725307234951636],[51.16479469775452,35.72567153769715],[51.168998691741386,35.72580568559931],[51.171997384409934,35.72544504688432],[51.17554885936173,35.724558532636976],[51.178807519408224,35.72372608063589],[51.182425914924565,35.72235735454906],[51.18633638835347,35.72086379462901],[51.18966141054515,35.71951144003886],[51.19309399436194,35.718141175161406],[51.196081622051814,35.717261319028296],[51.198629729623036,35.716433553149905],[51.20111509151869,35.71540065814641],[51.20446252615824,35.71411194830824],[51.20720423108709,35.713467548385076],[51.20994542912622,35.712798414562776],[51.21343544367833,35.7122872760481],[51.21735035279136,35.71193576236331],[51.22043203919055,35.71150115392784],[51.224088323277336,35.71138349669852],[51.22820576614171,35.71070205512775],[51.23170146050029,35.710077067122086],[51.23622414749966,35.7099454104425],[51.2403444424645,35.71012183576386],[51.24420699562041,35.71032464411872],[51.248176414367215,35.71054471403355],[51.25211682834632,35.71067272795473],[51.25307511729192,35.709704584390806],[51.25202803297461,35.70742222290455],[51.25171787614919,35.70627801296531],[51.25109837545153,35.70420646794228],[51.24912548223948,35.701047205996595],[51.246755191543656,35.69766147459355],[51.24564144274701,35.69537287005695],[51.24343733410093,35.69222423579858],[51.23978084716129,35.691110857807544],[51.23576113305429,35.691722426719565],[51.23238788761454,35.69228364971347],[51.22800904003616,35.69282450501842],[51.22477204515586,35.69358458563082],[51.22174290441013,35.694858470226826],[51.21827574099395,35.695024470924174],[51.2155329554443,35.695470601639435],[51.21289480493093,35.696480894409845],[51.20968735809011,35.69770418657158],[51.2027601086052,35.70104072642212],[51.19909169891513,35.70117997369476],[51.19450176467781,35.7035532375764],[51.1918696090535,35.70439736439521],[51.189060094322016,35.70526623371292],[51.1862343423058,35.70597558845791],[51.1835853094229,35.70661426611662],[51.18073646245492,35.70737028668235],[51.17793420525839,35.70821989341747],[51.17484627493476,35.70901694851639],[51.1713749384764,35.71032765101237],[51.16849742676967,35.71168444555134],[51.16595371008323,35.71363622299378],[51.16402544844788,35.71528022119699],[51.162229618158136,35.71729677388182],[51.16033259877987,35.7191598152534],[51.15782405028729,35.72045718216363],[51.155291940444656,35.72171930334314],[51.15258852812007,35.7226145778211],[51.14972979965965,35.72324611902881],[51.14677768151243,35.72367012632304],[51.14367159941724,35.724218334762014],[51.14062677838308,35.72462452722322],[51.1378389743129,35.72580403757487],[51.13564680086661,35.727441433481346],[51.13284362340356,35.72870277633244],[51.1298317293397,35.72989257712305],[51.12714330298547,35.73091684964942],[51.124485902446196,35.732071101967605],[51.12177423501749,35.7331959526339],[51.1193861582172,35.7342737267916],[51.122717669952976,35.736285397224755]]]}},{"type":"Feature","properties":{"region":22,"kind":"fixed-service-footprint","label_center":[51.195152910879145,35.7451086629696]},"geometry":{"type":"Polygon","coordinates":[[[51.12663328922906,35.755902886559426],[51.13107213684646,35.75669979416658],[51.1343336185644,35.75607038022653],[51.13740189048614,35.755398683358806],[51.14213068892742,35.75311318304768],[51.14323614268359,35.75158065476926],[51.145432331366415,35.75096761982607],[51.147984636582265,35.75064380860226],[51.15042532724372,35.749442047148655],[51.151255548617755,35.74864681422255],[51.153363434446284,35.74720838525],[51.154841986785485,35.74853419403938],[51.15620138536717,35.7470188359001],[51.158455270070135,35.74740277534726],[51.15874112329036,35.7494654863328],[51.16164734841705,35.750896678005134],[51.164232563310335,35.75110197462983],[51.16710146183834,35.75090721573708],[51.170192357591006,35.7503522732542],[51.17255212267697,35.75016946956654],[51.17562315574677,35.7503269266691],[51.17838163996458,35.751381243632835],[51.1814080779481,35.75188658398376],[51.183890109686224,35.753122648337595],[51.18706031576014,35.75300866787768],[51.19058388232681,35.755853669912774],[51.194034485231874,35.75624064169244],[51.1975746695181,35.7560201423077],[51.20092988506215,35.75582901324901],[51.20411288253742,35.75366294661643],[51.20810298567584,35.755451355294284],[51.211182394979964,35.75565979762186],[51.21480517322812,35.7535932798309],[51.21938819007383,35.753701506593025],[51.22413896653556,35.75341877832605],[51.229832997450096,35.75353593196027],[51.23735144663684,35.75555826749933],[51.240536595035195,35.75538294042348],[51.24283695894021,35.759417216636336],[51.24233664843879,35.76221141646177],[51.243065244664564,35.76142690531099],[51.24445579770452,35.75917934686016],[51.24424398111341,35.75347981197752],[51.24495201554912,35.75078983524791],[51.24711550732044,35.74978522056719],[51.24700481593785,35.7472366161899],[51.246372561672686,35.744548410698776],[51.24661524423644,35.74152991883806],[51.2485467600663,35.738833492805206],[51.25170352256572,35.73651214955027],[51.25451091909599,35.73493421616238],[51.25605061834936,35.73330047924417],[51.25811461583905,35.73093078267214],[51.25848959924557,35.72848552792184],[51.25645008066594,35.7279588291891],[51.251151315870736,35.72773161972684],[51.24619707772344,35.72746648813877],[51.240967494941394,35.72725411232643],[51.23565226919218,35.72768045968662],[51.23137655042591,35.72848118115799],[51.226306916578004,35.72874401415247],[51.22243176396428,35.72928555583653],[51.217214758452954,35.72983267717759],[51.21374884478501,35.73051480905692],[51.21029902160654,35.731360820781205],[51.2063587712932,35.73285558045454],[51.203157460400035,35.73410168341662],[51.19978491099807,35.735106409552515],[51.195620681819165,35.73665941771703],[51.191395183106714,35.738377496933516],[51.18654542768227,35.74022498582272],[51.182718344043785,35.74152471688349],[51.177941612617516,35.74265177088768],[51.17399493449928,35.743166947523555],[51.168648744479434,35.742879116852606],[51.163887881739775,35.74236762905399],[51.15909718343116,35.74206209548417],[51.15530278605099,35.74212705181761],[51.150979330286305,35.74298799373114],[51.146001446596664,35.7442311234529],[51.14239696182234,35.745668915240415],[51.13931073577872,35.74754932361736],[51.135623512323704,35.74975801675103],[51.13204331091217,35.751802357654256],[51.12850789094361,35.753457336236124],[51.12663328922906,35.755902886559426]]]}}]}
