{"type":"FeatureCollection","features":[{"type":"Feature","properties":{"route":1,"color":"#2563eb","times":[[0,5122,5125,5227,5347,5449,5647,5689,5737,5755,5803,5863,5917,5953,6100,6160]]},"geometry":{"type":"MultiLineString","coordinates":[[[51.554,35.73],[51.554,35.73],[51.554,35.731],[51.564,35.736],[51.567,35.732],[51.556,35.726],[51.524,35.724],[51.523,35.723],[51.516,35.722],[51.512,35.72],[51.505,35.711],[51.5,35.701],[51.494,35.692],[51.492,35.686],[51.508,35.675],[51.508,35.667]]]}},{"type":"Feature","properties":{"route":2,"color":"#0d9488","times":[[0,72],[3658,3808,4042,4297,4342,4528,4735,4789,4844,4973,5303,5444,5504,5615,5648,5756,5954,6044,6125,6242,6290,6326,6341,6419,6470,6473,6605,6608,6614,6903,7056,7164,7170,7482,7485,7581,7584,7677,7758,7875,7878,8007,8025,8091,8328,8331,8703,8706,9488,9506,9545,9656,9671,9809,9824,9872,9905,9968,10037,10100,10199,10550,10757,10790,11039,11063,11099,11150,11198,11240,11662,11871,11897,11995,12082,12268,12328,12439,12469,12571,12769,12841,12916,13012,13063,13075,13096,13123,13330,13663,13963,13966,14086,14092,14182,14275,14344,14485,14696,14756,14879,14921],[15362,15512,15620,15709,15730,16128,16281,16362,16605,16617,16752,16794,16878,17163,17226,17289,17331,17385,17478,17577,17721,18225,18228,18522,18666,18799,18892,18982,19003,19108,19159,19282,19372,19405,19816,19846,19882,20077,20212,20287,20305,20842,20911,21040,21064]]},"geometry":{"type":"MultiLineString","coordinates":[[[51.537,35.726],[51.536,35.726]],[[51.537,35.734],[51.53,35.735],[51.526,35.728],[51.526,35.728],[51.526,35.728],[51.526,35.729],[51.526,35.729],[51.526,35.729],[51.526,35.729],[51.526,35.729],[51.526,35.728],[51.526,35.728],[51.526,35.728],[51.526,35.728],[51.526,35.728],[51.526,35.729],[51.526,35.729],[51.526,35.729],[51.524,35.726],[51.514,35.728],[51.516,35.731],[51.514,35.728],[51.512,35.728],[51.503,35.729],[51.503,35.731],[51.504,35.731],[51.504,35.731],[51.504,35.732],[51.504,35.731],[51.504,35.731],[51.497,35.733],[51.495,35.73],[51.496,35.73],[51.496,35.73],[51.497,35.73],[51.497,35.73],[51.496,35.73],[51.496,35.73],[51.502,35.729],[51.502,35.729],[51.502,35.73],[51.502,35.73],[51.503,35.729],[51.502,35.724],[51.502,35.724],[51.502,35.725],[51.502,35.725],[51.502,35.724],[51.502,35.724],[51.502,35.723],[51.5,35.723],[51.5,35.723],[51.5,35.723],[51.5,35.723],[51.5,35.723],[51.502,35.724],[51.502,35.724],[51.502,35.724],[51.501,35.72],[51.496,35.72],[51.496,35.718],[51.496,35.719],[51.496,35.719],[51.496,35.719],[51.496,35.719],[51.496,35.72],[51.494,35.72],[51.494,35.721],[51.497,35.722],[51.497,35.724],[51.497,35.724],[51.498,35.728],[51.498,35.728],[51.498,35.728],[51.498,35.727],[51.494,35.728],[51.494,35.731],[51.49,35.731],[51.49,35.732],[51.485,35.733],[51.482,35.732],[51.475,35.733],[51.466,35.732],[51.464,35.731],[51.458,35.731],[51.458,35.73],[51.46,35.731],[51.462,35.729],[51.462,35.729],[51.461,35.729],[51.461,35.729],[51.462,35.729],[51.462,35.729],[51.462,35.73],[51.462,35.729],[51.462,35.729],[51.462,35.729],[51.462,35.729],[51.469,35.722],[51.469,35.724],[51.469,35.724],[51.469,35.723]],[[51.469,35.723],[51.472,35.721],[51.473,35.719],[51.473,35.719],[51.473,35.719],[51.472,35.721],[51.473,35.72],[51.472,35.721],[51.472,35.721],[51.472,35.721],[51.471,35.719],[51.469,35.72],[51.471,35.719],[51.471,35.719],[51.474,35.718],[51.475,35.716],[51.476,35.716],[51.478,35.715],[51.481,35.712],[51.476,35.711],[51.471,35.714],[51.471,35.714],[51.472,35.714],[51.472,35.714],[51.47,35.715],[51.47,35.715],[51.465,35.719],[51.464,35.718],[51.465,35.717],[51.465,35.717],[51.465,35.717],[51.459,35.728],[51.458,35.736],[51.461,35.741],[51.517,35.733],[51.516,35.731],[51.519,35.733],[51.536,35.73],[51.528,35.731],[51.525,35.726],[51.526,35.728],[51.526,35.728],[51.527,35.731],[51.536,35.73],[51.537,35.732]]]}},{"type":"Feature","properties":{"route":3,"color":"#7c3aed","times":[[0,30,66,87,132,171,210,222,264,294,333,363,393,423,441,462,492,534,561,588,603]]},"geometry":{"type":"MultiLineString","coordinates":[[[51.442,35.751],[51.448,35.752],[51.455,35.755],[51.46,35.756],[51.471,35.757],[51.481,35.759],[51.486,35.758],[51.486,35.757],[51.484,35.761],[51.486,35.766],[51.487,35.774],[51.49,35.779],[51.491,35.784],[51.494,35.785],[51.497,35.786],[51.498,35.785],[51.501,35.786],[51.508,35.784],[51.514,35.782],[51.519,35.779],[51.522,35.778]]]}},{"type":"Feature","properties":{"route":4,"color":"#d97706","times":[[0,120,228,339,516,519,684,729,777,891,1143,1146,1362,1407,1527,1611,1719,1830,1875,1884,2301,2319,2349,2391,2580,2649,2679,2724,2769,2823,2913,2973,2994,4956,7266,7302,7344,7383,7401,7521,7602,7626,8091,8097,8136,8184,8205,8265,8292,8403,8412,8523,8592,8682,8706,8889,8958,8988,9159,9210,9303,9306,9504,9570,9672,9681,9783,9792,10257,10263,10332,10491,10533,10560,11058,11073,11109,11133,11142,11244,11265,11403,11406,11628,11856,11883,11904,12264,12270,12306,12375,12798,12846,13101,13137,13248,13440,13533,13869,14010,14013,14292,14325,14403,14784,14850,14937,14958,15024,15081,15129,15150,15165,15273,15276,15387,15462,15621,15660,15786,15996,16005,16110,16323,16404,16527,16566,16632,16833,16911,17052,17127,17136,17577,17664,17724,17775,17781,17925,18036,18057,18129,18168,18186,18261,18702,18729,18825,19485,19551,19578,19992,20181,20208,20232,20391,20451,20589,20802,20814,21108,21114,21168,21210,21252,21426,21441,21471,21627]]},"geometry":{"type":"MultiLineString","coordinates":[[[51.559,35.769],[51.539,35.776],[51.521,35.778],[51.514,35.782],[51.514,35.782],[51.514,35.782],[51.521,35.79],[51.518,35.791],[51.516,35.791],[51.516,35.791],[51.516,35.791],[51.517,35.791],[51.517,35.791],[51.521,35.79],[51.514,35.783],[51.503,35.786],[51.508,35.797],[51.524,35.794],[51.52,35.795],[51.52,35.796],[51.52,35.796],[51.52,35.796],[51.518,35.796],[51.52,35.798],[51.52,35.798],[51.523,35.801],[51.524,35.802],[51.527,35.803],[51.524,35.804],[51.526,35.807],[51.526,35.807],[51.526,35.807],[51.525,35.809],[51.525,35.809],[51.525,35.809],[51.526,35.807],[51.524,35.805],[51.526,35.803],[51.524,35.802],[51.518,35.796],[51.509,35.797],[51.509,35.799],[51.509,35.799],[51.509,35.799],[51.504,35.8],[51.506,35.804],[51.505,35.805],[51.504,35.8],[51.507,35.8],[51.507,35.8],[51.507,35.799],[51.504,35.8],[51.506,35.805],[51.512,35.809],[51.512,35.809],[51.512,35.809],[51.508,35.806],[51.505,35.807],[51.505,35.807],[51.501,35.809],[51.501,35.809],[51.501,35.808],[51.501,35.808],[51.501,35.808],[51.5,35.81],[51.5,35.81],[51.5,35.81],[51.499,35.809],[51.499,35.809],[51.498,35.809],[51.497,35.814],[51.493,35.82],[51.491,35.818],[51.489,35.817],[51.489,35.817],[51.488,35.816],[51.49,35.815],[51.49,35.813],[51.49,35.813],[51.49,35.813],[51.492,35.814],[51.492,35.814],[51.493,35.814],[51.493,35.814],[51.493,35.814],[51.491,35.814],[51.49,35.813],[51.49,35.813],[51.49,35.813],[51.489,35.816],[51.484,35.817],[51.484,35.817],[51.482,35.816],[51.482,35.816],[51.481,35.817],[51.48,35.815],[51.48,35.815],[51.478,35.814],[51.478,35.814],[51.478,35.814],[51.478,35.815],[51.478,35.815],[51.478,35.816],[51.48,35.82],[51.48,35.82],[51.48,35.82],[51.48,35.82],[51.48,35.82],[51.479,35.817],[51.476,35.817],[51.475,35.816],[51.473,35.817],[51.473,35.817],[51.473,35.817],[51.473,35.818],[51.473,35.818],[51.473,35.818],[51.473,35.818],[51.473,35.818],[51.471,35.813],[51.471,35.813],[51.471,35.813],[51.471,35.813],[51.471,35.812],[51.475,35.813],[51.475,35.813],[51.476,35.814],[51.475,35.813],[51.475,35.813],[51.474,35.813],[51.482,35.812],[51.484,35.811],[51.484,35.81],[51.484,35.81],[51.481,35.802],[51.482,35.805],[51.484,35.805],[51.485,35.805],[51.485,35.805],[51.485,35.805],[51.484,35.803],[51.483,35.801],[51.481,35.801],[51.48,35.8],[51.483,35.801],[51.483,35.801],[51.485,35.8],[51.481,35.794],[51.481,35.794],[51.48,35.794],[51.481,35.794],[51.481,35.794],[51.486,35.801],[51.488,35.802],[51.489,35.801],[51.489,35.801],[51.492,35.799],[51.492,35.799],[51.492,35.799],[51.493,35.8],[51.493,35.8],[51.493,35.801],[51.497,35.8],[51.496,35.796],[51.499,35.795],[51.499,35.795],[51.5,35.794],[51.501,35.795],[51.501,35.795]]]}},{"type":"Feature","properties":{"route":5,"color":"#0891b2","times":[[0,138,195,231,270,312,366,543,747,900,1056,1125,1350,1557,1620,1665,1749,2472,2490,2499,2709,2781,2787,3117,3177,3375,3399,3552,3585,4446,4449,5190,5220,5310,5337,5466,5769,5811,5883,6339,6432,6468,6552,6666,6669,6774,6804,6873,6915,7011,7041,7095,7254,7260,7320,7668,7686,7722,7785,7869,9144,9279,9282,9606,9711,9741,10785,10830,10854,10992,11007,11085,11088,11358,11409,11532,11565,11637,11712,11937,11967,11988,12042,12045,12564,12594,12720,12921,13266,13329,13344,13494,13554,13572,13827,13854,14385,14484,14748,14775,14820,15213,15219,15324,15327,15618,15690,15804,16509,16551,16596,16641,16662,16923,16929,16971,17112,17124,17154,17160,17508,17736,17769,17835,17916,17955,18009,18021,18036,18078,18108,18135]]},"geometry":{"type":"MultiLineString","coordinates":[[[51.473,35.769],[51.465,35.772],[51.468,35.775],[51.465,35.776],[51.466,35.778],[51.465,35.778],[51.465,35.781],[51.452,35.78],[51.452,35.78],[51.452,35.78],[51.452,35.78],[51.446,35.78],[51.441,35.776],[51.437,35.776],[51.436,35.778],[51.433,35.779],[51.433,35.779],[51.433,35.779],[51.432,35.778],[51.433,35.777],[51.433,35.777],[51.434,35.775],[51.434,35.775],[51.434,35.775],[51.432,35.774],[51.432,35.774],[51.43,35.773],[51.431,35.77],[51.431,35.77],[51.431,35.77],[51.431,35.771],[51.431,35.771],[51.43,35.773],[51.432,35.774],[51.432,35.773],[51.432,35.773],[51.433,35.768],[51.436,35.767],[51.436,35.767],[51.436,35.767],[51.435,35.77],[51.436,35.772],[51.437,35.768],[51.438,35.769],[51.438,35.769],[51.438,35.769],[51.437,35.768],[51.437,35.77],[51.437,35.768],[51.441,35.764],[51.442,35.763],[51.439,35.762],[51.439,35.762],[51.438,35.762],[51.439,35.764],[51.439,35.764],[51.439,35.764],[51.438,35.762],[51.435,35.763],[51.436,35.766],[51.436,35.766],[51.436,35.766],[51.435,35.766],[51.435,35.766],[51.43,35.767],[51.429,35.766],[51.429,35.766],[51.427,35.766],[51.427,35.764],[51.432,35.762],[51.432,35.762],[51.432,35.762],[51.432,35.763],[51.432,35.763],[51.435,35.762],[51.438,35.759],[51.44,35.76],[51.442,35.759],[51.439,35.759],[51.439,35.759],[51.439,35.759],[51.439,35.76],[51.442,35.759],[51.442,35.76],[51.442,35.76],[51.442,35.76],[51.442,35.76],[51.442,35.76],[51.442,35.76],[51.442,35.762],[51.443,35.763],[51.443,35.763],[51.444,35.763],[51.445,35.762],[51.445,35.762],[51.446,35.76],[51.446,35.76],[51.448,35.756],[51.448,35.756],[51.448,35.754],[51.446,35.754],[51.446,35.754],[51.446,35.754],[51.443,35.758],[51.443,35.758],[51.443,35.758],[51.44,35.758],[51.439,35.756],[51.439,35.756],[51.439,35.753],[51.44,35.751],[51.444,35.752],[51.444,35.75],[51.444,35.75],[51.444,35.75],[51.447,35.75],[51.447,35.75],[51.447,35.75],[51.447,35.747],[51.447,35.747],[51.447,35.747],[51.447,35.747],[51.449,35.747],[51.449,35.751],[51.454,35.755],[51.46,35.756],[51.467,35.756],[51.466,35.756],[51.466,35.758],[51.467,35.764],[51.469,35.769],[51.473,35.772]]]}},{"type":"Feature","properties":{"route":6,"color":"#db2777","times":[[0,180,258,354,453,468,549,744,801,828,900,903,1242,1314,1332,1401,1443,1716,1839,1860,1902,2106,2121,2136,2208,2253,2451,2457,2550,2742,2772,2853,2874,3036,3060,3084,3147,3186,3189,3345,3555,3645,3768,3987,3990,4107,4134,4305,4335,4386,4389,4476,4479,4497,4587,4590,4725,4731,4815,4944,4959,4986,5067,5103,5142,5349,5388,5526,5892,5916,5949,6039,6045,6192,6423,6501,6531,7014,7053,7134,7152,7284,7302,7407,7428,7446,7842,7854,7890,7965,7980,8522,8774,8801,8921,9150,9519,9573,9702,9885,9914,9926,9959,10052,10070,10223,10250,11048,11069,11171,11273,11405,12146,12218,12419,12476,12521,12620,12776,12809,13235,13262,13331,13382,13427,13472,13700,14027,14030,14216,14225,14422,14440,14563,14888,14903,15211,15214,15307,15495,15714,15717,15822,15831,15870,16110,16131,16248,16362,16374,16416,16452,16551,16770,16833,16902],[86474,86642,86729,86780,86810,86921,86939,87095,87134,87137,87305,87617,87620,87710,87716,87755,87839,88031,88034,88121,88133,88136,88238,88484,88487,88691,88757,89126,89165,89461,89482,89758,89773,89884,89908,89944,89980,90031,90070,90073,90178,90181,90463,90682,90841,90925,91090,91219,91585,91759,91882,91966,92170,92215,92287,92383,92473,92476,92560,92761]]},"geometry":{"type":"MultiLineString","coordinates":[[[51.467,35.764],[51.465,35.749],[51.458,35.736],[51.458,35.731],[51.458,35.731],[51.458,35.731],[51.456,35.73],[51.451,35.729],[51.451,35.725],[51.451,35.725],[51.451,35.725],[51.451,35.726],[51.451,35.726],[51.451,35.728],[51.452,35.728],[51.454,35.728],[51.454,35.726],[51.454,35.726],[51.454,35.726],[51.455,35.725],[51.457,35.728],[51.457,35.728],[51.457,35.729],[51.457,35.729],[51.462,35.723],[51.461,35.721],[51.461,35.721],[51.461,35.721],[51.458,35.721],[51.458,35.721],[51.457,35.721],[51.46,35.72],[51.46,35.718],[51.46,35.718],[51.46,35.718],[51.458,35.718],[51.458,35.718],[51.458,35.718],[51.457,35.718],[51.457,35.718],[51.455,35.716],[51.455,35.716],[51.451,35.713],[51.451,35.713],[51.451,35.712],[51.451,35.712],[51.45,35.712],[51.45,35.712],[51.45,35.712],[51.447,35.708],[51.447,35.708],[51.447,35.708],[51.448,35.708],[51.448,35.708],[51.448,35.708],[51.447,35.708],[51.447,35.708],[51.446,35.708],[51.447,35.708],[51.447,35.708],[51.447,35.708],[51.447,35.708],[51.447,35.708],[51.447,35.708],[51.445,35.706],[51.445,35.706],[51.445,35.706],[51.448,35.709],[51.448,35.709],[51.448,35.709],[51.446,35.707],[51.449,35.705],[51.449,35.705],[51.449,35.705],[51.457,35.712],[51.457,35.708],[51.459,35.708],[51.459,35.708],[51.459,35.708],[51.459,35.711],[51.458,35.71],[51.458,35.71],[51.458,35.71],[51.458,35.71],[51.457,35.71],[51.458,35.71],[51.458,35.71],[51.459,35.711],[51.458,35.712],[51.461,35.714],[51.462,35.716],[51.462,35.716],[51.462,35.716],[51.461,35.715],[51.462,35.711],[51.462,35.711],[51.462,35.708],[51.464,35.709],[51.464,35.709],[51.465,35.71],[51.467,35.709],[51.465,35.71],[51.465,35.71],[51.465,35.71],[51.466,35.709],[51.466,35.709],[51.468,35.71],[51.468,35.71],[51.468,35.71],[51.467,35.714],[51.467,35.714],[51.467,35.715],[51.467,35.715],[51.467,35.715],[51.459,35.727],[51.459,35.731],[51.454,35.729],[51.445,35.732],[51.447,35.742],[51.445,35.742],[51.445,35.742],[51.445,35.742],[51.444,35.742],[51.444,35.741],[51.44,35.741],[51.439,35.739],[51.439,35.739],[51.439,35.739],[51.438,35.739],[51.438,35.739],[51.438,35.739],[51.438,35.739],[51.436,35.739],[51.436,35.739],[51.433,35.74],[51.433,35.739],[51.433,35.739],[51.433,35.738],[51.433,35.738],[51.433,35.737],[51.433,35.737],[51.433,35.736],[51.433,35.736],[51.433,35.736],[51.436,35.736],[51.436,35.736],[51.436,35.736],[51.441,35.736],[51.441,35.736],[51.442,35.736],[51.444,35.739],[51.446,35.739],[51.447,35.742],[51.462,35.741],[51.465,35.75],[51.467,35.764]],[[51.467,35.764],[51.465,35.749],[51.458,35.737],[51.458,35.728],[51.454,35.724],[51.449,35.721],[51.449,35.722],[51.449,35.722],[51.449,35.722],[51.449,35.721],[51.449,35.721],[51.449,35.721],[51.449,35.722],[51.449,35.722],[51.449,35.722],[51.452,35.722],[51.451,35.72],[51.451,35.72],[51.45,35.719],[51.45,35.719],[51.45,35.719],[51.449,35.719],[51.449,35.719],[51.449,35.719],[51.45,35.718],[51.45,35.718],[51.448,35.714],[51.448,35.714],[51.447,35.712],[51.447,35.712],[51.446,35.71],[51.446,35.71],[51.446,35.71],[51.446,35.71],[51.445,35.709],[51.444,35.71],[51.445,35.712],[51.447,35.716],[51.445,35.717],[51.445,35.717],[51.445,35.717],[51.445,35.718],[51.445,35.718],[51.446,35.721],[51.446,35.721],[51.446,35.721],[51.443,35.721],[51.443,35.72],[51.443,35.72],[51.442,35.716],[51.44,35.717],[51.44,35.717],[51.44,35.717],[51.442,35.718],[51.442,35.715],[51.44,35.715],[51.44,35.715],[51.439,35.715],[51.437,35.711],[51.433,35.712]]]}},{"type":"Feature","properties":{"route":7,"color":"#4f46e5","times":[[0,741,960,1047,1173,1260,1353,1653,1707,1761,1917,1974,2172,2220,2244,2343,2346,2568,2708,3029,3050,3098,3194,3197,3332,3404,3878,4049,4118,4274,4331,4367,4397,4421,4589,4634,4673,4760,4886,5057,5132,5183,5387,5432,5459,5483,5582,5714,5867,5915,5972,6032,6080,6206,6452,6521,6569,6626,6788,6857,7235,7310,7313,7505,7535,7565,7580,7778,7811,8138,8348,8435,8582,8726,8783,9137,9272,9480,9679,9811,9820,9838,9955,10018,10687,10864,10932,10950,11082,11091,11121,11238,11313,11412,11517,11532,11559,11697,11742,12060,12072,12263,12272,12302,12398,12443,12572,12695,12749,13136,13166,13229,13259,13349,13382,13454,13844,13865,13976,13985,13988,14186,14285,14468,14627,14744,14792,14882,14984,15044,15056,15227,15422,15461,15533,15584,15662,15728,15785,15818,16052,16085,16253,16460,16568,16583,16688,16760,16946,16994,17078,17270,17306,17423,18389,18525,18543,18627,18882,18936,19069,19132,19156,19192,19219,19360,19378,19456,19684,19828,19831,19933,19963,20017,20020,20149,20236,20803]]},"geometry":{"type":"MultiLineString","coordinates":[[[51.519,35.724],[51.449,35.702],[51.438,35.702],[51.432,35.705],[51.426,35.706],[51.426,35.699],[51.428,35.7],[51.428,35.7],[51.428,35.7],[51.426,35.699],[51.424,35.689],[51.423,35.69],[51.423,35.69],[51.423,35.69],[51.424,35.691],[51.424,35.697],[51.423,35.697],[51.423,35.697],[51.422,35.698],[51.42,35.696],[51.419,35.698],[51.414,35.697],[51.414,35.697],[51.414,35.698],[51.414,35.698],[51.414,35.698],[51.414,35.696],[51.414,35.696],[51.414,35.696],[51.414,35.697],[51.414,35.697],[51.414,35.697],[51.412,35.698],[51.413,35.7],[51.423,35.699],[51.424,35.701],[51.427,35.701],[51.427,35.702],[51.427,35.702],[51.427,35.702],[51.432,35.702],[51.433,35.701],[51.433,35.701],[51.433,35.701],[51.433,35.699],[51.434,35.699],[51.433,35.695],[51.433,35.695],[51.433,35.695],[51.432,35.696],[51.433,35.699],[51.436,35.698],[51.434,35.694],[51.434,35.694],[51.433,35.693],[51.433,35.688],[51.436,35.688],[51.436,35.687],[51.436,35.687],[51.436,35.686],[51.436,35.686],[51.436,35.686],[51.436,35.687],[51.436,35.687],[51.437,35.691],[51.437,35.692],[51.439,35.692],[51.439,35.692],[51.439,35.693],[51.447,35.69],[51.446,35.679],[51.444,35.68],[51.444,35.68],[51.439,35.681],[51.439,35.682],[51.439,35.682],[51.439,35.686],[51.439,35.686],[51.439,35.688],[51.439,35.688],[51.439,35.687],[51.439,35.688],[51.439,35.688],[51.441,35.691],[51.441,35.691],[51.443,35.695],[51.445,35.691],[51.446,35.693],[51.446,35.693],[51.446,35.694],[51.446,35.693],[51.446,35.693],[51.447,35.693],[51.446,35.694],[51.446,35.694],[51.445,35.695],[51.443,35.696],[51.443,35.696],[51.44,35.697],[51.438,35.698],[51.437,35.698],[51.437,35.698],[51.437,35.698],[51.439,35.696],[51.438,35.693],[51.433,35.693],[51.431,35.686],[51.424,35.686],[51.424,35.684],[51.424,35.684],[51.424,35.683],[51.424,35.686],[51.422,35.686],[51.417,35.686],[51.416,35.684],[51.41,35.685],[51.406,35.668],[51.407,35.668],[51.407,35.668],[51.407,35.667],[51.407,35.668],[51.407,35.668],[51.406,35.668],[51.405,35.659],[51.421,35.659],[51.423,35.663],[51.421,35.663],[51.422,35.665],[51.425,35.664],[51.426,35.665],[51.426,35.666],[51.426,35.666],[51.426,35.667],[51.428,35.667],[51.43,35.665],[51.433,35.665],[51.437,35.67],[51.446,35.668],[51.445,35.666],[51.443,35.666],[51.443,35.666],[51.442,35.667],[51.442,35.667],[51.437,35.668],[51.437,35.668],[51.436,35.668],[51.438,35.673],[51.442,35.674],[51.472,35.669],[51.474,35.673],[51.481,35.672],[51.479,35.687],[51.481,35.687],[51.477,35.697],[51.477,35.697],[51.477,35.697],[51.475,35.697],[51.476,35.692],[51.457,35.69],[51.457,35.695],[51.458,35.705],[51.465,35.707],[51.466,35.706],[51.468,35.706],[51.468,35.705],[51.468,35.705],[51.469,35.705],[51.473,35.707],[51.473,35.706],[51.473,35.706],[51.473,35.707],[51.473,35.707],[51.474,35.706],[51.477,35.708],[51.476,35.708],[51.476,35.708],[51.476,35.71],[51.519,35.723]]]}},{"type":"Feature","properties":{"route":8,"color":"#65a30d","times":[[0,174,267,465,751,952,1045,1060,1162,1510,1537,1603,1822,2122,2218,2332,2503,2560,2593,2731,2794,2938,3004,3463,3469,3523,3778,3835,3952,4057,4060,4198,4306,4399,4561,4564,4846,4882,4918,5056,5155,5173,5290,5350,5392,5812,5818,5884,6283,6316,6319,6565,6571,6604,6673,6757,6970,6994,7048,7102,7462,7519,8197,8212,8371,8485,8566,8722,8857,9031,9067,9130,9154,9339,9345,9570,9672,9795,9852,9984,9987,10035,10236,10263,10428,10581,10617,10827,11178,11397,11610,11622,11772,11808,11847,12159,12213,12249,12390,12408,12438,12504,12618,12735],[13143,13194,13347,13458,13818,13875,14013,14073,14115,14118,14814,14889,14961,15027,15168,15240],[18507,18594,18738],[20771,20822,20870,21173]]},"geometry":{"type":"MultiLineString","coordinates":[[[51.438,35.702],[51.42,35.702],[51.42,35.702],[51.413,35.702],[51.409,35.68],[51.394,35.682],[51.394,35.682],[51.394,35.682],[51.394,35.675],[51.374,35.668],[51.375,35.668],[51.378,35.664],[51.378,35.664],[51.378,35.664],[51.375,35.662],[51.372,35.663],[51.372,35.663],[51.372,35.663],[51.373,35.662],[51.375,35.663],[51.377,35.659],[51.369,35.657],[51.368,35.654],[51.368,35.654],[51.367,35.654],[51.367,35.655],[51.367,35.655],[51.367,35.657],[51.362,35.658],[51.362,35.658],[51.361,35.658],[51.361,35.658],[51.356,35.658],[51.357,35.66],[51.357,35.66],[51.357,35.661],[51.357,35.661],[51.358,35.663],[51.357,35.664],[51.348,35.665],[51.347,35.668],[51.348,35.668],[51.353,35.671],[51.356,35.669],[51.356,35.667],[51.356,35.667],[51.356,35.666],[51.353,35.666],[51.353,35.666],[51.353,35.666],[51.353,35.665],[51.353,35.665],[51.353,35.664],[51.354,35.664],[51.353,35.663],[51.345,35.662],[51.345,35.662],[51.344,35.663],[51.345,35.66],[51.342,35.66],[51.342,35.66],[51.339,35.659],[51.339,35.659],[51.338,35.659],[51.34,35.653],[51.34,35.653],[51.341,35.653],[51.341,35.653],[51.341,35.651],[51.341,35.651],[51.342,35.649],[51.344,35.649],[51.343,35.651],[51.343,35.651],[51.343,35.651],[51.343,35.651],[51.341,35.654],[51.337,35.654],[51.338,35.651],[51.338,35.651],[51.338,35.65],[51.338,35.65],[51.338,35.65],[51.339,35.65],[51.338,35.655],[51.338,35.655],[51.337,35.655],[51.337,35.652],[51.34,35.648],[51.342,35.648],[51.342,35.648],[51.342,35.648],[51.342,35.648],[51.342,35.649],[51.342,35.648],[51.342,35.648],[51.341,35.648],[51.342,35.648],[51.342,35.648],[51.342,35.649],[51.343,35.648],[51.342,35.648],[51.345,35.642],[51.341,35.64]],[[51.34,35.64],[51.342,35.641],[51.338,35.647],[51.339,35.648],[51.339,35.648],[51.339,35.649],[51.344,35.649],[51.342,35.652],[51.341,35.652],[51.341,35.651],[51.341,35.651],[51.343,35.648],[51.339,35.646],[51.338,35.647],[51.338,35.647],[51.336,35.649]],[[51.336,35.66],[51.345,35.661],[51.353,35.64]],[[51.391,35.64],[51.394,35.646],[51.399,35.649],[51.438,35.645]]]}},{"type":"Feature","properties":{"route":9,"color":"#c2410c","times":[[0,132,366,510,555,1032,1035,1164,1197,1476,1641,1674,1818,2160,2163,2253,2430,2738,3044,3047,3995,3998,4142,4151,4457,4478,4645,4672,4720,4825,4831,4927,5092,5206,5224,5374,5510,5615,5870,5981,6175,6250,6295,6409,6859,6889,6952,6991,7222,7328,7452,7584,7722,7800,7967,8051,8219,8288,8309,8480,8522,8561,8639,8657,8843,8939,9041,9050,9206,9317,9476,9740,10058,10064,10070,10345,10408,11066,11207,11270,11687,11834,11852,12032,12305,12410,12602,12653,12989,13037,13091,13139,13280,13283,13397,13403,13547,13682,13820,13907,13973,14267,14282,14522,14609,14735,14789,14798,15066,15090,15165,15219,15297,15420,15537,15690,15723,15849,15975,16074,16092,16183,16555,16798,16882,17017,17157,17621],[18076,18186,18216,18330,18431,18476,18643,18685,18727,19271,19298,19361,19624,19756,20155,20215,20269,20344,21029,21198,21297,21444,21471,21513,21627],[21948,21988,22021,22054,22147],[22777,22896,22980,23091,23094,23184,23400,23454,23502,23694,23805]]},"geometry":{"type":"MultiLineString","coordinates":[[[51.428,35.669],[51.416,35.668],[51.418,35.686],[51.405,35.687],[51.406,35.689],[51.406,35.689],[51.406,35.69],[51.406,35.69],[51.406,35.692],[51.406,35.692],[51.406,35.692],[51.405,35.693],[51.405,35.693],[51.405,35.693],[51.406,35.693],[51.406,35.693],[51.406,35.693],[51.407,35.697],[51.407,35.697],[51.407,35.698],[51.407,35.698],[51.407,35.699],[51.407,35.699],[51.407,35.699],[51.407,35.699],[51.407,35.699],[51.407,35.699],[51.408,35.7],[51.41,35.7],[51.41,35.695],[51.41,35.695],[51.41,35.695],[51.412,35.695],[51.411,35.69],[51.409,35.69],[51.409,35.69],[51.409,35.69],[51.409,35.69],[51.409,35.69],[51.409,35.69],[51.404,35.69],[51.404,35.694],[51.402,35.695],[51.402,35.695],[51.394,35.695],[51.394,35.695],[51.394,35.695],[51.393,35.696],[51.393,35.696],[51.393,35.699],[51.393,35.699],[51.393,35.699],[51.394,35.701],[51.394,35.7],[51.394,35.7],[51.396,35.7],[51.396,35.7],[51.396,35.7],[51.398,35.7],[51.398,35.7],[51.4,35.7],[51.4,35.697],[51.395,35.697],[51.395,35.697],[51.395,35.697],[51.395,35.694],[51.395,35.694],[51.396,35.694],[51.396,35.694],[51.395,35.691],[51.395,35.691],[51.395,35.691],[51.395,35.691],[51.396,35.691],[51.395,35.691],[51.395,35.691],[51.395,35.691],[51.395,35.691],[51.384,35.692],[51.384,35.688],[51.365,35.687],[51.365,35.681],[51.366,35.681],[51.366,35.681],[51.373,35.681],[51.372,35.678],[51.379,35.677],[51.38,35.674],[51.373,35.675],[51.373,35.677],[51.374,35.678],[51.374,35.681],[51.374,35.681],[51.374,35.682],[51.374,35.682],[51.374,35.682],[51.374,35.682],[51.374,35.684],[51.368,35.683],[51.367,35.685],[51.365,35.685],[51.365,35.685],[51.365,35.685],[51.379,35.687],[51.376,35.688],[51.376,35.696],[51.378,35.695],[51.378,35.694],[51.378,35.694],[51.378,35.694],[51.378,35.695],[51.377,35.694],[51.375,35.694],[51.375,35.694],[51.373,35.694],[51.373,35.694],[51.373,35.694],[51.373,35.694],[51.373,35.694],[51.373,35.694],[51.373,35.694],[51.373,35.694],[51.37,35.693],[51.37,35.693],[51.367,35.693],[51.366,35.696],[51.368,35.693],[51.366,35.697]],[[51.367,35.697],[51.363,35.697],[51.363,35.697],[51.363,35.697],[51.362,35.699],[51.363,35.697],[51.363,35.697],[51.364,35.695],[51.366,35.695],[51.366,35.7],[51.366,35.7],[51.366,35.7],[51.366,35.699],[51.37,35.698],[51.37,35.698],[51.375,35.696],[51.379,35.697],[51.378,35.698],[51.378,35.698],[51.378,35.698],[51.383,35.698],[51.391,35.699],[51.392,35.698],[51.394,35.698],[51.395,35.696]],[[51.381,35.698],[51.395,35.696],[51.395,35.695],[51.397,35.694],[51.396,35.693]],[[51.396,35.693],[51.394,35.694],[51.398,35.695],[51.398,35.695],[51.397,35.695],[51.397,35.695],[51.403,35.696],[51.403,35.696],[51.403,35.696],[51.42,35.695],[51.428,35.692]]]}},{"type":"Feature","properties":{"route":10,"color":"#0284c7","times":[[0,333,363,390,456,486,1059,1071,1440,1479,1641,1701,1809,2052,2151,2226,2280,2376,2586,2622,2808,2844,2973,3180,3384,3732,3777,3804,4221,4239,4296,4380,4398,4626,4662,4758,4839,4965,5040,5109,5175,5340,5358,5469,5514,5763,5766,5781,6159,6171,6327,6465,6639,7092,7137,7185,7227,7329,7476,7479,7596,7599,7683,7858,7888,7906,8011,8098,8146,8239,8242,8476,8533,8632,8665,8752,8755,8896,8926,8941,9095,9110,9194,9407,9419,9578,9590,9629,9692,9755,9782,9881,9929,10013,10121,10160,10370,10415,10511,10655,10754,10934,10967,11033,11222,11231,11603,11642,11772,11775,11874,12167,12218,12236,12368,12566,12584,12629,12665,12791,12839,12866,13025,13355,13469,13718,13733,13823,13838,13928,13937,13961,13985,14009,14051,14273,14318,14473,14482,14611,14620,14629,14905,14917,14947,14956,15370,15394,15400,15496,15499,15916,15937,15970,15997,16474,16549,16552,16796,16835,16928,16970,17036,17102,17141,17237,17258,17422,17491,17521,17578,17809,17851,17881]]},"geometry":{"type":"MultiLineString","coordinates":[[[51.429,35.702],[51.401,35.701],[51.4,35.703],[51.398,35.703],[51.396,35.707],[51.394,35.706],[51.394,35.706],[51.394,35.707],[51.394,35.707],[51.392,35.706],[51.378,35.706],[51.379,35.704],[51.379,35.704],[51.379,35.704],[51.387,35.705],[51.385,35.709],[51.383,35.709],[51.383,35.709],[51.383,35.709],[51.385,35.708],[51.383,35.718],[51.385,35.719],[51.385,35.719],[51.385,35.719],[51.386,35.717],[51.386,35.717],[51.386,35.717],[51.389,35.718],[51.389,35.718],[51.389,35.718],[51.389,35.718],[51.389,35.718],[51.389,35.718],[51.389,35.718],[51.389,35.72],[51.389,35.72],[51.388,35.721],[51.388,35.721],[51.388,35.721],[51.393,35.721],[51.395,35.723],[51.395,35.723],[51.396,35.723],[51.401,35.718],[51.403,35.719],[51.403,35.719],[51.404,35.72],[51.404,35.72],[51.404,35.72],[51.404,35.72],[51.404,35.72],[51.401,35.722],[51.401,35.721],[51.401,35.721],[51.401,35.718],[51.404,35.72],[51.402,35.721],[51.402,35.725],[51.402,35.725],[51.402,35.726],[51.402,35.726],[51.402,35.727],[51.402,35.727],[51.402,35.727],[51.4,35.727],[51.4,35.726],[51.4,35.726],[51.4,35.726],[51.399,35.726],[51.399,35.726],[51.398,35.726],[51.398,35.726],[51.398,35.726],[51.398,35.728],[51.399,35.728],[51.399,35.73],[51.399,35.729],[51.399,35.729],[51.397,35.73],[51.398,35.731],[51.398,35.731],[51.399,35.732],[51.401,35.733],[51.401,35.733],[51.401,35.733],[51.401,35.733],[51.402,35.733],[51.401,35.735],[51.4,35.735],[51.402,35.734],[51.403,35.735],[51.403,35.735],[51.403,35.736],[51.404,35.742],[51.404,35.742],[51.404,35.743],[51.403,35.735],[51.401,35.734],[51.401,35.734],[51.399,35.734],[51.398,35.731],[51.398,35.731],[51.396,35.729],[51.398,35.725],[51.389,35.723],[51.389,35.724],[51.389,35.724],[51.389,35.725],[51.389,35.725],[51.388,35.725],[51.388,35.725],[51.388,35.729],[51.386,35.728],[51.386,35.727],[51.386,35.727],[51.386,35.727],[51.386,35.728],[51.388,35.729],[51.387,35.732],[51.387,35.732],[51.387,35.735],[51.389,35.735],[51.389,35.735],[51.395,35.734],[51.395,35.734],[51.397,35.734],[51.397,35.735],[51.397,35.735],[51.397,35.735],[51.397,35.735],[51.397,35.736],[51.395,35.736],[51.395,35.738],[51.396,35.737],[51.396,35.738],[51.396,35.738],[51.396,35.738],[51.396,35.738],[51.396,35.738],[51.396,35.738],[51.397,35.738],[51.397,35.737],[51.397,35.737],[51.397,35.736],[51.397,35.738],[51.398,35.738],[51.398,35.738],[51.399,35.738],[51.399,35.739],[51.399,35.739],[51.399,35.74],[51.399,35.74],[51.399,35.74],[51.397,35.741],[51.398,35.743],[51.398,35.743],[51.398,35.743],[51.399,35.742],[51.399,35.742],[51.399,35.742],[51.397,35.744],[51.399,35.745],[51.397,35.745],[51.394,35.749],[51.391,35.748],[51.391,35.748],[51.391,35.747],[51.392,35.748],[51.397,35.749],[51.397,35.747],[51.397,35.751],[51.415,35.752],[51.422,35.749],[51.429,35.749]]]}},{"type":"Feature","properties":{"route":11,"color":"#9333ea","times":[[5387,5561,5720,5972,6317,6872,7244,7265,7346,7460,7616,7682,7736,7946,8066,8111,8138,8219],[20101,20167,20206,20299,20731,20737,20836,20872,20968,20986,21145,21172,21208,21293,21323,21416,21428,21494,21584,21732,21801,21951,21980,22010,22202,22212,22233,22275,22365,22431,22617,22731,22890,23238,23925,23928,24072,24129,24291,24312,24456,24558,24645,24675,24714,24765,24795,24912,24975,24996,25032,25095,25236,25248,25290,26310,26331,26424,26640,26784,26886,26967,27333,27357,27360,27504,27723,27792,27849,27912,27954,28002,28080,28131,28245,28248,28479,28590,29019,29139,29262,29265,29448,29472,29751,29922,29997,30057,30129,30318,30522,30720,30858,30891,30975,30981,31313,31346,31517,31715,31787,31832,31877,31913,31964,32033]]},"geometry":{"type":"MultiLineString","coordinates":[[[51.003,35.791],[51.006,35.784],[51.005,35.771],[50.996,35.743],[50.993,35.711],[50.976,35.658],[50.976,35.658],[50.975,35.657],[50.964,35.66],[50.936,35.671],[50.902,35.679],[50.889,35.685],[50.879,35.688],[50.846,35.692],[50.83,35.691],[50.818,35.692],[50.811,35.694],[50.8,35.699]],[[50.8,35.724],[50.806,35.727],[50.81,35.728],[50.82,35.727],[50.82,35.727],[50.821,35.727],[50.819,35.726],[50.82,35.727],[50.82,35.727],[50.82,35.727],[50.82,35.727],[50.822,35.728],[50.822,35.727],[50.82,35.727],[50.82,35.727],[50.82,35.727],[50.82,35.726],[50.82,35.727],[50.82,35.727],[50.82,35.728],[50.82,35.727],[50.82,35.727],[50.82,35.726],[50.82,35.727],[50.82,35.727],[50.82,35.728],[50.82,35.727],[50.82,35.727],[50.82,35.727],[50.826,35.726],[50.85,35.725],[50.866,35.728],[50.879,35.732],[50.895,35.742],[50.895,35.742],[50.896,35.742],[50.896,35.742],[50.895,35.742],[50.895,35.742],[50.895,35.742],[50.895,35.742],[50.907,35.748],[50.902,35.746],[50.902,35.747],[50.9,35.746],[50.9,35.748],[50.898,35.748],[50.897,35.746],[50.902,35.747],[50.902,35.746],[50.901,35.745],[50.907,35.748],[50.907,35.748],[50.908,35.749],[50.912,35.752],[50.912,35.752],[50.913,35.753],[50.907,35.748],[50.895,35.742],[50.89,35.746],[50.892,35.75],[50.889,35.748],[50.889,35.748],[50.888,35.748],[50.889,35.748],[50.889,35.748],[50.897,35.752],[50.903,35.749],[50.908,35.748],[50.914,35.754],[50.919,35.757],[50.92,35.761],[50.924,35.766],[50.922,35.764],[50.922,35.764],[50.923,35.764],[50.923,35.764],[50.922,35.763],[50.922,35.763],[50.921,35.761],[50.921,35.761],[50.92,35.761],[50.92,35.761],[50.919,35.759],[50.919,35.759],[50.919,35.759],[50.92,35.758],[50.92,35.76],[50.922,35.763],[50.939,35.78],[50.959,35.793],[50.944,35.783],[50.954,35.774],[50.955,35.774],[50.956,35.772],[50.956,35.772],[50.956,35.772],[50.955,35.774],[50.945,35.784],[50.966,35.798],[50.973,35.793],[50.977,35.795],[50.979,35.793],[50.982,35.794],[50.991,35.792],[51.006,35.79]]]}},{"type":"Feature","properties":{"route":12,"color":"#059669","times":[[0,246,525,789,1005,1206,1218,1308,1383,1542,1740,1800,2023,2116,2296,2323,2371,2771,2864,2957,3032,3248,3272,3317,3419,3700,3802],[4363,4495,4851,4944,5046,5112,5124,5217,5337,5517,5634,5670,5699,5995,6100,6124,6202,6289,6319,6376,6424,7283,7313,7580,7733,7754,7817,7832,7886,7988],[8327,8390,8487,8547,8694,8736,8757,8811,8850,8928,8955,9000,9063,9072,9288,9312],[9625,9768,10150,10442,10472,10502,10626,10917,11118,11216,11342,11423,11552,11585,11651,11699,11753,11759,12466,12469,12694,12715,12763,12796,13139,13166,13175,13271,13301,13445,13571,13775,13805,14119,14223,14310,14595,14964,15009,15066,15159,15165,15492,15579,15735,15774,15894,16038,16065,16131,16258,16276,16404,16461],[20134,20221,20299,20398,20476,20752,20800,20863]]},"geometry":{"type":"MultiLineString","coordinates":[[[51.438,35.75],[51.423,35.749],[51.415,35.752],[51.368,35.749],[51.323,35.752],[51.328,35.769],[51.328,35.769],[51.328,35.769],[51.325,35.77],[51.325,35.77],[51.325,35.771],[51.33,35.771],[51.33,35.774],[51.334,35.773],[51.334,35.773],[51.334,35.773],[51.333,35.775],[51.33,35.776],[51.33,35.777],[51.33,35.777],[51.33,35.777],[51.338,35.779],[51.336,35.779],[51.336,35.781],[51.336,35.781],[51.337,35.785],[51.337,35.785]],[[51.336,35.786],[51.337,35.788],[51.337,35.786],[51.332,35.786],[51.332,35.786],[51.333,35.784],[51.333,35.784],[51.333,35.784],[51.333,35.78],[51.333,35.78],[51.333,35.78],[51.332,35.78],[51.333,35.78],[51.333,35.78],[51.333,35.78],[51.333,35.778],[51.319,35.778],[51.315,35.782],[51.316,35.783],[51.312,35.784],[51.312,35.784],[51.312,35.784],[51.312,35.784],[51.312,35.784],[51.316,35.783],[51.315,35.782],[51.319,35.778],[51.319,35.778],[51.325,35.779],[51.325,35.776]],[[51.325,35.776],[51.325,35.775],[51.321,35.773],[51.321,35.773],[51.321,35.773],[51.319,35.772],[51.32,35.771],[51.318,35.77],[51.319,35.764],[51.316,35.755],[51.313,35.753],[51.305,35.753],[51.304,35.755],[51.304,35.754],[51.304,35.754],[51.303,35.754]],[[51.303,35.754],[51.304,35.754],[51.304,35.756],[51.304,35.759],[51.306,35.76],[51.306,35.762],[51.306,35.762],[51.306,35.762],[51.309,35.763],[51.309,35.764],[51.309,35.764],[51.308,35.764],[51.308,35.76],[51.311,35.759],[51.311,35.753],[51.311,35.758],[51.314,35.758],[51.314,35.758],[51.314,35.758],[51.313,35.758],[51.313,35.758],[51.311,35.758],[51.311,35.761],[51.314,35.761],[51.314,35.761],[51.315,35.761],[51.314,35.761],[51.314,35.761],[51.314,35.761],[51.314,35.761],[51.314,35.761],[51.314,35.761],[51.311,35.761],[51.311,35.764],[51.312,35.763],[51.315,35.763],[51.315,35.763],[51.315,35.763],[51.311,35.763],[51.311,35.768],[51.304,35.765],[51.304,35.764],[51.304,35.764],[51.304,35.762],[51.304,35.762],[51.304,35.762],[51.304,35.762],[51.302,35.761],[51.304,35.76],[51.304,35.754],[51.304,35.754],[51.304,35.754],[51.307,35.755],[51.299,35.753]],[[51.299,35.753],[51.315,35.753],[51.331,35.751],[51.351,35.751],[51.368,35.749],[51.415,35.752],[51.424,35.749],[51.438,35.75]]]}},{"type":"Feature","properties":{"route":13,"color":"#be123c","times":[[0.0,52.171476267605236,113.02362039297006,118.32446134786872,144.92643866677253,165.75964809583633,178.99176201187456,188.54641781582754,206.13078965837593,232.67364894107416,244.61176240474128,263.59074352991917,280.8268338801769,299.7035225836745,323.4321376160423,333.77039564333734,349.2994111550633,353.9927250937726,382.3604524644538,409.0663184910604,423.5763204556606,437.47989664558895,450.381666210039,454.69907099207984,463.54544994847555,469.0766055164943,475.1742490304082,481.3032780955942,486.56629814261123,492.44582069322763,499.426009229455,504.85327661483694,509.2222870569549,514.0472223929872,519.9488999723486,523.9990983208002,527.9077072637438,541.6637824091554,552.7388676355189,569.4159502929135,582.2661908381535,591.8526205926524,613.8669363679853,623.0443149686204,632.175027093786,638.2450295143105,643.5246744030701,644.7670098201593,655.1717399479736,668.1951107527872,697.3063462593885,710.2984730835044,722.3880643820767,734.7921971099397,748.5069465762808,764.2106626363777,781.8719654383214,789.6231986143285,802.3238621647073,813.4638552910578,821.5827683067578,844.0563541791844,870.2246003716162,874.5723191895655,886.321301908022,903.9993416217022,909.829931525624,923.8331089401868,931.2841255940612,940.5401412430871,947.4307089870562,952.9728233455241,962.8548030083374,968.0700727949469,972.2610097461768,983.624155966419,996.4206299470152,1002.7049821309517,1015.5207567642095,1020.7541119619533,1025.9851732093393,1036.2280500549168,1040.8466908579649,1046.8845708725646,1052.9743131453213,1067.2564910829058,1079.9151072372915,1096.1860223531296,1112.9001742871546,1119.3936419018348,1125.1611671427754,1131.1844312047695,1137.44653163992,1147.6191547197889,1158.4685195771933,1165.715884859261,1171.914821104964,1181.1835712209308,1213.7150423641438,1224.5354260791134,1226.3169093090603,1253.805784179345,1260.7970628136975,1265.5212579229492,1266.9146562163794,1269.5427792369703,1272.1772566956206,1274.8225211597487,1276.423855634572,1278.031287004525,1279.36943227727,1280.7010775993788,1282.032333127059,1283.3506810163474,1285.0374042478797,1286.7391312402558,1288.8956213670665,1290.385168486407,1293.1558678203053,1293.610269793953,1296.3965808870291,1301.5291699574668,1304.9135517030402,1306.5285258219778,1313.9281123452008,1318.089374286402,1322.2506362276033,1329.6502227508263,1331.265196869764,1334.6495786153373,1342.013067582544,1344.4265518764712,1346.706779315728,1349.2944526067108,1351.8637202660993,1354.4142782853621,1355.304646166005,1356.1948534820826,1359.1496310099055,1365.1990007844377,1367.9682265603842,1395.457101430669,1397.2385846606157,1408.0589683755854,1440.5904395187983,1449.8591896347652,1456.0581258804682,1460.0438286417614,1463.4495834231761,1467.0847154525268,1470.1791719141524,1473.0878118183318,1474.0688381414807,1477.3199128437884,1480.4820791029729,1481.6471220416825,1483.2299957994755,1485.510146024774,1487.9785076951828,1490.6745051677203,1493.3912565605583,1495.7094056666897,1498.2043474848845,1499.5590039957335,1500.7575840550874,1503.1276082027493,1505.0819397662897,1506.5813535288235,1508.0033755172547,1510.5152806226113,1514.511400643946,1518.8326685700192,1524.3613295338591,1526.9081275304607,1530.1018995313693,1532.0858042435357,1533.4632865503104,1535.2295669904577,1537.479263607086,1539.1508686622124,1540.7517105024447,1543.3427631133495,1545.9771501535326,1549.1461691563218,1552.243214819488,1555.5725663093785,1558.6303258338426,1562.222456034714,1564.9359049538373,1567.5351120140185,1569.858710606974,1572.305035625948,1574.052069960178,1576.245490388344,1577.8802767652285,1579.374279195061,1580.9390569506713,1584.0344959063239,1588.5294473080269,1591.2489380723136,1594.9903790794256,1597.2137192036457,1600.7611967456196,1606.5520908519281,1610.6865996654194,1617.0879726893343,1619.529848725909,1625.2527310056128,1630.2079977217525,1633.347534924462,1636.5157147155126,1638.7842872301924,1644.1292707467196,1649.1609596696649,1653.5033929496387,1656.7570830019233,1660.408446321422,1665.053782807506,1667.9940986048816,1670.511703861985,1673.793609479143,1678.024644006101,1681.8553601485619,1684.2855717829075,1686.1024027033873,1688.1415545431025,1693.0191888851543,1695.411801295027,1698.5540482228919,1701.254957007578,1703.9623611568175,1708.3182724526,1714.6199580209477,1719.142938479289,1721.8789427207043,1724.4142460596875,1726.4258842728827,1730.6137440785535,1733.9618124169028,1737.6994153243554,1740.3186617391907,1742.8755736582243,1744.8608204568777,1747.4295925637036,1751.123768549319,1754.5686979259349,1756.6156068324096,1758.4137190284384,1759.8795340541733,1762.0660855699005,1764.2774717747407,1765.7700305170656,1767.3322940668654,1769.2676373986822,1771.4302673152015,1773.1351428848536,1774.7245455292175,1775.9493821444148,1777.569356865749,1779.7799351215444,1781.9981639789585,1783.4631989169357,1786.589689287095,1788.463088185474,1789.7382465480016,1791.9704296922587,1793.478576672079,1794.9829400530098,1798.0537588002283,1801.7198563096842,1804.2668297604878,1807.5469798628121,1810.2974372714332,1812.9677029636136,1814.7816898253807,1816.7895060027586,1818.275812841573,1819.7548618481771,1821.3270985215272,1822.9723305816726,1824.3111001663365,1825.95271233303,1828.1370238935413,1831.6891793917343,1834.4498475228231,1837.0436193456717,1838.6899777343249,1840.6168255777009,1843.963366730248,1846.175460461917,1848.796678012122,1851.6051283677882,1855.4807193221097,1857.065639782731,1858.4283820158264,1859.7416227464846,1861.9815190272664,1864.632420657423,1867.8251447339796,1870.1018453209615,1871.9246973889424,1874.4775554236264,1877.7183899621245,1880.7323959930932,1883.591648683245,1886.9604369337314,1890.7557953894047,1895.7242640333743,1899.4000169749086,1901.2684520766816,1902.5005332725884,1906.6992654749388,1908.7617859443383,1912.301182294705,1915.614536599329,1918.0317069622913,1921.5239113561388,1923.480048428323,1925.2536093195142,1927.0074705755599,1931.3601107312172,1937.6692969000517,1942.8664177493442,1949.0840331954873,1954.0960512350168,1956.814579119014,1963.852003116705,1966.3299119040041,1968.9867754398995,1977.524829685834,1981.689087302672,1987.064261630323,1988.9687034680867,1991.3866392370896,1994.2876732122068,1997.5863745271529,2000.5906826153505,2007.0768952286303,2011.0067479793674,2016.0614875642495,2018.6739220930613,2020.5911338160731,2022.2158990064638,2025.895792626632,2029.3803961983415,2033.1956167506444,2037.274406689022,2040.9943294979385,2043.5838794689112,2046.3175509484897,2048.508258743902,2051.4731341998854,2056.0962381626373,2061.422239609798,2066.6562652984685,2074.5744815979997,2097.5798138510313,2102.4301885202767,2103.251116394654,2104.0728176623343,2104.902536531277,2105.738900575388,2106.56677981442,2107.385543833538,2108.2081621566053,2109.0350001990164,2109.8719928496384,2113.1177267291237,2114.422304734379,2117.818378278202,2121.4979612434,2124.7014885155477,2128.1719742964924,2131.0291341181487,2133.708224425777,2136.7711361911015,2140.435674993228,2142.4480556793796,2144.4824444883634,2147.6424786258763,2151.4639932751397,2154.782199684104,2158.991105769496,2161.924727012515,2164.4337427608575,2166.6049139027236,2170.65551357165,2175.129009468599,2179.617429524704,2182.5403446747746,2188.2365878020264,2192.2258467122538,2196.9136399030895,2200.7078869739653,2206.101296544164,2209.968180280155,2214.8281665779245,2219.7067895546193,2223.733374049123,2229.065572326061,2233.343846394015,2237.3475850806694,2239.229603458712,2240.500505402279,2242.602829409825,2246.742915167498,2249.4285931730606,2251.5948099863617,2253.991790891272,2256.1925933661846,2259.453840501114,2262.0064041841624,2264.622047620473,2266.8135062168717,2268.5141419858505,2269.702406191601,2270.97927454723,2273.191790337857,2275.1777601090166,2277.8281372435345,2284.214778540396,2287.1977521401877,2289.3850704891274,2291.302648606009,2294.0211386706874,2296.3928759184714,2299.0865691046256,2301.831179727287,2304.1606008244603,2305.7978679455023,2307.5248661655964,2309.1241030377228,2310.921229301157,2314.0522448098072,2316.9430338081957,2319.7384231661295,2321.9795206702693,2324.119959843385,2326.7364867080187,2329.034965258438,2330.61602673775,2331.610210133251,2333.693640958636,2334.9134953149915,2337.1983428919348,2339.8979372821054,2342.75402157809,2347.4407073319608,2350.24563402241,2353.143834515205,2357.5904842313807,2363.5508714990033,2368.5853835022076,2374.259856045107,2378.6662399834495,2385.651964924798,2388.351131962887,2390.9240543420738,2400.340918128052,2404.336691412693,2409.0282031892916,2427.1343470634056,2445.12831613035,2456.042242024825,2469.7348932711266,2474.3825674400373,2479.1663467353915,2499.669142475975,2505.0335718388187,2506.7929901320217,2512.3195209697733,2517.6662151045102,2519.152074042257,2520.646912507625,2522.1378973350324,2523.44864790433,2524.770509141814,2526.070956014069,2527.4033308931416,2529.1138154068426,2532.4871869598546,2539.323473232948,2550.284263512393,2556.9451057542014,2563.60594799601,2568.494549670019,2584.801599077642,2601.3976579388245,2619.124536309007,2626.9900253062087,2636.009110548106,2637.531299108389,2640.4162001779064,2642.3552163021777,2646.4628419460514,2649.1688032656034,2650.9587864581017,2662.2132693800754,2668.1841691432955,2671.4915682826368,2673.831925186638,2692.6105990640604,2707.6897156342616,2708.4044901614175,2719.4764232010625,2723.8155282601497,2727.564244696163,2731.3158949761405,2734.3957444838584,2736.845861426987,2739.9461739654585,2752.313066534066,2756.6257151937903,2760.070596728988,2761.1620308397873,2764.431728548177,2770.390775625654,2793.925717335464,2823.197503498243,2837.9041707058377,2847.5723973048885,2854.420258678109,2856.659534101055,2878.6418107236564,2884.397473377334,2897.0068808814367,2899.6564329684497,2906.95736282072,2908.0456907669104,2914.5410024756343,2915.3043473995917,2919.3159609432796,2920.420926586702,2924.2536083990594,2924.7104610831934,2928.80744856469,2936.8803079113045,2943.2097024733957,2945.809804024358,2947.5640564803934,2956.6097030650985,2960.208722351856,2962.586623209756,2965.5463970271417,2966.5308783002306,2968.7353351796396,2973.241012135424,2975.7188489793507,2978.5233321484343,2984.701066249466,2987.2124486322023,2989.497752922052,2993.064720222824,3007.9526651798583,3014.402622103335,3018.224082164619,3023.374206139277,3027.9456679980044,3035.9957664505746,3041.0457642445726,3046.0957620385707,3054.145860491141,3058.7173223498685,3063.867446324526,3067.6889063858102,3074.138863309287,3089.0268082663215,3092.5937755670934,3094.879079856943,3097.3904622396794,3103.568196340711,3106.3726795097946,3108.850516353721,3113.3561933095057,3115.5606501889147,3116.5451314620036,3119.5049052793893,3121.882806137289,3125.4818254240467,3134.527472008752,3136.281724464787,3138.8818260157495,3145.211220577841,3153.2840799244555,3157.381067405952,3157.837920090086,3161.670601902443,3162.7755675458657,3166.7871810895535,3167.550526013511,3174.045837722235,3175.1341656684253,3177.3526097897798,3183.0099488994674,3189.8526929220848,3193.8290666220028,3195.76552766745,3197.294783710129,3199.781434831518,3202.1467200086395,3212.5423719991077,3234.524648621709,3253.9343847591895,3256.64888182648,3257.645616280389,3260.148068419768,3263.297376247457,3263.5784936498276,3265.588026113664,3273.507580370674,3292.230735760844,3301.0047865293345,3306.868761066711,3309.5917697115847,3311.6858170641826,3314.4740632615053,3317.678505256928,3319.995179467495,3326.8499287622576,3330.502052369005,3340.7103716363113,3356.716553103885,3362.4946947487038,3366.323311244309,3367.183535536627,3368.158178148119,3369.1134439086286,3370.3449023439616,3371.3837085636355,3373.810021598054,3374.84151057535,3375.602146642433,3377.4889909226686,3379.0302207224677,3380.608435690009,3381.4159647124748,3382.039925678511,3383.6813444381833,3385.2748493865147,3386.6576380162614,3389.03462044227,3391.8001968356753,3406.3110362505745,3411.575459174155,3418.666064346711,3421.988891184783,3433.5386665205788,3435.817001384033,3440.181365724473,3456.2125639658425,3458.8135795427224,3460.3783802856397,3461.3671702232186,3461.9457268046804,3462.4601480860356,3463.374101437306,3469.1767823495675,3473.9088171321096,3482.164753936006,3525.417107897154,3568.669461858302,3576.9253986621984,3581.6574334447405,3584.759179199576,3587.6757257394815,3589.4284957553627,3590.6696172169923,3592.1602403011284,3594.226685018844,3596.827700595724,3612.8588988370934,3617.223263177533,3619.3024044235394,3627.2940922561647,3631.21264303198,3633.124305612424,3634.41779293674,3635.6167148239915,3636.728280634115,3646.4640847052165,3655.98635740857,3669.288681525173,3677.8859508868013,3684.85927148491,3687.3966024291585,3689.4695275897807,3691.254398801778,3692.91772590726,3694.444871154595,3695.9041247559458,3697.7997131093025,3699.522881699592,3701.3599529324197,3704.133406822874,3705.2416272702676,3706.5999100680833,3707.8284768636777,3709.006357759281,3710.781305326803,3712.4810584026004,3714.8536447126435,3718.8628968613375,3727.493437461339,3732.32933626949,3736.2405741260773,3740.9157943424534,3746.839518313873,3759.472094432186,3767.4429212346768,3778.608083808175,3813.8123672680053,3821.357226217196,3834.509322406322,3846.1960299180673,3860.291994880176,3867.5410082644207,3868.7801735919843,3870.3497445661546,3872.3139535733694,3874.3342310764906,3876.1978960158226,3878.0866751799963,3879.335580941068,3880.6307598447684,3881.8640952423784,3883.7701692319647,3885.33985243546,3887.0134907342263,3888.8219427621448,3891.0569102487925,3893.0994748153244,3895.151128499196,3896.8247692857676,3898.5949572594327,3900.6915337034698,3902.8493493200745,3904.2205112934657,3905.443458406918,3909.194962870341,3912.0781326024253,3914.480349743649,3915.941435501964,3917.3917491763355,3918.7677087840557,3920.9298527754095,3922.850636543987,3924.7432306937785,3926.6583728331343,3928.1478021998164,3932.112106619265,3940.2531669894297,3955.6276854471607,3973.3295930549198,3985.3771422810746,3990.5000375886866,3999.1622414798458,4013.7893647321075,4017.121097681534,4022.75564518359,4025.86598583705,4029.1026567917115,4038.2521560582436,4040.2232881064806,4045.6718247049266,4060.8750452993945,4076.145144571171,4155.411134475244,4216.263278600609,4221.564119555507,4248.166096874411,4268.999306303474,4282.231420219513,4291.786076023466,4309.370447866015,4335.913307148713,4347.85142061238,4366.830401737558,4384.066492087815,4402.943180791313,4426.671795823681,4437.010053850976,4452.539069362702,4457.232383301412,4485.600110672092,4497.083006699282,4516.546056399591,4531.109968939123,4544.526779952556,4557.889246799087,4581.101993047999,4607.343702004627,4620.172242147397,4641.277444044379,4658.740221694007,4680.420135715561,4702.462467906682,4716.993789091143,4747.2643758512995,4758.510119205371,4771.749340241192,4778.368211516351,4798.871942671479,4806.035561398081,4819.727749816898,4854.482346529987,4871.574689794718,4879.513836558946,4882.8623695624965,4886.844248725703,4889.241191527711,4891.4572267849635,4893.261943567756,4895.145487334556,4896.885711434218,4898.43504938855,4900.020461693308,4901.860717890654,4903.818099942403,4905.770214405291,4907.973935737785,4910.100471961762,4912.17602813494,4914.0767691802275,4916.081009642178,4918.603609014605,4920.855928272649,4923.367539756871,4929.672036511667,4939.811900167357,4958.672045192173,4962.898235953808,4970.591903603203,4997.187416221845,4999.042656935964,5000.466447723715,5002.028968538986,5003.549574333239,5005.603145088629,5008.020791381525,5063.149824436225,5065.337409742271,5067.301460943613,5081.336213782051,5119.296809190282,5122.892549165145,5125.480261464577,5127.437252884538,5129.46986642292,5131.169743438631,5132.794273837199,5139.104653756584,5143.6336109495605,5147.705811659796,5151.461197134806,5157.121267373233,5162.42162612578,5168.359933846034,5175.613099982742,5177.098297741639,5202.053426018722,5210.731410572312,5215.106790920331,5219.740626092611,5224.933585647628,5230.008117193181,5236.118284007898,5243.388219465762,5258.266128520195,5266.06558704826,5273.143999651268,5275.846617423142,5282.9273074293305,5289.901441542259,5300.968381082279,5304.749793498658,5305.906907519929,5311.801860476499,5316.140991550053,5323.463717028054,5335.052746417517,5343.717615152568,5352.354095292741,5357.576380690895,5359.152077638886,5363.168719513797,5371.653670778599,5380.243248058746,5392.211871975992,5398.37696807103,5399.526509289653,5400.416960790096,5401.37018884302,5402.225261916235,5402.969296289894,5404.483181886465,5407.062840011204,5417.630206844528,5420.585374534127,5423.099279303066,5424.864773370481,5427.0201649521905,5428.553181522063,5430.122733773188,5431.8967185759975,5433.374896778915,5460.847372717243,5470.42465478568,5474.098731321339,5480.09982278094,5490.680162379697,5493.211596110645,5522.297065497673,5531.103485667942,5535.852083904929,5542.456401142897,5548.387870289044,5555.6745784785135,5567.807036599952,5583.161780580231,5586.340947057908,5599.863537817687,5618.219754996639,5625.484273473607,5632.202549696099,5634.673471155009,5644.134708299844,5677.033614012206,5684.798418116103,5689.678218353585,5691.764942105895,5699.207424370977,5700.477852761956,5701.150102826161,5729.965742806376,5734.2227910306765,5737.36383518489,5745.163105851456,5750.404371364253,5760.955208406619,5768.944089454345,5785.030462819783,5791.88295693493,5801.348991534693,5805.978387000539,5807.041772785825,5808.177094455773,5809.27151073399,5810.094041182786,5811.559752387633,5814.976688162716,5819.225730567494,5840.729794269119,5850.768544493274,5853.791174183488,5857.530356689432,5861.811716044697,5865.977703141915,5868.645697023427,5872.669818021989,5874.497719112049,5879.051133252792,5882.5596906463825,5890.492447312692,5895.305822976726,5917.32740591746,5938.096017002242,5951.566177550361,5953.04618977242,5954.208695690053,5965.948324069232,5979.837063555571,5986.633772773491,5995.2799089389255,6009.792751995759,6024.412904238449,6038.163267169813,6053.09606486446,6073.688675369297,6074.650868664599,6089.032697535994,6103.337201492976,6117.648458642992,6123.749392638037,6133.13309853052,6135.871089461892,6141.811410242502,6165.810961196631,6176.122226116416,6177.707503739078,6179.805832523699,6181.74590086703,6194.684722761675,6214.315478357453,6221.768859172015,6223.068068160274,6225.263351136822,6226.68714641467,6232.587727624646,6237.193646288725,6244.744714537604,6252.650882647658,6266.832685966909,6268.594378558742,6270.6907585041,6273.546723974021,6303.083819766595,6337.062202940203,6383.147491279334,6395.757493472367,6413.995111999799,6425.110030639881,6427.655289212018,6443.3456422902855,6457.208239040688,6471.828386874869,6486.761180155414,6506.626141466424,6527.9298877891315,6531.206864231592,6536.138331623274,6554.518360469835,6558.626859327399,6571.0887298664875,6580.279471109196,6594.101923983583,6609.708163740888,6623.612979708347,6639.479522830771,6693.025286897638,6695.552833615227,6749.26297413571,6766.182831732022,6802.501117745846,6807.311555299643,6808.027024266816,6808.552680689911,6809.233686218067,6809.708986337559,6810.329542731161,6814.125479158098,6824.294432880337,6829.997214536774,6834.921953955274,6845.288004778847,6854.166585393442,6863.045166008037,6875.499826573297,6878.608602956418,6885.31957301128,6900.278313477135,6902.555457067017,6904.955306118174,6907.028690651343,6909.876354212262,6919.883372549331,6923.78893014672,6930.004384892507,6933.898135358385,6944.552927604865,6946.897789692182,6958.433614073736,6961.789113558728,6968.49331212849,6976.677269315637,6980.924368517617,6992.566997493528,6998.667927763475,7001.193144268696,7014.244893869976,7016.748840007328,7018.921901472135,7020.705011786707,7023.247199443331,7024.740509672726,7028.914665209062,7033.295041010787,7037.617692018938,7043.14424437052,7106.615256706211,7150.390464450407,7170.911572187034,7176.580716474267,7181.092908044024,7183.50578673228,7185.726599547851,7191.3487647293005,7196.262692208287,7199.75447337654,7202.709180550856,7204.731926932806,7206.7240721777935,7210.096236469178,7215.292643409781,7220.114001521327,7222.785351108887,7226.517839160847,7229.068891223113,7230.4491922960215,7231.824506108979,7233.182230386762,7235.852922930288,7237.847839913532,7241.386322945822,7251.8208895958915,7266.594968213849,7273.463370706476,7303.748071233692,7341.994046016277,7353.646958722481,7359.335136811084,7369.021529742401,7401.011348045626,7414.681321155413,7425.274188830382,7456.4376297690405,7484.461414541599,7504.162641636156,7529.586418905412,7543.899643553166,7590.278097885085,7599.621528722213,7630.586671191266,7649.4930533548295,7674.55642592326,7680.012003281229,7696.3457388689885,7707.640401726555,7715.004030912533,7728.81245648163,7740.449085614789,7756.974743271336,7770.609861820697,7781.862883420063,7786.838644320475,7790.439134542867,7793.943084564522,7799.335964566415,7804.827701414582,7810.282324644841,7817.895010861469,7827.408133923037,7839.192701699085,7847.728219574844,7853.997671459223,7861.676584418922,7869.374723087013,7876.958150312617,7882.657663463032,7887.966690043164,7893.887107882273,7912.974534733795,7918.107825345393,7924.14161708554,7955.117851173258,7974.237652588889,7992.976408861805,8002.004996184165,8012.970866189924,8029.570291966093,8034.71912175035,8038.0070549077955,8044.778394080089,8058.404883239081,8064.702813532862,8070.752680751779,8073.378066550946,8075.573630683759,8079.994483155494,8123.30729605759,8180.779050799299,8199.624413973304,8219.16309965357,8239.016317408164,8241.78402609756,8261.879595028802,8271.940463315585,8273.237279021072,8292.828215287502,8311.206291415447,8329.60433216084,8341.194361919568,8343.993053782691,8345.113306571944,8345.888871123188,8348.102749142165,8363.09162768449,8380.45466064265,8420.589798421639,8438.59379827918,8443.03453267359,8444.882133668509,8448.413589711272,8450.09637063546,8451.481943485385,8452.8675163408,8453.775310848823,8455.132861147162,8455.989078212762,8456.847609340633,8460.690515524786,8465.528289434598,8478.778065074552,8481.012059522858,8483.36776293226,8485.964904973318,8488.126574328262,8489.824149348324,8493.063766892788,8496.211252498902,8500.318832264311,8508.909325280427,8511.76844787071,8515.580572086383,8541.093594766511,8546.669078261666,8550.32998957105,8552.331967126875,8556.02566422137,8560.52507306462,8571.836734821756,8574.285499385192,8576.691391083677,8579.952195338472,8583.06863115363,8588.72973608095,8591.576010640789,8594.725639560214,8598.103192059682]],"source":"synthetic_demo"},"geometry":{"type":"MultiLineString","coordinates":[[[51.283,35.754],[51.280116,35.753928],[51.276754,35.754052],[51.276461,35.75406],[51.274992,35.754126],[51.273844,35.754206],[51.273118,35.754281],[51.272615,35.754413],[51.271698,35.754677],[51.270414,35.755257],[51.269845,35.75553],[51.268995,35.756032],[51.268201,35.756462],[51.267293,35.756882],[51.266063,35.757255],[51.265504,35.757353],[51.264657,35.757469],[51.264401,35.757504],[51.262845,35.757668],[51.261427,35.758005],[51.260673,35.758229],[51.25999,35.758517],[51.259387,35.758828],[51.259205,35.758954],[51.258913,35.759274],[51.258769,35.759494],[51.258656,35.759753],[51.258584,35.760023],[51.258554,35.760259],[51.258583,35.760523],[51.258678,35.760828],[51.25879,35.761055],[51.258896,35.761232],[51.259044,35.761413],[51.259255,35.761616],[51.259428,35.761732],[51.259606,35.761832],[51.260229,35.762188],[51.260725,35.762481],[51.261442,35.762954],[51.2619,35.763397],[51.26218,35.763764],[51.262701,35.764661],[51.262848,35.765057],[51.262962,35.765458],[51.262985,35.765731],[51.262988,35.765969],[51.262989,35.766025],[51.262998,35.766494],[51.262937,35.767079],[51.262604,35.768363],[51.262444,35.768934],[51.262363,35.769475],[51.262345,35.770034],[51.262423,35.770649],[51.262647,35.771333],[51.262886,35.772105],[51.26299,35.772444],[51.263142,35.773003],[51.263246,35.773498],[51.263293,35.773862],[51.263418,35.77487],[51.263547,35.776045],[51.263727,35.776175],[51.263813,35.7767],[51.263729,35.777494],[51.263674,35.777753],[51.263697,35.778384],[51.263489,35.778674],[51.263228,35.779033],[51.262989,35.779275],[51.262821,35.779484],[51.262559,35.779875],[51.262464,35.780097],[51.262441,35.780285],[51.262539,35.780791],[51.262648,35.781361],[51.262907,35.781172],[51.26344,35.780791],[51.26369,35.780672],[51.263958,35.780583],[51.264498,35.780443],[51.264729,35.780354],[51.265001,35.780196],[51.265243,35.780005],[51.265757,35.779516],[51.266216,35.779085],[51.266837,35.778554],[51.267505,35.778033],[51.267754,35.777822],[51.267916,35.777598],[51.268037,35.777345],[51.268166,35.777083],[51.26843,35.776678],[51.268761,35.77627],[51.269029,35.776027],[51.269271,35.775829],[51.269689,35.775587],[51.271206,35.774798],[51.271714,35.77454],[51.271798,35.774498],[51.273057,35.773803],[51.273371,35.773619],[51.273569,35.77348],[51.273614,35.773429],[51.273714,35.773343],[51.273827,35.773268],[51.273952,35.773206],[51.274032,35.773175],[51.274115,35.773149],[51.274188,35.773139],[51.274259,35.773155],[51.274316,35.773193],[51.274349,35.773246],[51.274346,35.773322],[51.274296,35.773387],[51.274344,35.773476],[51.274381,35.773536],[51.274458,35.773644],[51.27447,35.773662],[51.274532,35.773777],[51.274587,35.774004],[51.274685,35.774134],[51.274739,35.774076],[51.274374,35.774227],[51.274163,35.774302],[51.274374,35.774227],[51.274739,35.774076],[51.274685,35.774134],[51.274587,35.774004],[51.274391,35.773713],[51.274292,35.77364],[51.274178,35.773596],[51.27404,35.773565],[51.273913,35.773617],[51.273779,35.773653],[51.273731,35.773662],[51.273682,35.773658],[51.273531,35.773709],[51.273206,35.773774],[51.273057,35.773803],[51.271798,35.774498],[51.271714,35.77454],[51.271206,35.774798],[51.269689,35.775587],[51.269271,35.775829],[51.269029,35.776027],[51.268974,35.776201],[51.269096,35.776318],[51.26921,35.776453],[51.269286,35.776578],[51.269348,35.776699],[51.269331,35.776741],[51.269154,35.776767],[51.268982,35.776793],[51.268926,35.776819],[51.268943,35.776889],[51.269057,35.776933],[51.269193,35.776943],[51.269322,35.777004],[51.269447,35.777072],[51.269552,35.777132],[51.269681,35.777172],[51.269716,35.777226],[51.269656,35.777249],[51.269533,35.777212],[51.269428,35.777191],[51.26935,35.777214],[51.269314,35.777271],[51.269281,35.777381],[51.26929,35.777561],[51.269357,35.777748],[51.269425,35.777991],[51.269492,35.778092],[51.269606,35.778202],[51.269697,35.778252],[51.269772,35.778263],[51.269698,35.778211],[51.269617,35.778134],[51.269608,35.778059],[51.269659,35.778],[51.269756,35.777914],[51.269869,35.777839],[51.270038,35.777801],[51.270196,35.777747],[51.270379,35.77773],[51.270548,35.777724],[51.270726,35.777796],[51.270863,35.777846],[51.271002,35.777876],[51.271124,35.777843],[51.271247,35.777797],[51.271305,35.777734],[51.271367,35.777649],[51.271455,35.777632],[51.271506,35.777685],[51.271488,35.777754],[51.271391,35.777869],[51.27124,35.77803],[51.271134,35.778117],[51.271037,35.778266],[51.271158,35.778284],[51.271351,35.778255],[51.271638,35.778139],[51.271858,35.778088],[51.272212,35.77808],[51.272347,35.778084],[51.272661,35.778051],[51.272935,35.778044],[51.273105,35.778015],[51.273244,35.777928],[51.273361,35.777891],[51.273648,35.777949],[51.273922,35.777989],[51.274159,35.777957],[51.274339,35.777957],[51.274541,35.777957],[51.274796,35.777931],[51.274944,35.777986],[51.275044,35.778065],[51.275099,35.778206],[51.275165,35.778389],[51.275235,35.778552],[51.275308,35.778644],[51.275402,35.778673],[51.275514,35.778662],[51.275736,35.778537],[51.275868,35.778529],[51.275966,35.778646],[51.276035,35.778754],[51.276132,35.778847],[51.276307,35.778982],[51.276532,35.779199],[51.276696,35.779353],[51.276794,35.779447],[51.276882,35.779536],[51.276957,35.779603],[51.277078,35.779764],[51.27717,35.779895],[51.27731,35.780019],[51.277383,35.780121],[51.277444,35.780225],[51.277502,35.780301],[51.277585,35.780395],[51.277708,35.780528],[51.277793,35.780667],[51.277818,35.780757],[51.277866,35.780828],[51.27787,35.780894],[51.277922,35.780983],[51.277995,35.781063],[51.278024,35.781126],[51.278065,35.781188],[51.278098,35.781271],[51.278144,35.781361],[51.278177,35.781433],[51.278214,35.781498],[51.27822,35.781553],[51.278235,35.781625],[51.278221,35.781724],[51.278221,35.781824],[51.278218,35.78189],[51.278238,35.78203],[51.278337,35.782055],[51.278404,35.782037],[51.278489,35.781964],[51.278559,35.781927],[51.278619,35.78188],[51.278761,35.781804],[51.278948,35.78174],[51.279073,35.781687],[51.279236,35.781622],[51.279359,35.781549],[51.279466,35.781466],[51.279506,35.781391],[51.279532,35.781303],[51.27956,35.78124],[51.279608,35.781186],[51.279672,35.781138],[51.279718,35.781074],[51.279726,35.781014],[51.279705,35.780942],[51.279669,35.780848],[51.279597,35.780699],[51.279533,35.780586],[51.279478,35.780478],[51.279471,35.780404],[51.279486,35.780318],[51.279545,35.780175],[51.279609,35.78009],[51.279719,35.780013],[51.279866,35.779972],[51.280075,35.779933],[51.280154,35.779902],[51.280185,35.779846],[51.280179,35.779787],[51.280137,35.779692],[51.280093,35.779578],[51.280052,35.779438],[51.280038,35.779336],[51.280055,35.779255],[51.28011,35.779149],[51.280219,35.779033],[51.280337,35.778937],[51.280475,35.778874],[51.280653,35.778829],[51.280858,35.778792],[51.281117,35.778717],[51.281312,35.77867],[51.281373,35.778602],[51.281346,35.778551],[51.281143,35.778459],[51.281051,35.778404],[51.280914,35.77829],[51.28081,35.778167],[51.280779,35.778061],[51.280805,35.777905],[51.280798,35.777817],[51.280764,35.777742],[51.280692,35.777689],[51.28047,35.777613],[51.280134,35.777536],[51.279848,35.777512],[51.280137,35.77736],[51.280414,35.77735],[51.280543,35.777287],[51.280923,35.777218],[51.281043,35.777164],[51.281187,35.77714],[51.28164,35.777031],[51.281867,35.777063],[51.282121,35.777189],[51.282182,35.777259],[51.282183,35.777368],[51.282226,35.777494],[51.282374,35.777581],[51.282509,35.77766],[51.282729,35.777891],[51.282859,35.778033],[51.283092,35.778159],[51.28321,35.778227],[51.283316,35.778224],[51.283398,35.778194],[51.283526,35.778065],[51.283684,35.777975],[51.283834,35.777854],[51.283856,35.777671],[51.284001,35.777552],[51.284144,35.777559],[51.284264,35.777634],[51.284249,35.777732],[51.284182,35.777854],[51.284106,35.778053],[51.28401,35.77828],[51.283919,35.778504],[51.283827,35.778853],[51.283809,35.77989],[51.283776,35.780107],[51.283821,35.780112],[51.283862,35.780128],[51.283895,35.780154],[51.283915,35.780188],[51.283921,35.780225],[51.283911,35.780261],[51.283888,35.780293],[51.283853,35.780317],[51.28381,35.780331],[51.283897,35.780459],[51.283935,35.780509],[51.284113,35.780558],[51.284284,35.780648],[51.284452,35.780694],[51.284644,35.780694],[51.284793,35.780651],[51.284912,35.780579],[51.284989,35.780456],[51.284999,35.780291],[51.284985,35.780201],[51.284971,35.78011],[51.284957,35.779968],[51.284969,35.779796],[51.285003,35.779649],[51.28509,35.779473],[51.285143,35.779348],[51.285188,35.779241],[51.285229,35.779149],[51.285325,35.778984],[51.285439,35.778805],[51.28555,35.778624],[51.285608,35.778501],[51.28568,35.778251],[51.285752,35.778081],[51.285815,35.777876],[51.28582,35.777705],[51.2861,35.777621],[51.286306,35.777574],[51.286571,35.777537],[51.286839,35.777511],[51.287056,35.77747],[51.287344,35.777418],[51.287575,35.777376],[51.287794,35.777349],[51.287898,35.777345],[51.287967,35.777356],[51.288073,35.777395],[51.288264,35.777498],[51.288371,35.777582],[51.28843,35.777667],[51.288466,35.777771],[51.288474,35.77787],[51.288471,35.778017],[51.288466,35.778132],[51.288484,35.778249],[51.288534,35.778339],[51.288615,35.778378],[51.28868,35.77837],[51.288715,35.77832],[51.288777,35.778234],[51.288837,35.778159],[51.288947,35.77808],[51.289261,35.777948],[51.28942,35.777912],[51.289541,35.777913],[51.289638,35.777948],[51.289755,35.778025],[51.289852,35.778097],[51.28994,35.778195],[51.289977,35.778315],[51.289975,35.77842],[51.290013,35.778487],[51.290105,35.778508],[51.290186,35.778479],[51.290259,35.778424],[51.29038,35.778323],[51.290484,35.778224],[51.290587,35.77813],[51.290691,35.778075],[51.290806,35.778052],[51.29095,35.77804],[51.291075,35.778021],[51.291161,35.778008],[51.291216,35.778008],[51.291282,35.778085],[51.2913,35.778138],[51.291299,35.778241],[51.291315,35.778362],[51.291341,35.778489],[51.291417,35.778691],[51.291526,35.778781],[51.291672,35.778835],[51.291912,35.778791],[51.292215,35.778685],[51.292445,35.778557],[51.292729,35.778448],[51.292926,35.778331],[51.293278,35.778201],[51.293427,35.778193],[51.293569,35.778185],[51.29397,35.778456],[51.294191,35.778452],[51.294421,35.778354],[51.294319,35.777542],[51.294029,35.776766],[51.294033,35.776274],[51.294349,35.775713],[51.294515,35.775553],[51.294699,35.775398],[51.295488,35.774734],[51.295633,35.774523],[51.295681,35.774454],[51.295721,35.774207],[51.295716,35.773966],[51.295651,35.773925],[51.295605,35.773869],[51.295584,35.773804],[51.295588,35.773745],[51.295613,35.773689],[51.295656,35.773642],[51.295715,35.773606],[51.295699,35.77353],[51.295639,35.773386],[51.295481,35.773106],[51.295198,35.772669],[51.294874,35.772812],[51.295198,35.772669],[51.295072,35.772474],[51.294626,35.771835],[51.294165,35.771188],[51.293662,35.770502],[51.293434,35.7702],[51.29317,35.769855],[51.293125,35.769797],[51.293046,35.769684],[51.292987,35.769611],[51.292815,35.76949],[51.292702,35.76941],[51.292619,35.769366],[51.292143,35.769039],[51.291891,35.768865],[51.291748,35.768772],[51.291647,35.768706],[51.290838,35.768175],[51.290188,35.767749],[51.290157,35.767729],[51.289677,35.767419],[51.289501,35.767286],[51.28937,35.767155],[51.289279,35.767003],[51.289213,35.766875],[51.289161,35.766773],[51.289095,35.766644],[51.288833,35.766129],[51.288689,35.765974],[51.288557,35.765862],[51.288503,35.76584],[51.288332,35.765792],[51.288021,35.765703],[51.286781,35.76538],[51.285249,35.764953],[51.284475,35.764749],[51.283972,35.764601],[51.28362,35.764487],[51.283501,35.764459],[51.282341,35.764162],[51.28222,35.764402],[51.281708,35.764016],[51.281582,35.763955],[51.281248,35.76377],[51.281192,35.763788],[51.280882,35.763936],[51.280844,35.763951],[51.280645,35.764031],[51.280586,35.764044],[51.280382,35.764091],[51.280357,35.764094],[51.280132,35.764116],[51.279692,35.764054],[51.279348,35.764001],[51.27921,35.764034],[51.279153,35.764098],[51.279069,35.7645],[51.279058,35.764662],[51.27905,35.764769],[51.279119,35.76489],[51.279154,35.764924],[51.279234,35.764999],[51.279418,35.765136],[51.279383,35.765244],[51.27924,35.765293],[51.278901,35.765328],[51.278772,35.76537],[51.278655,35.765409],[51.278474,35.765473],[51.277719,35.765741],[51.277376,35.765821],[51.277171,35.765863],[51.276899,35.765932],[51.276663,35.766006],[51.27646,35.765683],[51.276229,35.765811],[51.27646,35.765683],[51.276663,35.766006],[51.276899,35.765932],[51.277171,35.765863],[51.277376,35.765821],[51.277719,35.765741],[51.278474,35.765473],[51.278655,35.765409],[51.278772,35.76537],[51.278901,35.765328],[51.27924,35.765293],[51.279383,35.765244],[51.279418,35.765136],[51.279234,35.764999],[51.279154,35.764924],[51.279119,35.76489],[51.27905,35.764769],[51.279058,35.764662],[51.279069,35.7645],[51.279153,35.764098],[51.27921,35.764034],[51.279348,35.764001],[51.279692,35.764054],[51.280132,35.764116],[51.280357,35.764094],[51.280382,35.764091],[51.280586,35.764044],[51.280645,35.764031],[51.280844,35.763951],[51.280882,35.763936],[51.281192,35.763788],[51.281248,35.76377],[51.281362,35.763733],[51.281629,35.7636],[51.281965,35.763458],[51.282169,35.763391],[51.282233,35.763461],[51.282284,35.763516],[51.282366,35.763606],[51.28243,35.763699],[51.282341,35.764162],[51.283501,35.764459],[51.283814,35.763622],[51.283858,35.763505],[51.283874,35.763462],[51.283914,35.763354],[51.283964,35.763218],[51.283969,35.763206],[51.284079,35.763219],[51.284517,35.763224],[51.285551,35.763177],[51.286035,35.763148],[51.28635,35.763085],[51.286487,35.763034],[51.286586,35.762985],[51.28673,35.76294],[51.286901,35.762902],[51.287027,35.762883],[51.287405,35.762859],[51.287607,35.762858],[51.28817,35.762823],[51.28905,35.762744],[51.289368,35.762718],[51.289574,35.762678],[51.289614,35.762657],[51.289662,35.762637],[51.28971,35.762619],[51.289774,35.7626],[51.289828,35.762584],[51.289962,35.762578],[51.290019,35.76258],[51.290061,35.762582],[51.290163,35.7626],[51.290243,35.762624],[51.290319,35.762659],[51.290346,35.762688],[51.290364,35.762712],[51.290449,35.762738],[51.290534,35.762757],[51.29061,35.762764],[51.29074,35.76278],[51.290892,35.762794],[51.291691,35.762856],[51.29198,35.762885],[51.292344,35.762766],[51.292525,35.76274],[51.293154,35.762831],[51.293269,35.762873],[51.293504,35.762918],[51.294367,35.763084],[51.294507,35.763111],[51.29459,35.763091],[51.294643,35.76308],[51.29467,35.763066],[51.294679,35.763044],[51.294684,35.763003],[51.294631,35.762745],[51.294563,35.762539],[51.294422,35.762185],[51.292039,35.762357],[51.294422,35.762185],[51.294563,35.762539],[51.294631,35.762745],[51.294691,35.762876],[51.294748,35.762999],[51.29475,35.763078],[51.294702,35.763118],[51.29462,35.763125],[51.294507,35.763111],[51.294367,35.763084],[51.293504,35.762918],[51.293269,35.762873],[51.293154,35.762873],[51.292719,35.762809],[51.292505,35.762781],[51.292405,35.762809],[51.292378,35.762863],[51.292391,35.762916],[51.292435,35.762951],[51.292966,35.763024],[51.293477,35.763128],[51.29421,35.76318],[51.294679,35.763244],[51.295064,35.763225],[51.295204,35.763217],[51.295316,35.763197],[51.295409,35.76317],[51.295491,35.763136],[51.295563,35.7631],[51.295628,35.763061],[51.295705,35.763003],[51.295767,35.762944],[51.295825,35.762876],[51.295888,35.762762],[51.295905,35.762714],[51.29592,35.762654],[51.295928,35.762599],[51.295932,35.762546],[51.295934,35.762466],[51.295922,35.76239],[51.295897,35.762285],[51.295837,35.762111],[51.295719,35.761734],[51.295662,35.761521],[51.295627,35.761347],[51.295605,35.761137],[51.295576,35.760871],[51.295605,35.760302],[51.295586,35.759943],[51.295541,35.759441],[51.295402,35.757858],[51.295368,35.757519],[51.295296,35.756929],[51.295218,35.756406],[51.295116,35.755776],[51.294982,35.755468],[51.29497,35.755413],[51.294946,35.755345],[51.294905,35.755263],[51.294859,35.75518],[51.294802,35.75511],[51.294736,35.755044],[51.29469,35.755002],[51.294639,35.754961],[51.294586,35.754926],[51.294504,35.754872],[51.29443,35.754835],[51.294348,35.7548],[51.294255,35.75477],[51.294137,35.75474],[51.294029,35.754713],[51.293923,35.75468],[51.293841,35.754645],[51.293761,35.754599],[51.293678,35.754533],[51.293602,35.754458],[51.293561,35.754406],[51.29353,35.754357],[51.293447,35.754202],[51.293392,35.75408],[51.293295,35.754006],[51.293241,35.753957],[51.293184,35.753911],[51.293128,35.753869],[51.293031,35.753812],[51.292941,35.753766],[51.292845,35.753732],[51.292744,35.753706],[51.292664,35.75369],[51.292449,35.753655],[51.291999,35.753667],[51.291149,35.753685],[51.29017,35.753687],[51.289504,35.753703],[51.289221,35.753714],[51.288743,35.75374],[51.287935,35.753772],[51.287751,35.75378],[51.28744,35.753796],[51.287268,35.753798],[51.287089,35.753797],[51.286583,35.753794],[51.286476,35.753777],[51.28618,35.753731],[51.285341,35.753776],[51.284497,35.7538],[51.280116,35.753928],[51.276754,35.754052],[51.276461,35.75406],[51.274992,35.754126],[51.273844,35.754206],[51.273118,35.754281],[51.272615,35.754413],[51.271698,35.754677],[51.270414,35.755257],[51.269845,35.75553],[51.268995,35.756032],[51.268201,35.756462],[51.267293,35.756882],[51.266063,35.757255],[51.265504,35.757353],[51.264657,35.757469],[51.264401,35.757504],[51.262845,35.757668],[51.262212,35.75771],[51.261178,35.757954],[51.260424,35.758185],[51.259745,35.758429],[51.259076,35.758685],[51.257914,35.75913],[51.256581,35.759598],[51.25591,35.759786],[51.254794,35.760065],[51.253857,35.760256],[51.252682,35.760451],[51.251473,35.760579],[51.250673,35.760642],[51.249,35.760695],[51.248378,35.760694],[51.247647,35.760659],[51.247282,35.760682],[51.246156,35.760572],[51.245764,35.760525],[51.245027,35.760383],[51.24315,35.760045],[51.24221,35.759963],[51.241771,35.759955],[51.241595,35.760002],[51.241387,35.760061],[51.241262,35.760097],[51.241164,35.760157],[51.241094,35.760215],[51.24103,35.760282],[51.240982,35.76035],[51.240945,35.760413],[51.240918,35.760481],[51.240896,35.760562],[51.240888,35.76065],[51.240889,35.760738],[51.240909,35.760836],[51.240946,35.760927],[51.240999,35.76101],[51.241056,35.761082],[51.241133,35.761147],[51.241241,35.761219],[51.241348,35.761271],[51.241476,35.761315],[51.241801,35.761418],[51.24236,35.761381],[51.243403,35.761366],[51.243633,35.761332],[51.244051,35.761267],[51.245487,35.761007],[51.245586,35.760985],[51.245658,35.760959],[51.245733,35.760924],[51.245803,35.760886],[51.245858,35.760805],[51.245898,35.760701],[51.246257,35.758233],[51.246362,35.758184],[51.24635,35.758272],[51.246246,35.758899],[51.246005,35.760599],[51.246012,35.760761],[51.246063,35.76087],[51.24612,35.760945],[51.246215,35.760994],[51.246298,35.76103],[51.246382,35.761056],[51.246718,35.761133],[51.246965,35.761167],[51.247187,35.761198],[51.247394,35.761212],[51.247707,35.761217],[51.248,35.761209],[51.248328,35.761195],[51.248727,35.761229],[51.248809,35.761233],[51.250181,35.76111],[51.25066,35.761085],[51.250902,35.761084],[51.251157,35.761105],[51.25144,35.761145],[51.251706,35.761218],[51.252009,35.76134],[51.252369,35.761486],[51.253105,35.761786],[51.253491,35.761943],[51.253841,35.762086],[51.253975,35.76214],[51.254322,35.762288],[51.254668,35.762427],[51.255218,35.762646],[51.2554,35.76273],[51.255454,35.762758],[51.25578,35.762763],[51.25602,35.762764],[51.256425,35.762768],[51.257066,35.762766],[51.257545,35.762779],[51.258022,35.7628],[51.258308,35.762833],[51.258229,35.762863],[51.258007,35.762856],[51.257538,35.762842],[51.257063,35.762834],[51.256401,35.762835],[51.25606,35.762835],[51.255997,35.762842],[51.25595,35.762854],[51.255904,35.762875],[51.255868,35.7629],[51.255842,35.762926],[51.255807,35.762988],[51.255915,35.763064],[51.256348,35.763384],[51.256456,35.763484],[51.256514,35.763587],[51.256543,35.763663],[51.256536,35.76376],[51.256504,35.763824],[51.25643,35.763861],[51.256332,35.763857],[51.256264,35.76382],[51.255196,35.762939],[51.254797,35.762655],[51.254635,35.762555],[51.254354,35.762411],[51.253842,35.76218],[51.253718,35.762127],[51.252274,35.761549],[51.251835,35.761377],[51.251589,35.761302],[51.25123,35.761247],[51.250904,35.761217],[51.250501,35.761221],[51.249834,35.761281],[51.248991,35.761365],[51.248816,35.761379],[51.248071,35.761433],[51.24706,35.761509],[51.24666,35.76154],[51.24629,35.761568],[51.246154,35.761579],[51.245633,35.761619],[51.243817,35.761713],[51.243389,35.761742],[51.24312,35.76176],[51.243005,35.761768],[51.242595,35.761798],[51.242525,35.761803],[51.242488,35.761806],[51.240901,35.761926],[51.240666,35.761938],[51.240493,35.761951],[51.240066,35.762001],[51.239778,35.762028],[51.239208,35.76213],[51.238769,35.762171],[51.237882,35.762114],[51.237503,35.762117],[51.23698,35.762137],[51.236728,35.7621],[51.236674,35.762081],[51.236626,35.762048],[51.236612,35.762],[51.236615,35.761963],[51.236668,35.761913],[51.236845,35.761859],[51.237055,35.761773],[51.238237,35.761665],[51.238771,35.761541],[51.238927,35.761492],[51.239097,35.761396],[51.239249,35.761248],[51.239352,35.76108],[51.239391,35.760964],[51.239406,35.760783],[51.239416,35.760701],[51.239429,35.760496],[51.239438,35.760338],[51.239491,35.759983],[51.239527,35.759768],[51.239679,35.758783],[51.239775,35.75785],[51.239852,35.757246],[51.239864,35.75718],[51.239872,35.757128],[51.239954,35.756603],[51.240042,35.755981],[51.240089,35.755677],[51.240146,35.75529],[51.240226,35.754639],[51.240316,35.753984],[51.240401,35.753368],[51.240493,35.752699],[51.240615,35.751776],[51.240622,35.751733],[51.240714,35.751089],[51.240811,35.750449],[51.240911,35.749809],[51.240952,35.749536],[51.241014,35.749116],[51.241037,35.748994],[51.241075,35.748728],[51.241225,35.747653],[51.241288,35.747191],[51.241298,35.74712],[51.241311,35.747026],[51.241322,35.746939],[51.241398,35.746359],[51.241524,35.74548],[51.241569,35.745146],[51.241579,35.745088],[51.2417,35.745096],[51.241694,35.74516],[51.241654,35.745424],[51.241634,35.745631],[51.241596,35.74597],[51.241557,35.746325],[51.241477,35.746961],[51.241467,35.74704],[51.241455,35.747134],[51.241298,35.74712],[51.239673,35.746985],[51.237807,35.746805],[51.235274,35.746576],[51.235197,35.747141],[51.235084,35.747958],[51.235016,35.748456],[51.235,35.74857],[51.234904,35.749273],[51.234818,35.749894],[51.234728,35.750549],[51.234636,35.751218],[51.234514,35.752108],[51.235684,35.752221],[51.235702,35.752074],[51.235973,35.752099],[51.236984,35.752185],[51.23701,35.752001],[51.23709,35.751443],[51.237595,35.75149],[51.237702,35.750873],[51.2378,35.750174],[51.237859,35.749549],[51.237943,35.748837],[51.235,35.74857],[51.234861,35.748558],[51.231909,35.74829],[51.230979,35.748206],[51.228983,35.748024],[51.228718,35.748005],[51.228693,35.74798],[51.228686,35.747957],[51.228694,35.747927],[51.22871,35.74791],[51.228741,35.747898],[51.22895,35.747914],[51.229509,35.747964],[51.22948,35.747708],[51.229506,35.747487],[51.229563,35.747022],[51.229074,35.746986],[51.229563,35.747022],[51.229675,35.746468],[51.229817,35.746389],[51.229969,35.746113],[51.229146,35.746045],[51.229023,35.746067],[51.228916,35.746131],[51.228851,35.746208],[51.228828,35.746335],[51.22873,35.746779],[51.228724,35.746955],[51.228681,35.747233],[51.228638,35.747405],[51.22858,35.747883],[51.228565,35.747988],[51.228496,35.748505],[51.228472,35.748655],[51.228427,35.748955],[51.228361,35.74932],[51.228332,35.74951],[51.228254,35.750031],[51.228213,35.750304],[51.228182,35.750415],[51.228117,35.751001],[51.228081,35.75111],[51.227986,35.75117],[51.227906,35.751217],[51.227771,35.751249],[51.227689,35.751241],[51.227469,35.751184],[51.227239,35.751122],[51.227007,35.751169],[51.226726,35.751267],[51.223649,35.752644],[51.221527,35.753594],[51.220532,35.754039],[51.220252,35.754154],[51.220034,35.754253],[51.219927,35.754318],[51.21985,35.754396],[51.219659,35.754596],[51.219556,35.754801],[51.219542,35.754958],[51.219551,35.755091],[51.219569,35.755181],[51.219591,35.755269],[51.219628,35.755418],[51.219694,35.755646],[51.219758,35.755857],[51.219793,35.755974],[51.219864,35.756132],[51.219947,35.756225],[51.219987,35.756278],[51.220038,35.756324],[51.220083,35.756373],[51.22019,35.756456],[51.22029,35.756494],[51.220484,35.756515],[51.221061,35.756506],[51.221878,35.756517],[51.222255,35.756555],[51.223925,35.75666],[51.226012,35.756941],[51.226648,35.757026],[51.226952,35.757092],[51.227481,35.757161],[51.229229,35.757384],[51.229974,35.757489],[51.230552,35.757567],[51.23224,35.757851],[51.233761,35.758094],[51.234827,35.758278],[51.236207,35.758498],[51.23697,35.75867],[51.239479,35.759105],[51.239981,35.759205],[51.241646,35.759532],[51.242661,35.759737],[51.244004,35.760017],[51.244296,35.760079],[51.245185,35.76021],[51.245789,35.76034],[51.246192,35.760388],[51.246954,35.76043],[51.247597,35.760407],[51.248511,35.760413],[51.249264,35.760379],[51.249879,35.760301],[51.250147,35.76025],[51.25034,35.76021],[51.250523,35.760158],[51.250789,35.760048],[51.251042,35.759911],[51.251282,35.759762],[51.25159,35.759528],[51.251966,35.759228],[51.252379,35.758817],[51.252643,35.758498],[51.252818,35.758254],[51.253002,35.757942],[51.253148,35.757616],[51.253262,35.757287],[51.253317,35.757034],[51.253348,35.756796],[51.253387,35.756531],[51.253449,35.755672],[51.253466,35.755441],[51.253463,35.755169],[51.253541,35.753774],[51.253612,35.752914],[51.253679,35.752071],[51.253684,35.751664],[51.253707,35.75117],[51.253734,35.750422],[51.253743,35.75019],[51.253753,35.750042],[51.253719,35.749738],[51.253768,35.749125],[51.253796,35.748842],[51.253684,35.748585],[51.253617,35.74848],[51.253549,35.748398],[51.253375,35.748258],[51.250995,35.748038],[51.247837,35.747746],[51.247729,35.748591],[51.247616,35.749467],[51.2475,35.750357],[51.247483,35.750481],[51.247356,35.751381],[51.247297,35.751832],[51.247288,35.75189],[51.24716,35.752767],[51.247043,35.75359],[51.246927,35.754414],[51.246853,35.754933],[51.246845,35.755059],[51.24686,35.755108],[51.24687,35.755142],[51.24693,35.755229],[51.247753,35.75531],[51.248708,35.755392],[51.250912,35.755607],[51.251902,35.755694],[51.252147,35.755708],[51.252249,35.755713],[51.252444,35.755704],[51.25253,35.755675],[51.252606,35.755667],[51.252682,35.755675],[51.25273,35.755687],[51.252794,35.755719],[51.252829,35.755745],[51.252859,35.755775],[51.253055,35.755842],[51.253316,35.75589],[51.254043,35.755815],[51.254133,35.755746],[51.254224,35.75567],[51.254285,35.755564],[51.254355,35.755485],[51.254425,35.755434],[51.254578,35.755358],[51.254728,35.755286],[51.254923,35.755191],[51.255314,35.754971],[51.255436,35.754889],[51.255599,35.75478],[51.256674,35.754035],[51.256925,35.753889],[51.2571,35.753806],[51.257198,35.753764],[51.257381,35.75369],[51.257615,35.753621],[51.258209,35.753461],[51.25834,35.753433],[51.258471,35.753414],[51.258651,35.753405],[51.258823,35.753396],[51.259136,35.753402],[51.259125,35.753274],[51.259084,35.753136],[51.259,35.753]]]}},{"type":"Feature","properties":{"route":14,"color":"#475569","times":[[0,84,108,162,378,423,489,566,621,678,771,783,792,801,849,876,981,1065,1149,1260,1341,1455,1599,1602,1989,2037,2109,2301,2364,2520,2574,2676,2790,2802,2931,2955,3087,3099,3159,3396,3435,3543,3687,3897,3954,4038,4683,4686,4737,4842,5046,5067,5112,5214,5244,5439,5631,5664,6225,6468,6612,6672,6738,6858,7017,7134,7242,7260,7425,7446,7611,7617,7686,7737,7893,8046,8079,8253,8286,8400,8604,8634,8784,8808,8856,8907,8934,8976,9141,9345,9696,9726,9789,9858,9891,9996,10113,10131,10164,10182,10404,10434,10476,10488,10674,10737,10779,11235,11274,11298,11376,12108,12210,12312,12444,12663,12693,12792,13077,13185,13215,13251,13275,13299,13704,13980,14007,14097,14347,14453,14510,14531,14627,14786,14861,14882,14918,15085,15172,15226,15292,15343,15364,15394,15514,15806,15848,15866,16163,16172,16181,16457,16553,16592,16613,16781,16835,16884,16929,16950,17148,17172,17544,17649,17763,17931,18039,18071,18155,18257,18314,18344,18371,18407,18413,18530,18560,18563,18725,19508,19529,19901,19979,19982,20267,20327,20572,20698,20731,20857,20926,20938,21058,21196,21292,21343,21559,21694,21838,21856,21988,22003,22072,22087,22189,22366,22459,22513,22549,22681,22732,22855,22984,22990,23260,23899,23902,23942,24071,24087,24177,24207,24222,24255,24321,24680,24707,24961,25024,25051,25159,25198,25288,25507,25540,25591,25648,25699,25771]]},"geometry":{"type":"MultiLineString","coordinates":[[[51.466,35.763],[51.465,35.748],[51.463,35.745],[51.459,35.741],[51.437,35.743],[51.43,35.741],[51.418,35.74],[51.406,35.744],[51.397,35.741],[51.387,35.744],[51.369,35.74],[51.368,35.74],[51.369,35.741],[51.37,35.741],[51.371,35.734],[51.37,35.73],[51.359,35.72],[51.351,35.721],[51.36,35.72],[51.36,35.72],[51.36,35.72],[51.36,35.72],[51.36,35.72],[51.36,35.719],[51.36,35.719],[51.359,35.718],[51.364,35.719],[51.364,35.719],[51.364,35.719],[51.364,35.719],[51.365,35.719],[51.365,35.719],[51.365,35.719],[51.364,35.718],[51.364,35.718],[51.362,35.716],[51.362,35.716],[51.362,35.716],[51.364,35.717],[51.364,35.717],[51.366,35.717],[51.368,35.714],[51.368,35.714],[51.377,35.706],[51.374,35.705],[51.375,35.703],[51.375,35.703],[51.375,35.703],[51.37,35.702],[51.37,35.702],[51.37,35.702],[51.37,35.702],[51.366,35.702],[51.366,35.702],[51.366,35.702],[51.367,35.703],[51.367,35.703],[51.368,35.706],[51.368,35.706],[51.37,35.712],[51.37,35.712],[51.368,35.712],[51.367,35.711],[51.364,35.712],[51.364,35.711],[51.364,35.711],[51.367,35.711],[51.366,35.709],[51.366,35.709],[51.365,35.707],[51.365,35.707],[51.365,35.706],[51.36,35.708],[51.36,35.709],[51.36,35.709],[51.361,35.712],[51.358,35.712],[51.358,35.712],[51.355,35.713],[51.355,35.711],[51.355,35.711],[51.355,35.711],[51.355,35.711],[51.354,35.71],[51.351,35.707],[51.355,35.705],[51.355,35.703],[51.355,35.703],[51.355,35.703],[51.355,35.703],[51.355,35.703],[51.356,35.705],[51.351,35.707],[51.346,35.707],[51.348,35.707],[51.346,35.708],[51.346,35.708],[51.346,35.708],[51.347,35.707],[51.345,35.707],[51.345,35.707],[51.341,35.707],[51.341,35.709],[51.34,35.709],[51.34,35.709],[51.339,35.71],[51.338,35.709],[51.338,35.709],[51.339,35.707],[51.337,35.707],[51.337,35.71],[51.337,35.71],[51.336,35.718],[51.343,35.717],[51.343,35.717],[51.346,35.717],[51.346,35.719],[51.346,35.719],[51.348,35.724],[51.345,35.725],[51.346,35.726],[51.352,35.726],[51.355,35.728],[51.356,35.73],[51.356,35.73],[51.356,35.73],[51.355,35.73],[51.358,35.73],[51.358,35.732],[51.36,35.732],[51.36,35.734],[51.362,35.734],[51.362,35.734],[51.363,35.733],[51.363,35.733],[51.363,35.733],[51.362,35.731],[51.362,35.731],[51.362,35.731],[51.362,35.734],[51.37,35.735],[51.366,35.735],[51.366,35.736],[51.368,35.736],[51.367,35.736],[51.367,35.735],[51.368,35.736],[51.37,35.736],[51.37,35.736],[51.371,35.736],[51.37,35.736],[51.37,35.736],[51.362,35.736],[51.362,35.735],[51.36,35.734],[51.359,35.736],[51.358,35.734],[51.36,35.736],[51.36,35.735],[51.358,35.734],[51.357,35.737],[51.355,35.737],[51.355,35.737],[51.356,35.737],[51.356,35.737],[51.355,35.737],[51.354,35.738],[51.354,35.738],[51.354,35.738],[51.352,35.734],[51.345,35.735],[51.341,35.736],[51.341,35.737],[51.338,35.738],[51.338,35.738],[51.338,35.738],[51.338,35.738],[51.338,35.738],[51.333,35.737],[51.333,35.737],[51.333,35.737],[51.333,35.737],[51.333,35.737],[51.334,35.737],[51.334,35.737],[51.336,35.736],[51.337,35.731],[51.337,35.731],[51.337,35.728],[51.337,35.728],[51.337,35.728],[51.338,35.728],[51.338,35.728],[51.339,35.727],[51.342,35.731],[51.338,35.731],[51.338,35.731],[51.338,35.733],[51.338,35.733],[51.338,35.735],[51.338,35.735],[51.338,35.736],[51.346,35.734],[51.345,35.734],[51.345,35.734],[51.344,35.731],[51.344,35.731],[51.344,35.729],[51.346,35.728],[51.346,35.728],[51.346,35.728],[51.347,35.73],[51.347,35.73],[51.347,35.73],[51.347,35.73],[51.347,35.73],[51.346,35.73],[51.346,35.73],[51.346,35.73],[51.347,35.73],[51.347,35.73],[51.347,35.73],[51.349,35.73],[51.35,35.727],[51.351,35.732],[51.351,35.732],[51.352,35.734],[51.356,35.734],[51.348,35.735],[51.347,35.737],[51.348,35.748],[51.351,35.75],[51.37,35.749],[51.415,35.752],[51.423,35.749],[51.435,35.749],[51.448,35.751],[51.458,35.756],[51.473,35.757]]]}},{"type":"Feature","properties":{"route":15,"color":"#a16207","times":[[2479,2545,2629,2662,2689,2707,2710,3154,3157,3220,3613,3616,3811,3835,3856,4030,4033,4282,4342,4432,4549,4585,4603,4621,4684,4783,4897,4909,4987,5191,5203,5254,5506,5587,5803,5917,5941,6394,6424,6721,6754,6817,7150,7228,7507,7579,7612,7633,7660,7894,7924,7936,8041,8092,8110,8149,8212,8254,8266,8347,8437,8518,8575,8665,8770,8905,8974,9001,9187,9217,9283,9337,9730,9793,9811,9918,9981,10011,10098,10188,10239,10305,10341,10516,11134,11149,11227,11299,11392,11481,11587,11683,11758,11800,11908,11926,11944,12139,12235,12283,12316,12475,12481,12538,12580,12673,12772,12799,12808,13009,13102,13141,13312,13597,13627,13630,14310,14367,14385,14418,14532,14535,14751,14763,14811,14817,14898,15102,15117,15237,15321,15384,15618,15633,15669,15702,15810,15888,16155,16293,16507,16734,16749,16905,16920,17091,17157,17220,17367,17510,17660,17675,17690,17777,17810,18009,18213,18264,18369,18441,18585,18627,18651,18720,18795,18969,19056,19131,19161,19197,19284,19341]]},"geometry":{"type":"MultiLineString","coordinates":[[[51.347,35.741],[51.333,35.74],[51.315,35.736],[51.309,35.733],[51.304,35.732],[51.302,35.732],[51.302,35.733],[51.302,35.733],[51.301,35.734],[51.301,35.734],[51.301,35.734],[51.301,35.735],[51.301,35.735],[51.301,35.736],[51.303,35.736],[51.303,35.736],[51.304,35.736],[51.304,35.736],[51.306,35.735],[51.305,35.733],[51.305,35.733],[51.305,35.733],[51.303,35.732],[51.302,35.732],[51.303,35.737],[51.302,35.738],[51.302,35.738],[51.301,35.738],[51.3,35.738],[51.3,35.738],[51.299,35.738],[51.298,35.74],[51.298,35.74],[51.298,35.74],[51.298,35.74],[51.299,35.742],[51.301,35.741],[51.301,35.741],[51.301,35.741],[51.301,35.741],[51.304,35.74],[51.308,35.735],[51.308,35.735],[51.313,35.73],[51.325,35.726],[51.327,35.729],[51.329,35.728],[51.329,35.727],[51.33,35.727],[51.33,35.727],[51.332,35.726],[51.332,35.725],[51.332,35.725],[51.332,35.725],[51.33,35.726],[51.331,35.727],[51.329,35.728],[51.331,35.728],[51.331,35.729],[51.333,35.729],[51.333,35.729],[51.333,35.729],[51.329,35.729],[51.329,35.731],[51.329,35.731],[51.329,35.731],[51.332,35.731],[51.333,35.732],[51.333,35.732],[51.333,35.732],[51.33,35.736],[51.326,35.737],[51.326,35.737],[51.324,35.738],[51.324,35.738],[51.324,35.738],[51.321,35.737],[51.321,35.736],[51.322,35.736],[51.322,35.736],[51.327,35.735],[51.326,35.73],[51.324,35.73],[51.322,35.728],[51.322,35.728],[51.322,35.727],[51.317,35.729],[51.314,35.732],[51.314,35.732],[51.314,35.733],[51.314,35.733],[51.316,35.73],[51.313,35.731],[51.309,35.735],[51.304,35.742],[51.304,35.743],[51.306,35.743],[51.306,35.743],[51.307,35.743],[51.304,35.743],[51.304,35.746],[51.304,35.746],[51.304,35.747],[51.309,35.747],[51.307,35.748],[51.307,35.748],[51.307,35.748],[51.307,35.747],[51.306,35.747],[51.306,35.747],[51.302,35.747],[51.302,35.749],[51.302,35.749],[51.302,35.749],[51.302,35.747],[51.301,35.747],[51.301,35.747],[51.301,35.747],[51.303,35.747],[51.304,35.748],[51.304,35.748],[51.304,35.749],[51.304,35.749],[51.304,35.75],[51.308,35.75],[51.308,35.751],[51.308,35.751],[51.308,35.751],[51.31,35.75],[51.31,35.75],[51.312,35.75],[51.311,35.75],[51.311,35.75],[51.311,35.75],[51.309,35.747],[51.312,35.746],[51.312,35.746],[51.312,35.746],[51.309,35.743],[51.309,35.743],[51.307,35.74],[51.311,35.739],[51.31,35.739],[51.31,35.739],[51.308,35.739],[51.308,35.739],[51.306,35.738],[51.304,35.74],[51.302,35.734],[51.302,35.734],[51.302,35.734],[51.301,35.734],[51.301,35.735],[51.302,35.741],[51.304,35.74],[51.302,35.742],[51.301,35.742],[51.294,35.744],[51.295,35.745],[51.295,35.745],[51.295,35.745],[51.294,35.744],[51.294,35.744],[51.294,35.744],[51.287,35.747],[51.283,35.738],[51.286,35.734],[51.304,35.732],[51.309,35.733],[51.315,35.736],[51.333,35.74],[51.347,35.741]]]}},{"type":"Feature","properties":{"route":16,"color":"#0f766e","times":[[0,243,390,462,711,876,1119,1293,1362],[20090,20255,20417,20429,20441,20504,20606,20639,20663,20780,20801]]},"geometry":{"type":"MultiLineString","coordinates":[[[51.279,35.677],[51.238,35.682],[51.212,35.692],[51.219,35.688],[51.187,35.667],[51.187,35.667],[51.186,35.665],[51.186,35.665],[51.185,35.665]],[[51.179,35.704],[51.203,35.695],[51.235,35.683],[51.235,35.682],[51.234,35.683],[51.235,35.685],[51.248,35.698],[51.252,35.704],[51.253,35.709],[51.253,35.736],[51.254,35.74]]]}}]}
