{"type":"FeatureCollection","features":[{"type":"Feature","geometry":{"type":"Polygon","coordinates":[[[51.476,35.692],[51.476,35.694],[51.477,35.697],[51.541,35.761],[51.553,35.758],[51.548,35.73],[51.476,35.692]]]},"properties":{"route":1,"color":"#2563eb","store_count":45,"load_share":4.8,"center":[51.523,35.729]}},{"type":"Feature","geometry":{"type":"Polygon","coordinates":[[[51.467,35.71],[51.467,35.715],[51.468,35.716],[51.496,35.735],[51.498,35.735],[51.512,35.724],[51.51,35.721],[51.478,35.71],[51.467,35.71]]]},"properties":{"route":2,"color":"#0d9488","store_count":30,"load_share":4.0,"center":[51.49,35.721]}},{"type":"Feature","geometry":{"type":"Polygon","coordinates":[[[51.476,35.74],[51.468,35.742],[51.467,35.745],[51.478,35.775],[51.479,35.776],[51.481,35.778],[51.484,35.78],[51.498,35.772],[51.481,35.742],[51.476,35.74]]]},"properties":{"route":3,"color":"#7c3aed","store_count":49,"load_share":6.0,"center":[51.481,35.76]}},{"type":"Feature","geometry":{"type":"Polygon","coordinates":[[[51.491,35.774],[51.417,35.786],[51.416,35.787],[51.416,35.79],[51.471,35.814],[51.492,35.821],[51.534,35.802],[51.491,35.774]]]},"properties":{"route":4,"color":"#d97706","store_count":42,"load_share":6.0,"center":[51.478,35.796]}},{"type":"Feature","geometry":{"type":"Polygon","coordinates":[[[51.44,35.741],[51.417,35.775],[51.417,35.778],[51.42,35.782],[51.423,35.782],[51.435,35.779],[51.448,35.757],[51.447,35.746],[51.444,35.742],[51.442,35.741],[51.44,35.741]]]},"properties":{"route":5,"color":"#0891b2","store_count":48,"load_share":13.6,"center":[51.434,35.763]}},{"type":"Feature","geometry":{"type":"Polygon","coordinates":[[[51.427,35.702],[51.433,35.736],[51.435,35.739],[51.438,35.739],[51.465,35.725],[51.463,35.717],[51.461,35.71],[51.427,35.702]]]},"properties":{"route":6,"color":"#db2777","store_count":43,"load_share":3.4,"center":[51.444,35.72]}},{"type":"Feature","geometry":{"type":"Polygon","coordinates":[[[51.418,35.605],[51.415,35.606],[51.399,35.663],[51.433,35.701],[51.434,35.702],[51.445,35.706],[51.446,35.706],[51.451,35.704],[51.484,35.657],[51.494,35.626],[51.485,35.622],[51.426,35.607],[51.418,35.605]]]},"properties":{"route":7,"color":"#4f46e5","store_count":41,"load_share":6.3,"center":[51.444,35.652]}},{"type":"Feature","geometry":{"type":"Polygon","coordinates":[[[51.383,35.665],[51.364,35.671],[51.361,35.679],[51.367,35.681],[51.38,35.685],[51.413,35.695],[51.413,35.694],[51.409,35.667],[51.383,35.665]]]},"properties":{"route":8,"color":"#65a30d","store_count":31,"load_share":3.0,"center":[51.39,35.678]}},{"type":"Feature","geometry":{"type":"Polygon","coordinates":[[[51.383,35.688],[51.366,35.702],[51.366,35.706],[51.368,35.707],[51.403,35.707],[51.403,35.702],[51.383,35.688]]]},"properties":{"route":9,"color":"#c2410c","store_count":50,"load_share":6.6,"center":[51.384,35.7]}},{"type":"Feature","geometry":{"type":"Polygon","coordinates":[[[51.369,35.709],[51.362,35.717],[51.363,35.72],[51.374,35.728],[51.397,35.737],[51.403,35.736],[51.404,35.722],[51.404,35.72],[51.403,35.712],[51.369,35.709]]]},"properties":{"route":10,"color":"#0284c7","store_count":44,"load_share":3.1,"center":[51.386,35.721]}},{"type":"Feature","geometry":{"type":"Polygon","coordinates":[[[51.396,35.729],[51.373,35.73],[51.362,35.769],[51.362,35.77],[51.364,35.771],[51.412,35.767],[51.413,35.76],[51.411,35.747],[51.396,35.729]]]},"properties":{"route":11,"color":"#9333ea","store_count":46,"load_share":6.9,"center":[51.388,35.751]}},{"type":"Feature","geometry":{"type":"Polygon","coordinates":[[[51.326,35.764],[51.324,35.774],[51.335,35.787],[51.413,35.805],[51.403,35.777],[51.402,35.776],[51.391,35.774],[51.334,35.765],[51.326,35.764]]]},"properties":{"route":12,"color":"#059669","store_count":41,"load_share":6.8,"center":[51.369,35.783]}},{"type":"Feature","geometry":{"type":"Polygon","coordinates":[[[51.324,35.73],[51.31,35.735],[51.308,35.738],[51.308,35.739],[51.311,35.753],[51.322,35.76],[51.344,35.769],[51.356,35.772],[51.36,35.772],[51.36,35.771],[51.357,35.766],[51.324,35.73]]]},"properties":{"route":13,"color":"#be123c","store_count":47,"load_share":11.0,"center":[51.33,35.751]}},{"type":"Feature","geometry":{"type":"Polygon","coordinates":[[[51.439,35.589],[51.359,35.669],[51.312,35.72],[51.326,35.737],[51.338,35.738],[51.354,35.734],[51.448,35.593],[51.439,35.589]]]},"properties":{"route":14,"color":"#475569","store_count":50,"load_share":8.0,"center":[51.374,35.676]}},{"type":"Feature","geometry":{"type":"Polygon","coordinates":[[[51.441,35.588],[51.269,35.671],[51.255,35.693],[51.255,35.701],[51.298,35.747],[51.302,35.751],[51.305,35.749],[51.452,35.597],[51.448,35.591],[51.441,35.588]]]},"properties":{"route":15,"color":"#a16207","store_count":49,"load_share":9.8,"center":[51.34,35.67]}},{"type":"Feature","geometry":{"type":"Polygon","coordinates":[[[51.254,35.69],[51.247,35.691],[51.204,35.711],[51.204,35.715],[51.253,35.702],[51.254,35.691],[51.254,35.69]]]},"properties":{"route":16,"color":"#0f766e","store_count":11,"load_share":0.5,"center":[51.233,35.702]}}]}