{"type":"FeatureCollection","features":[{"type":"Feature","geometry":{"type":"Polygon","coordinates":[[[51.508861076705045,35.66648006804176],[51.50879306700544,35.666412426299146],[51.50871711149159,35.66635067162397],[51.50863397118525,35.666295422741726],[51.50854447908795,35.666247233194674],[51.508449531835176,35.66620658579624],[51.508350080713235,35.66617388779413],[51.50824712212884,35.66614946679037],[51.50814168762684,35.66613356745941],[51.50803483355595,35.666126349096906],[51.5079276304863,35.66612788402388],[51.50782115248431,35.66613815686217],[51.50771646635275,35.66615706468854],[51.507614620943436,35.66618441806573],[51.50751663664974,35.66621994294022],[51.507423495184035,35.6662632833877],[51.50733612974254,35.66631400517884],[51.50725541565603,35.6663716001294],[51.50718216162009,35.66643549119139],[51.5071171015927,35.66650503823413],[51.49111698826149,35.68550492334906],[51.49106267963604,35.68557656063491],[51.49101707466429,35.6856521299168],[51.49098059684521,35.685730929481664],[51.49095358492899,35.68581222761881],[51.490936289770595,35.685895269414374],[51.490928871999394,35.68597928376087],[51.49093140052645,35.68606349051757],[51.49094385190351,35.68614710775461],[51.49096611053955,35.68622935901394],[51.49296603924614,35.69222937653398],[51.49299467843454,35.69230245816048],[51.49303106318767,35.6923732095272],[51.50403088669274,35.711373298349905],[51.50409492585831,35.71146817359217],[51.5110948663294,35.72046822603904],[51.5111508480011,35.72053342817151],[51.511213870804184,35.720594207222966],[51.511283412170876,35.720650059215714],[51.51135889547806,35.7207005210261],[51.51143969482852,35.72074517422498],[51.51543971853827,35.722745192409526],[51.51553676224512,35.72278826485214],[51.51563872767581,35.72282296245324],[51.563639162094475,35.73682310082748],[51.563739167418724,35.73684783383063],[51.563841651183196,35.73686451085465],[51.563945639583785,35.73687297343406],[51.564050144517914,35.73687314115733],[51.564154172974476,35.73686501243107],[51.564256736470405,35.73684866449505],[51.56435686044414,35.73682425268832],[51.56445359351687,35.73679200897289],[51.56454601653324,35.736752239729526],[51.56463325129579,35.73670532284614],[51.56471446891009,35.736651704126864],[51.564788897661124,35.73659189305562],[51.564855830346154,35.73652645795468],[51.56491463099442,35.736456020584114],[51.5679146017317,35.73245599834254],[51.56796533947044,35.73238015980568],[51.568006648020074,35.73230060803772],[51.56803812391872,35.7322181200786],[51.568059459750195,35.73213350164572],[51.56807044714569,35.7320475792637],[51.56807097881777,35.73196119219109],[51.56806104960704,35.73187518422269],[51.56804075653124,35.73179039544764],[51.5680102978363,35.73170765404397],[51.56796997105878,35.73162776818944],[51.56792017011848,35.73155151816784],[51.56786138146993,35.73147964874799],[51.508861076705045,35.66648006804176]]]},"properties":{"group":1,"color":"#2563eb","store_count":45,"label_center":[51.51975927370686,35.70187325393855]}},{"type":"Feature","geometry":{"type":"Polygon","coordinates":[[[51.476227552771405,35.71024327503535],[51.47613023328562,35.71022812318945],[51.47603151307746,35.7102212734068],[51.47593245392981,35.71022279936035],[51.475834121270786,35.710232684637965],[51.475737572715516,35.71025082291897],[51.475643846691916,35.710277019117555],[51.475553951272815,35.71031099148083],[51.47546885333435,35.71035237461897],[51.464468901415415,35.716352326344655],[51.46439294782779,35.71639834570445],[51.46432294846198,35.716450266445875],[51.46425958991421,35.716507579307965],[51.46325958667714,35.717507573260356],[51.4632035292934,35.717569665949775],[51.46315527203241,35.71763597312555],[51.463115287515464,35.717705845416845],[51.45811519450582,35.727705809828194],[51.45711515553127,35.7297058434403],[51.45708443555752,35.729776938142315],[51.457062284711014,35.72985012061139],[51.45704891033431,35.72992470590295],[51.457044437628674,35.72999999594096],[51.45704436594889,35.735999996469566],[51.457048318098714,35.7360707912903],[51.45706014349883,35.7361410004869],[51.457079744338245,35.7362100432189],[51.45710695847868,35.736277348294536],[51.45714156079531,35.73634235889633],[51.46014152044271,35.741342380319885],[51.460188648409755,35.74141174105205],[51.46024417928681,35.741476837583946],[51.460307537977094,35.74153699573081],[51.460378068309176,35.74159159245181],[51.46045503983235,35.74164006230313],[51.46053765538175,35.74168190329431],[51.46062505933444,35.74171668208779],[51.46071634647129,35.741744038487106],[51.460810571352596,35.741763689167634],[51.46090675811056,35.74177543061121],[51.46100391055683,35.74177914121411],[51.461101022500856,35.74177478254648],[51.53010168195603,35.73577471991162],[51.530164891408425,35.735767456693964],[51.53716495626535,35.734767446665735],[51.537257925134575,35.734750225857496],[51.53734832671708,35.734725537739074],[51.53743526119439,35.73469362804633],[51.53751786326105,35.73465481439535],[51.537595310738034,35.73460948312086],[51.537666832756635,35.734558085430514],[51.53773171743156,35.734501132913415],[51.537789318946686,35.734439192447745],[51.53783906398298,35.734372880557835],[51.537880457424606,35.73430285727753],[51.53791308728649,35.73422981957997],[51.53793662881425,35.73415449444035],[51.5379508477157,35.734077631599526],[51.53795560249193,35.733999996101666],[51.53795557859848,35.731999996308865],[51.53795550693229,35.72599999651663],[51.53795092414323,35.72592378546034],[51.53793722149061,35.72584830537783],[51.537914530415385,35.72577428016177],[51.53788306856047,35.725702419749986],[51.53784313768257,35.72563341331692],[51.53779512075737,35.72556792266436],[51.53773947830598,35.72550657587471],[51.53767674397781,35.725449961287666],[51.53760751943227,35.725398621858076],[51.53753246856848,35.725353049949206],[51.53745231115819,35.725313682610945],[51.53736781594304,35.725280897388814],[51.537279793262435,35.72525500870328],[51.481280268745294,35.71125513340458],[51.48122750813005,35.711243266051476],[51.476227552771405,35.71024327503535]]]},"properties":{"group":2,"color":"#0d9488","store_count":49,"label_center":[51.498248587202006,35.726852903172414]}},{"type":"Feature","geometry":{"type":"Polygon","coordinates":[[[51.44211708061479,35.7504302739742],[51.44204890265545,35.75042371230839],[51.44198026574079,35.75042255921921],[51.441911814032835,35.7504268255286],[51.441844189955596,35.75043647119705],[51.441778028166205,35.75045140569934],[51.44171394959903,35.75047148887412],[51.44165255563843,35.75049653223917],[51.441594422475035,35.75052630076034],[51.44154009569833,35.75056051505709],[51.44149008517635,35.75059885402448],[51.44144486027058,35.75064095784654],[51.44140484543092,35.75068643137311],[51.44137041621198,35.750734847828134],[51.44134189574828,35.75078575281498],[51.44131955172126,35.75083866858074],[51.44130359384666,35.75089309850009],[51.44129417190591,35.75094853173602],[51.44129137433986,35.75100444803408],[51.441295227418316,35.7510603226051],[51.44130569499289,35.75111563105047],[51.441322678835796,35.751169854283745],[51.44134601956125,35.751222483402465],[51.44137549812087,35.75127302446456],[51.44141083785912,35.751321003124126],[51.441451707109444,35.75136596908352],[51.44149772230688,35.751407500319765],[51.44154845158767,35.75144520704538],[51.49054854236611,35.784445387902196],[51.49060576017587,35.78448010165933],[51.49066696981541,35.784509954266454],[51.49073155151718,35.78453464345436],[51.496731585294874,35.78653465640527],[51.496796442373096,35.786553335343115],[51.4968632159015,35.786566804822556],[51.49693127722242,35.78657493803145],[51.49699998555318,35.7865776583975],[51.501000014497315,35.78657765816534],[51.50107953297708,35.78657401171518],[51.50115804770786,35.78656312103941],[51.50123456779329,35.78654512358417],[51.5082346093797,35.78454510976883],[51.50826840204556,35.78453465784949],[51.5142684351695,35.78253464435891],[51.51432063641406,35.78251519641238],[51.51437073567425,35.782492371058765],[51.52237076581183,35.77849234646464],[51.52242838994306,35.77846024521411],[51.522481860338054,35.77842368141305],[51.52253065854602,35.77838300958949],[51.52257431142053,35.77833862410288],[51.52261239570708,35.77829095532017],[51.5226445421469,35.7782404654427],[51.522670439056974,35.77818764402451],[51.522689835351834,35.77813300322553],[51.522702542977655,35.778077072845356],[51.52270843873512,35.77802039518643],[51.52270746547349,35.77796351979558],[51.52269963264409,35.777906998135705],[51.522685016208186,35.777851378238836],[51.52266375789986,35.77779719939235],[51.52263606385128,35.777744986910335],[51.52260220259356,35.77769524704005],[51.5225625024527,35.777648462053726],[51.522517348365895,35.77760508557258],[51.52246717814893,35.77756553816869],[51.52241247825107,35.77753020328739],[51.48641258450535,35.75653032429222],[51.48635840756563,35.756501655564925],[51.48630125336508,35.75647712659709],[51.486241596680884,35.756456941148755],[51.48617993307692,35.75644126689853],[51.486116774787355,35.75643023405096],[51.44211708061479,35.7504302739742]]]},"properties":{"group":3,"color":"#7c3aed","store_count":44,"label_center":[51.484551173452495,35.767030263789806]}},{"type":"Feature","geometry":{"type":"Polygon","coordinates":[[[51.559888417792166,35.76950125180094],[51.559944529912975,35.769427715616615],[51.55999150848646,35.76935004352793],[51.56002889926078,35.769268986617995],[51.56005634070084,35.76918532869846],[51.560073567483286,35.76909987873006],[51.560080413061016,35.76901346299978],[51.56007681127233,35.76892691713064],[51.5600627969795,35.76884107800147],[51.56003850573028,35.76875677565442],[51.560004172445986,35.7686748252688],[51.559960129148664,35.76859601927875],[51.559906801749484,35.76852111971087],[51.55984470592945,35.768450850815974],[51.55977444215222,35.768385892066256],[51.55969668985734,35.76832687158536],[51.5596122008901,35.768274360075196],[51.55952179223142,35.76822886529776],[51.55942633809818,35.76819082716579],[51.55932676149034,35.76816061348934],[51.55922402526657,35.76813851641953],[51.55911912283454,35.76812474962385],[51.55901306854608,35.76811944622028],[51.55890688788985,35.76812265749023],[51.55880160757634,35.768134352382745],[51.55869824561117,35.76815441781462],[51.52069861146679,35.777154320589716],[51.5206145082224,35.77717731391725],[51.520533002599834,35.77720585100494],[51.47953331307242,35.79320569140993],[51.479445534101615,35.79324407143507],[51.47936246500861,35.79328887278486],[51.479284811428364,35.793339714896476],[51.479213232997644,35.79339616589329],[51.47914833775189,35.79345774625319],[51.47909067696009,35.793523932881634],[51.47904074044186,35.79359416355468],[51.47899895240619,35.79366784169473],[51.469998762287496,35.81166776917775],[51.46996405600926,35.8117480701148],[51.469939031127595,35.81183072551388],[51.469923921542936,35.811914962919005],[51.46991886849392,35.81199999508712],[51.46991885493807,35.81299999518939],[51.46992480594227,35.813092274296615],[51.46994259594427,35.813183537421935],[51.46997202909749,35.8132727796622],[51.471971971873536,35.81827279697521],[51.47201143879851,35.81835667226847],[51.47206119104201,35.81843683669871],[51.47212071099431,35.81851245620743],[51.47218937941394,35.818582744020866],[51.472266481869674,35.8186469688363],[51.47235121617333,35.81870446243125],[51.4724427007258,35.81875462661646],[51.47253998368976,35.81879693946017],[51.4726420528933,35.81883096071898],[51.47964211734856,35.82083098079776],[51.47975884668561,35.82085843591029],[51.47987862113296,35.820875051541144],[51.47999992826502,35.82088061788035],[51.49300007184934,35.820880616759936],[51.49310778120369,35.82087623065424],[51.49321441830489,35.82086312764016],[51.49331892228462,35.82084143807198],[51.49342025349783,35.82081137772637],[51.52542051831518,35.80981126511053],[51.52551236509601,35.809775435208635],[51.525599665439245,35.809732724679655],[51.52568164470004,35.80968351251223],[51.52575757545366,35.809628235385965],[51.52582678395029,35.809567383796356],[51.52588865609353,35.809501497702044],[51.559888417792166,35.76950125180094]]]},"properties":{"group":4,"color":"#d97706","store_count":49,"label_center":[51.50382915510086,35.801584669698386]}},{"type":"Feature","geometry":{"type":"Polygon","coordinates":[[[51.44700001001563,35.74620270993689],[51.44690051844418,35.74620684523597],[51.4468020590198,35.74621920989679],[51.44670565328704,35.746239675632744],[51.446612301484706,35.74626803010616],[51.44652297216896,35.74630397913115],[51.44643859216489,35.746347149725615],[51.43943862053974,35.75034711728518],[51.439367505104734,35.75039185701303],[51.43930172507339,35.75044172681697],[51.43924183534366,35.75049630602035],[51.42624179223282,35.763496225456024],[51.42618511176546,35.76355891124141],[51.42613620436529,35.76362580456296],[51.4260955365717,35.763696267336734],[51.42606349633108,35.763769627428694],[51.42604038929556,35.76384518506582],[51.42602643590655,35.76392221951098],[51.426021769291104,35.763999995937844],[51.42602174480287,35.76599999610584],[51.426027560678925,35.76608681313314],[51.42604494127064,35.76617259778428],[51.42607367991602,35.76625632986532],[51.431073557586664,35.77825636871722],[51.431105223945444,35.77832252345642],[51.431143988050295,35.77838611984763],[51.43118954242383,35.77844665341657],[51.4312415257229,35.77850364398347],[51.432241522663695,35.77950365022906],[51.43230639941658,35.7795623330955],[51.43237808340344,35.77961549712783],[51.43245587110496,35.779662620555655],[51.43253899909363,35.779703240892374],[51.432626651526476,35.77973695947449],[51.43271796815236,35.779763445374584],[51.43281205275533,35.77978243864934],[51.43290798195108,35.77979375289105],[51.44590811023822,35.7807937617947],[51.44593684001317,35.78079562277826],[51.464937028766016,35.78179563122973],[51.465035631220985,35.78179675530129],[51.46513387173925,35.78178978624158],[51.465230752412204,35.78177479484115],[51.46532528914559,35.78175193337997],[51.46541652165653,35.78172143408032],[51.46550352322865,35.781683606747805],[51.46558541012604,35.781638835624086],[51.46566135057052,35.78158757548359],[51.46573057319082,35.781530347013636],[51.465792374858054,35.78146773152509],[51.473792331215655,35.77246767983512],[51.47384785738578,35.77239779227091],[51.47389413753483,35.772323566793446],[51.473930666997624,35.77224581284219],[51.47395704744533,35.77216537833261],[51.4739729912281,35.77208314040944],[51.473978324510675,35.771999995880996],[51.47397828776819,35.76899999616107],[51.47397433119842,35.768928370602445],[51.47396249522351,35.768857324341845],[51.47394287558151,35.76878743192873],[51.4739156309557,35.76871925857998],[51.467915504115176,35.755719304615056],[51.46787896059146,35.75565020131613],[51.467834587354865,35.755584214051304],[51.46778277969693,35.755521930629385],[51.46772399913121,35.755463905864374],[51.46765876928176,35.755410656633444],[51.46758767121849,35.755362657273054],[51.46751133828102,35.755320335353765],[51.44951143544326,35.74632041015302],[51.449432935032426,35.74628508103703],[51.44935079545631,35.74625576149887],[51.44926570716672,35.74623269799277],[51.449178385399684,35.746216084385786],[51.44908956416379,35.74620606032844],[51.448999990070746,35.74620271008088],[51.44700001001563,35.74620270993689]]]},"properties":{"group":5,"color":"#0891b2","store_count":47,"label_center":[51.44887180486347,35.76396110772441]}},{"type":"Feature","geometry":{"type":"Polygon","coordinates":[[[51.44926513379494,35.704206563689844],[51.44917273545946,35.70418977951574],[51.449078814534055,35.70418013723201],[51.44898419889147,35.704177721831435],[51.448889722527596,35.70418255460491],[51.44879621821076,35.70419459295382],[51.448704510141965,35.704213730765396],[51.44470454551719,35.70521372081943],[51.44462451267454,35.70523677510856],[51.44454714067354,35.70526523799989],[51.44447297780441,35.7052989077947],[51.43247304227819,35.711298855484785],[51.43238817222709,35.71134630511781],[51.43230967316474,35.71140056183184],[51.4322383625201,35.711461060648645],[51.43217498287374,35.71152717158925],[51.43212019422495,35.71159820623353],[51.43207456711872,35.71167342488845],[51.432038576703846,35.71175204429012],[51.432012597784244,35.711833245759806],[51.43199690091494,35.711916183728725],[51.43199164958353,35.711999994542886],[51.431991296643105,35.739999997004205],[51.43199586480766,35.740078181738454],[51.432009529620125,35.74015565824783],[51.432032167314375,35.740231724657114],[51.43206357283559,35.74030569186358],[51.432103461697025,35.74037688977972],[51.43215147255648,35.74044467340408],[51.43220717048911,35.74050842866466],[51.43227005092703,35.74056757798218],[51.432339544229926,35.74062158550295],[51.466339614441715,35.764621769208496],[51.46641797053351,35.76467176219936],[51.46650198764063,35.76471522152552],[51.46659084859188,35.7647517244867],[51.466683689099334,35.764780916042184],[51.466779606165225,35.764802512264275],[51.466877666865464,35.76481630310013],[51.46697691742431,35.764822154415],[51.46707639249198,35.764820009296926],[51.46717512453488,35.76480988861039],[51.467272153247116,35.764791890793326],[51.46736653489155,35.764766190899564],[51.467457351479815,35.76473303889606],[51.467543719701595,35.76469275723145],[51.46762479951659,35.76464573769939],[51.46769980232538,35.764592437627655],[51.467767998639786,35.76453337542967],[51.467828725178116,35.76446912556187],[51.46788139131618,35.76440031293603],[51.46792548483149,35.76432760684089],[51.46796057688464,35.764251714432156],[51.46798632618956,35.76417337385427],[51.46800248233197,35.76409334706088],[51.46800888820399,35.76401241240374],[51.46900820720292,35.71001240927235],[51.46900469763954,35.70993034042662],[51.46899117016894,35.70984896620274],[51.46896775970442,35.70976909798725],[51.46893469970125,35.70969153214783],[51.46889231982781,35.70961704209286],[51.46884104267748,35.709546370560105],[51.46878137955412,35.7094802222111],[51.46778137643403,35.70848022864192],[51.46771138773117,35.70841719585935],[51.46763379243014,35.70836039489075],[51.46754942024202,35.7083104330868],[51.46745917333523,35.70826784466868],[51.467364016689274,35.708233085016246],[51.467264967777076,35.70820652579924],[51.44926513379494,35.704206563689844]]]},"properties":{"group":6,"color":"#db2777","store_count":50,"label_center":[51.450351907769125,35.72599999577355]}},{"type":"Feature","geometry":{"type":"Polygon","coordinates":[[[51.405000129752295,35.65770011366418],[51.4048447280543,35.657706305165846],[51.404690807930685,35.65772484127297],[51.40453983806211,35.6577555451176],[51.404393258982466,35.65779812372896],[51.40425246933541,35.657852170828576],[51.40411881253011,35.657917170706355],[51.40399356392384,35.65799250314077],[51.40387791865345,35.65807744931624],[51.403772980231786,35.65817119868121],[51.40367975001795,35.658272856681506],[51.40359911766178,35.65838145329546],[51.403531852613746,35.65849595228895],[51.40347859678139,35.65861526110249],[51.40343985840228,35.65873824127595],[51.40341600719222,35.658863719311356],[51.40340727081484,35.65899049787017],[51.403413732706596,35.65911736719837],[51.40441355639851,35.6681173813529],[51.40442782957898,35.66820928691352],[51.410427258143415,35.69820936801826],[51.41046611498997,35.698352362129626],[51.41052444608573,35.69849088279942],[51.41152441561193,35.7004908950994],[51.411588528991196,35.700603436427144],[51.41166550742389,35.70071047780238],[51.41175464932736,35.70081104357959],[51.411855142244,35.70090421713258],[51.41196607024561,35.70098914921009],[51.41208642228124,35.701065065677184],[51.41221510139254,35.70113127457201],[51.42521522797538,35.7071313573677],[51.42534858409889,35.707186330566124],[51.425487666525186,35.707230875587534],[51.425631252650234,35.707264600856874],[51.51863264593274,35.72526487093013],[51.51878963232047,35.72528848935583],[51.51894872852339,35.725299185684044],[51.519108338934316,35.72529685263986],[51.519266862788356,35.72528151362247],[51.51942271021968,35.72525332247048],[51.5195743182088,35.72521256191869],[51.51972016626047,35.72515964076216],[51.51985879165478,35.725095089755726],[51.51998880411841,35.72501955629027],[51.520108899768836,35.72493379789909],[51.52021787419158,35.72483867465975],[51.520314634519316,35.724735140567155],[51.52039821039168,35.72462423396518],[51.5204677636859,35.72450706713206],[51.520522596920635,35.72438481512466],[51.52056216024886,35.724258703993165],[51.52058605696976,35.724129998484564],[51.52059404750435,35.7239999893583],[51.520594027582874,35.72299998952551],[51.52058742188626,35.72288179560504],[51.520567664254514,35.722764581105466],[51.52053491843822,35.72264931715741],[51.520489455792855,35.72253695872683],[51.5204316530289,35.72242843670359],[51.52036198908914,35.72232465018922],[51.482361452787416,35.67132507879433],[51.48226612258192,35.6712111403281],[51.48215653079691,35.67110608780616],[51.482033911922294,35.67101110453619],[51.4818996471697,35.67092726040241],[51.48175524891428,35.67085549981565],[51.48160234366,35.67079663107695],[51.47260245724323,35.667796674636016],[51.4724885173403,35.66776275899086],[51.472371745608086,35.667736015585895],[51.42137250640604,35.657736165612604],[51.421187493788324,35.65770915319215],[51.42099987045946,35.65770011539921],[51.405000129752295,35.65770011366418]]]},"properties":{"group":7,"color":"#4f46e5","store_count":53,"label_center":[51.45005824322055,35.6847672234063]}},{"type":"Feature","geometry":{"type":"Polygon","coordinates":[[[51.34000000924924,35.63853298864358],[51.33981720217548,35.63854059761324],[51.3396362914637,35.638563347140725],[51.3394591539055,35.638601001220145],[51.33928762715575,35.63865316922344],[51.339123490671184,35.638719309952144],[51.33896844725239,35.638798737251015],[51.33882410538034,35.63889062712531],[51.33869196253078,35.63899402628786],[51.338573389639436,35.63910786204745],[51.33846961687911,35.63923095343592],[51.338381720896365,35.63936202345862],[51.33831061364006,35.639499712341234],[51.33431044819155,35.648499657880954],[51.334263569077756,35.64862138929148],[51.33422982740493,35.648745985303826],[51.33420947851726,35.648872503250416],[51.33420267643451,35.648999985918316],[51.33420242997203,35.659999987254956],[51.33421030312159,35.66013716537704],[51.33423385962543,35.66027314161733],[51.334272893133125,35.66040672439463],[51.334327061662286,35.660536743096266],[51.33439589059289,35.66066205833682],[51.33447877682418,35.66078157194326],[51.33457499405785,35.66089423657931],[51.33468369916121,35.66099906492426],[51.33480393955467,35.661095138326004],[51.34580397227567,35.66909524595628],[51.345918160576865,35.66917165045041],[51.346039648241295,35.66924014987085],[51.41204027227154,35.70324066541636],[51.41218694252897,35.7033085265329],[51.412340760144076,35.703364885157335],[51.41250037296114,35.70340924585702],[51.412664377872645,35.70344121866904],[51.4128313331553,35.70346052252886],[51.41299977114574,35.703466987741386],[51.438000229131646,35.703466984592716],[51.43817650095915,35.703459903320216],[51.43835107315789,35.70343876435058],[51.43852226467911,35.70340377124299],[51.438688427033824,35.703355260965175],[51.43884796016928,35.70329370064802],[51.438999327878626,35.70321968308671],[51.439141072595376,35.703133921031466],[51.439271829429956,35.70303724032324],[51.43939033931329,35.70293057194023],[51.43949546112072,35.70281494303212],[51.439586182659575,35.702691467028124],[51.43966163041448,35.70256133291442],[51.43972107795675,35.70242579378406],[51.43976395293694,35.702286154769915],[51.43978984259321,35.702143760476545],[51.43979849772262,35.70199998203232],[51.439797219388545,35.644999991123434],[51.439788924970834,35.64485923507138],[51.43976412354997,35.64471977802695],[51.43972304406133,35.64458290680299],[51.439666065637816,35.64444988434576],[51.43959371410867,35.64432193808197],[51.43950665714491,35.64420024859357],[51.43940569809647,35.644085938725105],[51.439291768577796,35.643980063223935],[51.43916591987052,35.64388359900893],[51.43902931322246,35.643797436157286],[51.438883209132655,35.64372236969279],[51.438728955721004,35.64365909225107],[51.4385679762901,35.64360818768948],[51.43840175619382,35.64357012570072],[51.43823182913375,35.64354525747958],[51.39123266835904,35.638545341265534],[51.39099965287203,35.63853299419721],[51.35300034737141,35.638532990006425],[51.34100010977087,35.63853298874725],[51.34000000924924,35.63853298864358]]]},"properties":{"group":8,"color":"#65a30d","store_count":50,"label_center":[51.408816952402645,35.68562006595158]}},{"type":"Feature","geometry":{"type":"Polygon","coordinates":[[[51.41611549762529,35.66707764377882],[51.416002471533076,35.6670728431283],[51.41588942091532,35.667077242461026],[51.41577746752387,35.6670907981246],[51.372777934252426,35.674090716805104],[51.372677463561956,35.67411097436781],[51.37257966840427,35.67413860682492],[51.37248536002244,35.674173384957115],[51.3723953207385,35.67421502026913],[51.37231029746428,35.674263167382826],[51.37223099550585,35.67431742690184],[51.36423100515493,35.68031737642265],[51.36415214271076,35.68038267095881],[51.364081568481254,35.680454000306845],[51.36401997238774,35.68053066718671],[51.36396795659104,35.68061192213933],[51.36392602960431,35.68069697085237],[51.36389460132109,35.680784981924866],[51.36387397900729,35.680875094994285],[51.36087373017924,35.69887506875994],[51.36086404179831,35.698967974714066],[51.36086584215643,35.69906120461507],[51.36087911308526,35.699153815562084],[51.36090372040528,35.699244870910945],[51.36093941528135,35.69933344974733],[51.36098583673786,35.699418656200855],[51.36104251530824,35.69949962850613],[51.36110887778198,35.69957554771879],[51.36118425300102,35.69964564599868],[51.361267878647226,35.69970921437618],[51.36135890895199,35.69976560992317],[51.36145642325025,35.699814262256005],[51.36155943529226,35.69985467930493],[51.36166690321895,35.69988645229121],[51.365666943530115,35.700886462976676],[51.365759846472464,35.70090622750242],[51.36585446289969,35.70091952627894],[51.36595011772783,35.70092626442014],[51.39395044117364,35.70192627384777],[51.394086748076006,35.701924451497995],[51.41008693146141,35.700924438915195],[51.410205856259054,35.70091182240428],[51.41032248940759,35.7008890554736],[51.41043553251856,35.70085639157083],[51.41054372717276,35.700814194318895],[51.42854385416525,35.69281411321193],[51.42863836223621,35.692767089595755],[51.42872681403622,35.69271278860304],[51.42880837041961,35.69265172539759],[51.42888225766399,35.69258447929623],[51.428947774810645,35.692511688272404],[51.42900430031421,35.69243404290324],[51.42905129793895,35.69235227981751],[51.42908832184519,35.692267174706856],[51.42911502081816,35.69217953496638],[51.42913114159884,35.69209019203467],[51.42913653128537,35.6919999935057],[51.429136205169115,35.66899999576856],[51.429130759080536,35.668909335726035],[51.42911447533563,35.66881954469802],[51.42908751004017,35.668731483276865],[51.429050121673804,35.668645995474925],[51.42900266861145,35.66856390063549],[51.4289456056874,35.66848598558013],[51.4288794798351,35.66841299706802],[51.428804924844414,35.668345634639024],[51.42872265528673,35.668284543909664],[51.42863345966605,35.66823031038573],[51.428538192861794,35.66818345385116],[51.42843776793561,35.66814442338667],[51.42833314738091,35.66811359306614],[51.42822533389877,35.668091258371696],[51.428115360788745,35.66807763336209],[51.41611549762529,35.66707764377882]]]},"properties":{"group":9,"color":"#c2410c","store_count":49,"label_center":[51.39604163915077,35.68643754425]}},{"type":"Feature","geometry":{"type":"Polygon","coordinates":[[[51.401056567977456,35.69994959152399],[51.40092150980187,35.69995052964028],[51.4007873133553,35.699962990024474],[51.37878758954819,35.702962949947825],[51.37865947763808,35.702985926500176],[51.37853489170047,35.70301940365336],[51.378415121779604,35.70306303476459],[51.378301408057325,35.70311636805007],[51.378194928012306,35.703178851262535],[51.37809678422841,35.703249837408976],[51.37800799297817,35.70332859144947],[51.37792947369945,35.70341429790756],[51.37786203947456,35.70350606931368],[51.37780638861003,35.703602955394054],[51.37680636357347,35.70560294576061],[51.376761653485076,35.70570790888742],[51.37673077422374,35.70581613441047],[51.376714070730735,35.70592641357932],[51.376711729623764,35.706037514701734],[51.37672377711004,35.706148196900195],[51.37675007869094,35.70625722397098],[51.38974946670167,35.74825736104747],[51.38978577224898,35.748354545216685],[51.389833413987574,35.74844841938901],[51.389891947165935,35.74853810714122],[51.3899608253431,35.7486227711324],[51.39003940548937,35.748701620921835],[51.39012695398888,35.74877392034922],[51.39022265348844,35.7488389944082],[51.39032561052825,35.74889623554879],[51.39632565313203,35.751896268470794],[51.396434615533934,35.751945018044985],[51.39654882847637,35.75198499176218],[51.396667231306886,35.75201581839956],[51.396788724458624,35.75203721167993],[51.396912179662614,35.75204897293062],[51.414912415041805,35.753048984342065],[51.41505204129043,35.753050554990985],[51.41519105756918,35.75303981258049],[51.415327834492025,35.75301688302097],[51.429327999498156,35.75001684423729],[51.42945216266539,35.749984683557535],[51.429571712359746,35.74994247628743],[51.429685428810544,35.74989065307265],[51.42979215177063,35.7498297426704],[51.42989079235519,35.749760366553964],[51.42998034415207,35.749683232571165],[51.43005989349025,35.74959912772143],[51.43012862876168,35.749508910125506],[51.430185848701285,35.74941350026935],[51.430230969540915,35.74931387161193],[51.43026353096401,35.74921104065264],[51.430283200800524,35.74910605655959],[51.430289778414014,35.74899999046483],[51.43028902100066,35.7019999957193],[51.43028315233394,35.70189979119138],[51.43026560240206,35.70180049898367],[51.430236531014685,35.70170302300785],[51.43019620286505,35.70160825063819],[51.430144985118886,35.70151704463365],[51.43008334407069,35.70143023528399],[51.43001184089768,35.70134861285168],[51.4299311265503,35.70127292037823],[51.42984193582575,35.70120384692039],[51.4297450806784,35.701142021277924],[51.429641442828256,35.70108800626995],[51.42953196573447,35.701042293611785],[51.42941764600719,35.701005299439224],[51.429299524335704,35.70097736052067],[51.42917867601566,35.70095873119176],[51.42905620116128,35.7009495810404],[51.401056567977456,35.69994959152399]]]},"properties":{"group":10,"color":"#0284c7","store_count":48,"label_center":[51.406769600361415,35.72725729250922]}},{"type":"Feature","geometry":{"type":"Polygon","coordinates":[[[50.977711106760104,35.65519414827562],[50.977486163759465,35.654990071258744],[50.97723825584461,35.65480456129166],[50.976969673105984,35.65463933194218],[50.976682896561094,35.65449590943485],[50.976380575238856,35.65437561855673],[50.976065501713876,35.654279570423675],[50.97574058631681,35.65420865221995],[50.975408830258566,35.65416351900585],[50.975073297916296,35.6541445876688],[50.97473708853689,35.65415203307394],[50.97440330761888,35.65418578644932],[50.97407503823664,35.65424553602097],[50.81708003688944,35.68924435769739],[50.81684266213274,35.68930455913206],[50.809842869366705,35.69130449336085],[50.809564009888994,35.691395285236666],[50.80929571125939,35.69150523452928],[50.79829594896037,35.69650508162656],[50.79800892980343,35.69665076048079],[50.79774047014239,35.69681833888348],[50.79749307251841,35.69700625476811],[50.797269043192266,35.69721275648296],[50.79707047064588,35.69743591911541],[50.79689920611167,35.6976736624312],[50.79675684631119,35.69792377026209],[50.79664471856418,35.698183911160925],[50.79656386840699,35.69845166013192],[50.796515049836266,35.69872452123379],[50.79649871826896,35.69899995084494],[50.796497624702674,35.72399994726632],[50.796515840939676,35.72429095799598],[50.796570326205334,35.724578940473066],[50.79666051370923,35.7248608968733],[50.79678546498377,35.725133892071455],[50.79694387963887,35.725395084197935],[50.797134108885935,35.7256417542257],[50.79735417269108,35.725871334279496],[50.79760178037922,35.72608143437232],[50.797874354474985,35.72626986729056],[50.79816905753248,35.72643467136859],[50.80416917058724,35.72943476180822],[50.80432264857569,35.72950720101738],[50.96432617008266,35.800509406787704],[50.96465394381397,35.80063705585446],[50.96499617455851,35.80073638416854],[50.965349186704614,35.800806324915875],[50.96570918880942,35.80084612691071],[50.9660723143319,35.80085536266609],[50.966434663173644,35.80083393298657],[50.96679234358067,35.800782068034025],[51.00379356399257,35.7937818275621],[51.00406383631836,35.79372127445304],[51.00432730573049,35.79364332082843],[51.007327388442704,35.79264328814528],[51.0076401177312,35.792524070247865],[51.007936933773095,35.792380364206046],[51.00821495681124,35.79221356432263],[51.00847148947526,35.79202528895832],[51.008704042954506,35.79181736482569],[51.00891036114484,35.79159180926169],[51.00908844253519,35.791350810650684],[51.009236559621336,35.791096707188345],[51.00935327565904,35.79083196419254],[51.00943745859391,35.79055915018147],[51.00948829203347,35.79028091195149],[51.00950528315522,35.78999994889631],[51.009505019719086,35.78399994893294],[51.00949814488257,35.783821261044416],[51.008497577742375,35.77082128981652],[51.00845871794237,35.770540168056705],[50.99645619286077,35.71054050836978],[50.99638763631934,35.71027667455487],[50.979385549625285,35.657277145936526],[50.97927139258853,35.65698577039934],[50.979119706222846,35.656706030864676],[50.978932231043274,35.656441136482194],[50.978711118069754,35.65619412606878],[50.977711106760104,35.65519414827562]]]},"properties":{"group":11,"color":"#9333ea","store_count":66,"label_center":[50.900552450165065,35.72793471658841]}},{"type":"Feature","geometry":{"type":"Polygon","coordinates":[[[51.368000329671176,35.74804178190642],[51.3679220064288,35.74804389351475],[51.33092244660356,35.750043867431906],[51.330909945986676,35.750044595780665],[51.29891032584353,35.752044570265056],[51.298794335172204,35.752056557624705],[51.298680379032,35.752077878178014],[51.29856958473275,35.75210832101212],[51.29846304830914,35.75214758497198],[51.29836182367913,35.7521952816391],[51.29826691221878,35.75225093917374],[51.29817925285668,35.75231400698205],[51.29809971278575,35.7523838611624],[51.29802907888453,35.75245981067696],[51.29796804993254,35.75254110418719],[51.29791722969697,35.75262693748616],[51.29787712095896,35.75271646145387],[51.297848120538646,35.752808790456854],[51.29783051536824,35.752903011109204],[51.29782447965206,35.75299819130822],[51.297830073141526,35.75309338945531],[51.29784724054249,35.75318766377106],[51.29787581206058,35.75328008161207],[51.30087571044507,35.76128010976984],[51.30089183970137,35.76131997303858],[51.310891561994374,35.78432006534081],[51.31093342305945,35.78440360012134],[51.31098474162575,35.78448355619415],[51.31104506267051,35.78455922457549],[51.31111385134001,35.78462993429943],[51.31119049769168,35.78469505836774],[51.311274322102165,35.784754019309915],[51.3113645812935,35.78480629430422],[51.311460474924,35.784851419814025],[51.311561152685265,35.784888995698395],[51.31166572184257,35.7849186887607],[51.31177325515155,35.78494023570331],[51.336773538985014,35.788940280713014],[51.336894909859296,35.788954380508876],[51.33701742281122,35.78895810871323],[51.3371397464172,35.78895142480968],[51.33726055131166,35.78893440143653],[51.33737852463562,35.788907223597306],[51.33749238430577,35.78887018665001],[51.43849324207003,35.75086977289438],[51.43859434319204,35.75082670329252],[51.43868984675307,35.75077584792468],[51.43877885330748,35.750717685749244],[51.43886052460405,35.75065276453932],[51.438934091480704,35.750581695723334],[51.43899886110839,35.75050514862622],[51.439054223515676,35.750423844165226],[51.43909965733281,35.75033854806],[51.43913473470111,35.75025006362067],[51.4391591253014,35.75015922418212],[51.43917259946372,35.75006688525543],[51.43917503032899,35.74997391647064],[51.43916639504233,35.74988119338672],[51.43914677496686,35.749789589245665],[51.43911635491599,35.749699966748636],[51.43907542141156,35.74961316993142],[51.4390243599842,35.749530016215886],[51.43896365154144,35.749451288711946],[51.43889386783776,35.74937772884304],[51.43881566608932,35.74931002936397],[51.438729782784115,35.749248827837356],[51.43863702674582,35.74919470062976],[51.43853827151669,35.74914815748417],[51.438434447131186,35.74910963671991],[51.438326531357895,35.74907950110517],[51.43821554049209,35.749058034440964],[51.438102519785595,35.74904543888864],[51.42410268591914,35.748045449518614],[51.42399999406594,35.74804178615124],[51.42300000605199,35.748041786069436],[51.368000329671176,35.74804178190642]]]},"properties":{"group":12,"color":"#059669","store_count":51,"label_center":[51.34302181928895,35.772820019189695]}},{"type":"Feature","geometry":{"type":"Polygon","coordinates":[[[51.241672359225895,35.7441495487822],[51.241571332047364,35.74414648830958],[51.24147036362202,35.744150642125234],[51.229037507952434,35.745107630507384],[51.22889848978188,35.745125342112274],[51.228775491125745,35.7451473418576],[51.22865943991306,35.745173332410694],[51.22854733640744,35.74520902705336],[51.22844039788896,35.74525403819595],[51.22833978555913,35.745307877084954],[51.22823278602142,35.74537187648368],[51.22813989900486,35.74543373142197],[51.22805538148009,35.745503105879436],[51.21906636325011,35.75369004249134],[51.21902710922643,35.75372773519776],[51.21895010891077,35.75380573463051],[51.21893854709271,35.75381764178695],[51.21874754617875,35.75401764036221],[51.218686891334315,35.75408748255905],[51.21863426604893,35.75416152516465],[51.21859010502782,35.75423915659045],[51.218487102736454,35.75444415569545],[51.21844698245064,35.75453778631282],[51.21841916743734,35.75463433753195],[51.2184039663679,35.754732738052034],[51.218389964115495,35.754889737927655],[51.21838867625438,35.7550098493751],[51.21839767434198,35.755142849466964],[51.2184109697027,35.75524248752668],[51.2184289684549,35.755332487699405],[51.218436989028504,35.75536823451153],[51.218495985815885,35.75560523507069],[51.21850378546684,35.75563421656437],[51.218569782444895,35.75586221718364],[51.218572357659774,35.755870928118085],[51.21867135334507,35.75619892904415],[51.21870837445448,35.75629782428684],[51.21877937260476,35.75645582492505],[51.21881630749136,35.75652847184207],[51.21886055101006,35.75659835305641],[51.218911794539316,35.75666498108092],[51.21903479363046,35.756810982044875],[51.219095410896706,35.75687660487567],[51.2191914105635,35.75697160557894],[51.21928669454705,35.75705504409808],[51.21939369464074,35.757138044796655],[51.21951501743996,35.757220055632025],[51.26197321597196,35.78212528994662],[51.262065118453286,35.7821739474399],[51.26216226522721,35.7822152908553],[51.262263782252866,35.7822489482184],[51.262368756165614,35.782274616707284],[51.26247624249542,35.78229206537726],[51.262585274165176,35.782301137238974],[51.27827445845772,35.782995144500916],[51.278394958911335,35.78299533947273],[51.278514829000194,35.78298530751417],[51.27863276501299,35.78296515773334],[51.28493983165127,35.78160414212311],[51.2849639157471,35.78159871648816],[51.29451101457259,35.77935669096252],[51.294620868273036,35.77932593647735],[51.294726377359716,35.77928634945129],[51.29495637909118,35.779188348432704],[51.29505972781987,35.77913857781293],[51.29515618122227,35.77908033754256],[51.29524469806236,35.779014256348056],[51.295324322789305,35.77894104760005],[51.29539419585287,35.77886150161162],[51.29545356298214,35.77877647710604],[51.29550178332722,35.77868689194601],[51.29553833637632,35.77859371322459],[51.29679828542775,35.774693701915716],[51.296826423566365,35.77457718123717],[51.29686642008028,35.77433018087788],[51.29687622375893,35.774220914120725],[51.29708905399493,35.76247991291262],[51.29708418797537,35.762378569043996],[51.29651811747096,35.75743157472099],[51.29651743473492,35.757425800242146],[51.29644542634318,35.756835800961085],[51.29644265675347,35.75681537396578],[51.296364649371405,35.75629237473467],[51.296363161430016,35.75628280797963],[51.296261152574374,35.75565280898001],[51.29624295143914,35.75556947636914],[51.29621564242522,35.75548781290588],[51.2960456371306,35.75505681446459],[51.29601564592796,35.754989644718684],[51.29597464501806,35.75490764508277],[51.29595764108639,35.75487537370872],[51.29591164022212,35.754792374110046],[51.29586980566558,35.75472435872312],[51.295821370371684,35.75465931881371],[51.295764369906685,35.7545893192659],[51.29569731110313,35.75451512296116],[51.295631310862085,35.75444912344703],[51.295597648889334,35.75441696388342],[51.29555164880215,35.754374964208964],[51.29550108116862,35.75433164528154],[51.29545008118521,35.754290645620785],[51.29540527171497,35.754256487885044],[51.29389427470161,35.753164497368616],[51.293803450524166,35.7531052398132],[51.293706450977105,35.753048240348484],[51.29364459546586,35.7530143103494],[51.29355459601744,35.75296831079978],[51.293479455923816,35.752933037325775],[51.29340128141732,35.75290245803062],[51.293305282263894,35.75286845838908],[51.29319283539794,35.752834178461896],[51.293091836423415,35.752808178745234],[51.29301923349168,35.75279159260339],[51.29293923435438,35.75277559277993],[51.292897683887155,35.75276794194277],[51.2419342477945,35.744174037316924],[51.24179335781397,35.74415754869504],[51.241672359225895,35.7441495487822]]]},"properties":{"group":13,"color":"#be123c","store_count":43,"source":"synthetic_demo","label_center":[51.26773629048924,35.76835041351667]}},{"type":"Feature","geometry":{"type":"Polygon","coordinates":[[[51.36600003522651,35.7005938678202],[51.36580895562085,35.70060252927031],[51.354809144884946,35.70160251094818],[51.354676946484254,35.70161877753514],[51.354546691021675,35.70164335149461],[51.33654697221129,35.705643283049405],[51.33638362845403,35.70568680708583],[51.336226408245,35.70574337792355],[51.3360768735579,35.705812433539926],[51.33593651002269,35.70589328787621],[51.335806712167134,35.705985137652526],[51.335688769562864,35.70608707034735],[51.335583854013606,35.706198073262335],[51.335493007912646,35.706317043582324],[51.3354171338854,35.70644279933079],[51.335356985819985,35.706574091111946],[51.33531316137488,35.706709614522715],[51.3352860960383,35.70684802311153],[51.331285460066795,35.73684797030949],[51.33127550999991,35.73698076227487],[51.331280997277304,35.73711372656044],[51.33130187285426,35.73724567288915],[51.331337949930145,35.737375420090814],[51.331388905617864,35.737501806675965],[51.331454283831896,35.73762370123395],[51.33153349936889,35.737740012561645],[51.33162584314443,35.73784969943262],[51.33173048853925,35.73795177991898],[51.331846498797994,35.73804534018246],[51.34684653859738,35.74904548188059],[51.34690799967676,35.74908845974762],[51.34990801366524,35.75108848654152],[51.35003413716218,35.751165019684514],[51.35016828593793,35.751231873080314],[51.35030934537754,35.75128849124905],[51.35045614343784,35.751334403753546],[51.350607460386904,35.75136922910881],[51.350762038939905,35.75139267795214],[51.465764009069396,35.764392888577994],[51.465926794263524,35.764404839359536],[51.466090236530704,35.76440418108976],[51.46625286885314,35.76439091967771],[51.46641323148416,35.76436517415502],[51.466569885052586,35.76432717560735],[51.46672142348404,35.764277265099906],[51.46686648662316,35.764215890615596],[51.467003772443334,35.7641436030335],[51.467132048734356,35.764061051183695],[51.46725016416295,35.76396897602274],[51.47425015351452,35.757968904301144],[51.474359320499644,35.75786574312895],[51.474455726743045,35.7577544549648],[51.474538467280134,35.75763608453349],[51.4746067654446,35.75751174304022],[51.47465998015758,35.75738259773836],[51.47469761194362,35.75724986097125],[51.47471930761683,35.757114778790736],[51.47472486359362,35.756978619259726],[51.47471422780078,35.756842660548145],[51.47468750016124,35.75670817893437],[51.47464493165295,35.75657643682459],[51.47458692195003,35.75644867090269],[51.47451401566819,35.756326080521774],[51.47442689724997,35.75620981644629],[51.4644267845954,35.744209934354906],[51.46433680846296,35.744111483863286],[51.46033678703242,35.74011152788643],[51.46022714525474,35.74001195641611],[51.46010639102809,35.73992133247573],[51.45997561787907,35.73984047671207],[51.4598360100497,35.73977012131378],[51.375836915362875,35.70177069141343],[51.3756999176623,35.701714979963654],[51.37555740116752,35.70166940112901],[51.375410489616385,35.70163431429498],[51.370410570065275,35.700634330638756],[51.3702067605391,35.700604018779295],[51.36999996499415,35.70059386823784],[51.36600003522651,35.7005938678202]]]},"properties":{"group":14,"color":"#475569","store_count":53,"label_center":[51.376752146321394,35.72184799671051]}},{"type":"Feature","geometry":{"type":"Polygon","coordinates":[[[51.33265688546822,35.72459061670979],[51.3326039098202,35.72453955819609],[51.33254499092995,35.72449303108258],[51.33248070864362,35.72445149325504],[51.33241169558696,35.72441535349777],[51.33233863093952,35.72438496747076],[51.33226223375086,35.72436063420983],[51.332183255864614,35.72434259318395],[51.33210247451977,35.7243310219387],[51.33202068470227,35.724326034349176],[51.33193869132189,35.72432767949934],[51.33185730129159,35.72433594119906],[51.32485735747155,35.725335932711715],[51.32479813225569,35.72534622749463],[51.28579842984152,35.73334616151397],[51.28572174041141,35.73336514410854],[51.28564766516338,35.733390091120754],[51.2855769000199,35.73342076817927],[51.28551010980787,35.73345688707995],[51.28544792201306,35.73349810849334],[51.28539092088507,35.73354404515241],[51.28533964194851,35.733594265490524],[51.285294566971736,35.73364829769589],[51.282294544641566,35.737648280441796],[51.28225514279606,35.737707217451884],[51.28222312455049,35.73776905679235],[51.28219880731231,35.737833185463046],[51.282182432152425,35.737898967768714],[51.28217416141479,35.73796575162036],[51.28217407710639,35.73803287499922],[51.282182180083524,35.73809967251919],[51.28219839004246,35.73816548202271],[51.282222546314735,35.73822965114477],[51.28622247065122,35.747229676998955],[51.286254249686266,35.747291414024794],[51.286293383706855,35.74735027701359],[51.28633948676778,35.74740568542672],[51.28639210418858,35.747457092795315],[51.286450717037525,35.7475039921101],[51.28651474724943,35.74754592082197],[51.28658356332674,35.74758246540426],[51.28665648656784,35.747613265431355],[51.28673279776104,35.747638017133745],[51.28681174427816,35.74765647639406],[51.30781190778978,35.75165650802428],[51.307897679471125,35.751668995292384],[51.307984586785686,35.75167405764777],[51.30807166516758,35.75167163890454],[51.30815794815218,35.75166176590793],[51.30824247810346,35.75164454823633],[51.312242507200956,35.7506445401345],[51.312248645535284,35.75064298412703],[51.3472488978319,35.74164291136837],[51.34732325662584,35.741620529837604],[51.347394645330745,35.74159244695856],[51.347462408029635,35.741558920757186],[51.34752592212351,35.74152025927233],[51.347584604052024,35.74147681772538],[51.34763791465527,35.74142899525626],[51.34768536412757,35.741377231255946],[51.34772651651762,35.74132200132915],[51.34776099373375,35.74126381292431],[51.34778847901744,35.741203200671],[51.3478087198532,35.74114072146765],[51.34782153028815,35.741076949364704],[51.34782679263991,35.741012470290244],[51.347824458577186,35.74094787666644],[51.3478145495632,35.740883761966536],[51.34779715665781,35.740820715262146],[51.34777243968021,35.74075931581097],[51.34774062573991,35.740700127734904],[51.34770200714963,35.7406436948371],[51.34765693873905,35.740590535605826],[51.33265688546822,35.72459061670979]]]},"properties":{"group":15,"color":"#a16207","store_count":53,"label_center":[51.31370088307787,35.737999313309786]}},{"type":"Feature","geometry":{"type":"Polygon","coordinates":[[[51.185000009274326,35.663522326894835],[51.18482572979459,35.663529186398165],[51.18465306838566,35.663549702685344],[51.184483628185134,35.66358368526581],[51.18431898242705,35.66363081861601],[51.18416065983677,35.66369066510854],[51.18401013043879,35.663762669074856],[51.183868791909156,35.663846161963846],[51.183737956599145,35.66394036854831],[51.183618839350665,35.664044414122046],[51.18351254621637,35.6641573326205],[51.183420064189356,35.66427807558958],[51.1833422520377,35.66440552191978],[51.183279832329035,35.664538488254806],[51.18323338471927,35.66467573997844],[51.18320334056779,35.66481600267752],[51.177202478961014,35.70381591682567],[51.17718907268496,35.703958689248346],[51.17719267145825,35.70410184971342],[51.17721324157826,35.70424405390549],[51.17725058997454,35.704383966481785],[51.17730436601856,35.70452027361178],[51.177374064813044,35.70465169531483],[51.17745903193035,35.7047769974805],[51.17755846955538,35.70489500345806],[51.1776714439755,35.705004605106744],[51.17779689434709,35.70510477320278],[51.177933642656605,35.70519456710541],[51.178080404782484,35.70527314359104],[51.25308119077106,35.741273706129554],[51.25324077251745,35.74134175845226],[51.253407850617684,35.741396563171435],[51.25358077541075,35.74143757916393],[51.25375783949826,35.74146440145116],[51.25393729460527,35.741476765198435],[51.254117368844796,35.741474548330174],[51.25429628421581,35.74145777273551],[51.254472274161614,35.741426604052],[51.25464360101509,35.74138135003],[51.25480857315849,35.74132245749349],[51.25496556172818,35.74125050792753],[51.25511301669928,35.74116621173615],[51.25524948219137,35.741070401226885],[51.25537361084381,35.74096402239196],[51.25548417711917,35.740848125566714],[51.25558008940283,35.74072385505795],[51.255660400779725,35.74059243784451],[51.25572431838178,35.740455171461704],[51.280723099446945,35.67745482344316],[51.28076858071987,35.6773180212895],[51.28079778775006,35.67717829288604],[51.28081045186471,35.6770369239911],[51.280806456618876,35.676895215451836],[51.28078583886375,35.676754471233885],[51.280748788404374,35.676615986422775],[51.28069564624992,35.6764810353071],[51.28062690147292,35.67635085965341],[51.28054318670628,35.67622665728057],[51.28044527231977,35.676109571038594],[51.28033405932951,35.67600067829366],[51.28021057110595,35.675900981015516],[51.280075943956405,35.67581139655898],[51.27993141666917,35.6757327492239],[51.27977831911509,35.675665762671485],[51.2796180600117,35.67561105326651],[51.279452113962364,35.67556912440669],[51.27928200788959,35.67554036189159],[51.186283660976194,35.6635405712068],[51.186142265729586,35.663526894783715],[51.18599999084853,35.6635223269502],[51.185000009274326,35.663522326894835]]]},"properties":{"group":16,"color":"#0f766e","store_count":48,"label_center":[51.22736177935868,35.690635370134416]}}]}
