{"type":"FeatureCollection","features":[{"type":"Feature","properties":{"route":1,"color":"#2563eb","kind":"recorded_transit"},"geometry":{"type":"MultiLineString","coordinates":[[[51.524,35.724],[51.523,35.723],[51.516,35.722],[51.512,35.72],[51.505,35.711],[51.5,35.701],[51.494,35.692],[51.492,35.686],[51.508,35.675],[51.508,35.667]]]}},{"type":"Feature","properties":{"route":2,"color":"#0d9488","kind":"recorded_transit"},"geometry":{"type":"MultiLineString","coordinates":[[[51.485,35.733],[51.482,35.732],[51.475,35.733],[51.466,35.732],[51.464,35.731],[51.458,35.731],[51.458,35.73],[51.46,35.731],[51.462,35.729],[51.462,35.729],[51.461,35.729],[51.461,35.729],[51.462,35.729],[51.462,35.729],[51.462,35.73],[51.462,35.729],[51.462,35.729],[51.462,35.729],[51.462,35.729],[51.469,35.722],[51.469,35.724],[51.469,35.724],[51.469,35.723]],[[51.469,35.723],[51.472,35.721],[51.473,35.719],[51.473,35.719],[51.473,35.719],[51.472,35.721],[51.473,35.72],[51.472,35.721],[51.472,35.721],[51.472,35.721],[51.471,35.719],[51.469,35.72],[51.471,35.719],[51.471,35.719],[51.474,35.718],[51.475,35.716],[51.476,35.716],[51.478,35.715],[51.481,35.712],[51.476,35.711],[51.471,35.714],[51.471,35.714],[51.472,35.714],[51.472,35.714],[51.47,35.715],[51.47,35.715],[51.465,35.719],[51.464,35.718],[51.465,35.717],[51.465,35.717],[51.465,35.717],[51.459,35.728],[51.458,35.736],[51.461,35.741]]]}},{"type":"Feature","properties":{"route":3,"color":"#7c3aed","kind":"recorded_transit"},"geometry":{"type":"MultiLineString","coordinates":[[[51.442,35.751],[51.448,35.752],[51.455,35.755],[51.46,35.756],[51.471,35.757],[51.481,35.759],[51.486,35.758],[51.486,35.757],[51.484,35.761]]]}},{"type":"Feature","properties":{"route":4,"color":"#d97706","kind":"recorded_transit"},"geometry":{"type":"MultiLineString","coordinates":[[[51.559,35.769],[51.539,35.776],[51.521,35.778],[51.514,35.782],[51.514,35.782],[51.514,35.782],[51.521,35.79],[51.518,35.791],[51.516,35.791],[51.516,35.791],[51.516,35.791],[51.517,35.791],[51.517,35.791],[51.521,35.79],[51.514,35.783],[51.503,35.786],[51.508,35.797],[51.524,35.794],[51.52,35.795],[51.52,35.796],[51.52,35.796],[51.52,35.796],[51.518,35.796],[51.52,35.798],[51.52,35.798],[51.523,35.801],[51.524,35.802],[51.527,35.803],[51.524,35.804],[51.526,35.807],[51.526,35.807],[51.526,35.807],[51.525,35.809],[51.525,35.809],[51.525,35.809],[51.526,35.807],[51.524,35.805],[51.526,35.803],[51.524,35.802],[51.518,35.796],[51.509,35.797],[51.509,35.799],[51.509,35.799],[51.509,35.799]],[[51.512,35.809],[51.512,35.809],[51.512,35.809]]]}},{"type":"Feature","properties":{"route":5,"color":"#0891b2","kind":"recorded_transit"},"geometry":{"type":"MultiLineString","coordinates":[[[51.468,35.775],[51.465,35.776],[51.466,35.778],[51.465,35.778],[51.465,35.781]]]}},{"type":"Feature","properties":{"route":6,"color":"#db2777","kind":"recorded_transit"},"geometry":{"type":"MultiLineString","coordinates":[[[51.467,35.764],[51.465,35.749]],[[51.447,35.742],[51.445,35.742],[51.445,35.742],[51.445,35.742],[51.444,35.742],[51.444,35.741],[51.44,35.741],[51.439,35.739],[51.439,35.739],[51.439,35.739],[51.438,35.739],[51.438,35.739],[51.438,35.739],[51.438,35.739],[51.436,35.739],[51.436,35.739],[51.433,35.74],[51.433,35.739],[51.433,35.739],[51.433,35.738],[51.433,35.738],[51.433,35.737],[51.433,35.737],[51.433,35.736],[51.433,35.736],[51.433,35.736],[51.436,35.736],[51.436,35.736],[51.436,35.736],[51.441,35.736],[51.441,35.736],[51.442,35.736],[51.444,35.739],[51.446,35.739],[51.447,35.742],[51.462,35.741],[51.465,35.75],[51.467,35.764]],[[51.467,35.764],[51.465,35.749]]]}},{"type":"Feature","properties":{"route":7,"color":"#4f46e5","kind":"recorded_transit"},"geometry":{"type":"MultiLineString","coordinates":[[[51.41,35.685],[51.406,35.668],[51.407,35.668],[51.407,35.668],[51.407,35.667],[51.407,35.668],[51.407,35.668],[51.406,35.668],[51.405,35.659],[51.421,35.659],[51.423,35.663],[51.421,35.663],[51.422,35.665],[51.425,35.664],[51.426,35.665],[51.426,35.666],[51.426,35.666],[51.426,35.667],[51.428,35.667],[51.43,35.665],[51.433,35.665],[51.437,35.67],[51.446,35.668],[51.445,35.666],[51.443,35.666],[51.443,35.666],[51.442,35.667],[51.442,35.667],[51.437,35.668],[51.437,35.668],[51.436,35.668]],[[51.472,35.669],[51.474,35.673],[51.481,35.672],[51.479,35.687],[51.481,35.687],[51.477,35.697],[51.477,35.697],[51.477,35.697],[51.475,35.697],[51.476,35.692]],[[51.465,35.707],[51.466,35.706],[51.468,35.706],[51.468,35.705],[51.468,35.705],[51.469,35.705],[51.473,35.707],[51.473,35.706],[51.473,35.706],[51.473,35.707],[51.473,35.707],[51.474,35.706],[51.477,35.708],[51.476,35.708],[51.476,35.708],[51.476,35.71],[51.519,35.723]]]}},{"type":"Feature","properties":{"route":8,"color":"#65a30d","kind":"recorded_transit"},"geometry":{"type":"MultiLineString","coordinates":[[[51.438,35.702],[51.42,35.702],[51.42,35.702],[51.413,35.702],[51.409,35.68],[51.394,35.682],[51.394,35.682],[51.394,35.682],[51.394,35.675],[51.374,35.668],[51.375,35.668],[51.378,35.664],[51.378,35.664],[51.378,35.664],[51.375,35.662],[51.372,35.663],[51.372,35.663],[51.372,35.663],[51.373,35.662],[51.375,35.663],[51.377,35.659]],[[51.391,35.64],[51.394,35.646],[51.399,35.649],[51.438,35.645]]]}},{"type":"Feature","properties":{"route":9,"color":"#c2410c","kind":"recorded_transit"},"geometry":{"type":"MultiLineString","coordinates":[[[51.428,35.669],[51.416,35.668]],[[51.365,35.687],[51.365,35.681],[51.366,35.681],[51.366,35.681]],[[51.38,35.674],[51.373,35.675],[51.373,35.677]],[[51.368,35.683],[51.367,35.685],[51.365,35.685],[51.365,35.685],[51.365,35.685]],[[51.363,35.697],[51.363,35.697],[51.363,35.697],[51.362,35.699],[51.363,35.697],[51.363,35.697],[51.364,35.695]],[[51.366,35.7],[51.366,35.7],[51.366,35.7],[51.366,35.699]]]}},{"type":"Feature","properties":{"route":10,"color":"#0284c7","kind":"recorded_transit"},"geometry":{"type":"MultiLineString","coordinates":[[[51.429,35.702],[51.401,35.701],[51.4,35.703],[51.398,35.703],[51.396,35.707],[51.394,35.706],[51.394,35.706],[51.394,35.707],[51.394,35.707],[51.392,35.706],[51.378,35.706],[51.379,35.704],[51.379,35.704],[51.379,35.704],[51.387,35.705],[51.385,35.709],[51.383,35.709],[51.383,35.709],[51.383,35.709],[51.385,35.708]],[[51.415,35.752],[51.422,35.749],[51.429,35.749]]]}},{"type":"Feature","properties":{"route":11,"color":"#9333ea","kind":"recorded_transit"},"geometry":{"type":"MultiLineString","coordinates":[[[51.483,35.652],[51.483,35.649],[51.485,35.648],[51.484,35.639],[51.483,35.637],[51.48,35.637],[51.475,35.638],[51.47,35.635],[51.462,35.632],[51.436,35.628],[51.43,35.625],[51.42,35.618],[51.415,35.615],[51.407,35.614],[51.376,35.614],[51.351,35.609],[51.341,35.609],[51.332,35.614],[51.321,35.627],[51.314,35.632],[51.284,35.646],[51.238,35.664],[51.234,35.669],[51.232,35.675],[51.233,35.681],[51.235,35.685],[51.236,35.685],[51.236,35.683],[51.232,35.684],[51.183,35.704],[51.165,35.708],[51.15,35.714],[51.15,35.714],[51.149,35.714],[51.149,35.714],[51.148,35.714],[51.148,35.714],[51.147,35.714],[51.147,35.714],[51.146,35.715],[51.146,35.715],[51.145,35.715],[51.145,35.715],[51.142,35.716],[51.129,35.727],[51.128,35.728],[51.129,35.731],[51.114,35.738],[51.086,35.744],[51.075,35.75],[51.055,35.759],[51.041,35.767]],[[51.003,35.791],[51.006,35.784],[51.005,35.771],[50.996,35.743],[50.993,35.711],[50.976,35.658],[50.976,35.658],[50.975,35.657],[50.964,35.66],[50.936,35.671],[50.902,35.679],[50.889,35.685],[50.879,35.688],[50.846,35.692],[50.83,35.691],[50.818,35.692],[50.811,35.694],[50.8,35.699]],[[50.8,35.724],[50.806,35.727],[50.81,35.728],[50.82,35.727],[50.82,35.727],[50.821,35.727],[50.819,35.726],[50.82,35.727],[50.82,35.727],[50.82,35.727],[50.82,35.727],[50.822,35.728],[50.822,35.727],[50.82,35.727],[50.82,35.727],[50.82,35.727],[50.82,35.726],[50.82,35.727],[50.82,35.727],[50.82,35.728],[50.82,35.727],[50.82,35.727],[50.82,35.726],[50.82,35.727],[50.82,35.727],[50.82,35.728],[50.82,35.727],[50.82,35.727],[50.82,35.727],[50.826,35.726],[50.85,35.725],[50.866,35.728],[50.879,35.732]],[[50.939,35.78],[50.959,35.793],[50.944,35.783],[50.954,35.774],[50.955,35.774],[50.956,35.772],[50.956,35.772],[50.956,35.772],[50.955,35.774],[50.945,35.784],[50.966,35.798],[50.973,35.793],[50.977,35.795],[50.979,35.793],[50.982,35.794],[50.991,35.792],[51.006,35.79]],[[51.076,35.749],[51.086,35.743],[51.108,35.739],[51.121,35.734],[51.129,35.725],[51.149,35.713],[51.164,35.708],[51.183,35.704],[51.228,35.686],[51.232,35.682],[51.231,35.677],[51.231,35.673],[51.234,35.667],[51.238,35.664],[51.277,35.649],[51.318,35.628],[51.331,35.613],[51.341,35.608],[51.347,35.607],[51.349,35.608],[51.349,35.608],[51.378,35.614],[51.414,35.615],[51.42,35.617],[51.428,35.623],[51.436,35.627],[51.444,35.629],[51.459,35.63],[51.467,35.633],[51.474,35.637],[51.483,35.636],[51.483,35.637],[51.483,35.637],[51.484,35.638]]]}},{"type":"Feature","properties":{"route":12,"color":"#059669","kind":"recorded_transit"},"geometry":{"type":"MultiLineString","coordinates":[[[51.438,35.75],[51.423,35.749],[51.415,35.752],[51.368,35.749]],[[51.331,35.751],[51.351,35.751],[51.368,35.749],[51.415,35.752],[51.424,35.749],[51.438,35.75]]]}},{"type":"Feature","properties":{"route":13,"color":"#be123c","kind":"recorded_transit"},"geometry":{"type":"MultiLineString","coordinates":[[[51.349,35.751],[51.368,35.749],[51.385,35.75]]]}},{"type":"Feature","properties":{"route":14,"color":"#475569","kind":"recorded_transit"},"geometry":{"type":"MultiLineString","coordinates":[[[51.466,35.763],[51.465,35.748],[51.463,35.745],[51.459,35.741],[51.437,35.743],[51.43,35.741],[51.418,35.74],[51.406,35.744],[51.397,35.741],[51.387,35.744]],[[51.377,35.706],[51.374,35.705],[51.375,35.703],[51.375,35.703],[51.375,35.703],[51.37,35.702],[51.37,35.702],[51.37,35.702],[51.37,35.702],[51.366,35.702],[51.366,35.702],[51.366,35.702],[51.367,35.703],[51.367,35.703],[51.368,35.706],[51.368,35.706]],[[51.348,35.748],[51.351,35.75],[51.37,35.749],[51.415,35.752],[51.423,35.749],[51.435,35.749],[51.448,35.751],[51.458,35.756],[51.473,35.757]]]}},{"type":"Feature","properties":{"route":15,"color":"#a16207","kind":"recorded_transit"},"geometry":{"type":"MultiLineString","coordinates":[[[51.477,35.739],[51.475,35.739],[51.475,35.739],[51.474,35.739],[51.474,35.739],[51.472,35.74],[51.472,35.74],[51.471,35.74],[51.471,35.74],[51.466,35.741],[51.466,35.741],[51.464,35.741],[51.464,35.741],[51.461,35.741],[51.443,35.743],[51.436,35.743],[51.43,35.741],[51.418,35.74],[51.407,35.744],[51.403,35.744],[51.396,35.741],[51.387,35.744],[51.364,35.739],[51.347,35.741]],[[51.347,35.741],[51.363,35.739],[51.387,35.743],[51.397,35.741],[51.405,35.744],[51.409,35.744],[51.418,35.74],[51.43,35.74],[51.436,35.743],[51.443,35.743],[51.461,35.741],[51.477,35.739]]]}},{"type":"Feature","properties":{"route":16,"color":"#0f766e","kind":"recorded_transit"},"geometry":{"type":"MultiLineString","coordinates":[[[51.187,35.667],[51.187,35.667],[51.186,35.665],[51.186,35.665],[51.185,35.665]],[[51.179,35.704],[51.203,35.695]],[[51.252,35.704],[51.253,35.709],[51.253,35.736],[51.254,35.74]]]}}]}
