{"type":"FeatureCollection","features":[{"type":"Feature","properties":{"route":1,"color":"#2563eb","kind":"routed_access_not_recorded_gps","duration":2.2,"distance":15.9},"geometry":{"type":"LineString","coordinates":[[51.554142,35.729941],[51.55416,35.73013]]}},{"type":"Feature","properties":{"route":2,"color":"#0d9488","kind":"routed_access_not_recorded_gps","duration":10.9,"distance":39.5},"geometry":{"type":"LineString","coordinates":[[51.554142,35.729941],[51.554103,35.729736],[51.554212,35.729798],[51.55427,35.72991]]}},{"type":"Feature","properties":{"route":3,"color":"#7c3aed","kind":"routed_access_not_recorded_gps","duration":437.4,"distance":6223.2},"geometry":{"type":"LineString","coordinates":[[51.554142,35.729941],[51.554103,35.729736],[51.554805,35.728981],[51.554889,35.72889],[51.556695,35.72688],[51.556716,35.726823],[51.556716,35.726762],[51.556682,35.726687],[51.556629,35.72661],[51.556542,35.72652],[51.556248,35.726421],[51.555962,35.72632],[51.555727,35.726265],[51.554782,35.726096],[51.554043,35.726043],[51.553962,35.726038],[51.553566,35.726009],[51.553146,35.725984],[51.552861,35.725968],[51.55168,35.725891],[51.551582,35.725884],[51.550088,35.725772],[51.549714,35.725748],[51.548165,35.725626],[51.546526,35.725503],[51.545845,35.725472],[51.543374,35.725332],[51.54285,35.725292],[51.540668,35.725129],[51.540012,35.725079],[51.539264,35.725025],[51.537258,35.72489],[51.53716,35.724884],[51.535925,35.724798],[51.535271,35.72474],[51.534104,35.724653],[51.533843,35.724636],[51.533476,35.724612],[51.532308,35.724536],[51.530837,35.72444],[51.529931,35.724376],[51.528662,35.724287],[51.527236,35.724187],[51.526755,35.724154],[51.525293,35.724052],[51.524554,35.724004],[51.523877,35.723952],[51.523825,35.723936],[51.52377,35.723912],[51.523725,35.723884],[51.523679,35.723846],[51.523646,35.723808],[51.523608,35.723754],[51.523578,35.72371],[51.523186,35.723084],[51.523105,35.72293],[51.523023,35.722786],[51.522864,35.72253],[51.522715,35.722335],[51.522537,35.722167],[51.522186,35.721922],[51.522006,35.721833],[51.521852,35.72177],[51.521645,35.721708],[51.521368,35.721651],[51.52111,35.721628],[51.520822,35.721622],[51.520362,35.721643],[51.519891,35.721638],[51.519073,35.721679],[51.51842,35.721681],[51.518329,35.721663],[51.51814,35.721638],[51.518084,35.721625],[51.518042,35.721591],[51.518025,35.721557],[51.518024,35.72153],[51.518038,35.721503],[51.518054,35.721482],[51.518077,35.721465],[51.518108,35.721458],[51.518144,35.721452],[51.518204,35.721454],[51.518383,35.721454],[51.518448,35.721452],[51.518536,35.721447],[51.518973,35.72144],[51.519881,35.721458],[51.52028,35.721432],[51.521032,35.72143],[51.521236,35.721444],[51.521416,35.721459],[51.521752,35.72153],[51.522087,35.721639],[51.522396,35.721765],[51.522646,35.721854],[51.522741,35.721888],[51.522965,35.721935],[51.523147,35.721949],[51.523319,35.721943],[51.523945,35.721888],[51.524424,35.721846],[51.524965,35.721811],[51.526275,35.721752],[51.526786,35.721794],[51.527255,35.721767],[51.528275,35.721753],[51.528749,35.721753],[51.529897,35.721826],[51.530537,35.721896],[51.531412,35.722029],[51.532398,35.722228],[51.535121,35.722973],[51.535473,35.72305],[51.535979,35.723147],[51.536529,35.723205],[51.537424,35.72325],[51.538303,35.723228],[51.53843,35.723215],[51.538852,35.723171],[51.539465,35.723033],[51.540197,35.722889],[51.54052,35.72281],[51.540663,35.722732],[51.540778,35.72264],[51.540859,35.722555],[51.540915,35.722472],[51.54064,35.72234]]}},{"type":"Feature","properties":{"route":4,"color":"#d97706","kind":"routed_access_not_recorded_gps","duration":6.6,"distance":45},"geometry":{"type":"LineString","coordinates":[[51.554142,35.729941],[51.554103,35.729736],[51.55412,35.72942]]}},{"type":"Feature","properties":{"route":5,"color":"#0891b2","kind":"routed_access_not_recorded_gps","duration":22.4,"distance":156},"geometry":{"type":"LineString","coordinates":[[51.554142,35.729941],[51.553566,35.730314],[51.553468,35.730426],[51.55323,35.73113]]}},{"type":"Feature","properties":{"route":6,"color":"#e11d48","kind":"routed_access_not_recorded_gps","duration":9.9,"distance":32.7},"geometry":{"type":"LineString","coordinates":[[51.554142,35.729941],[51.554103,35.729736],[51.554212,35.729798],[51.55416,35.72993]]}},{"type":"Feature","properties":{"route":7,"color":"#4f46e5","kind":"routed_access_not_recorded_gps","duration":873.7,"distance":13049.1},"geometry":{"type":"LineString","coordinates":[[51.554142,35.729941],[51.554103,35.729736],[51.554805,35.728981],[51.554889,35.72889],[51.556695,35.72688],[51.556716,35.726823],[51.556716,35.726762],[51.556682,35.726687],[51.556629,35.72661],[51.556542,35.72652],[51.556248,35.726421],[51.555962,35.72632],[51.555727,35.726265],[51.554782,35.726096],[51.554043,35.726043],[51.553962,35.726038],[51.553566,35.726009],[51.553146,35.725984],[51.552861,35.725968],[51.55168,35.725891],[51.551582,35.725884],[51.550088,35.725772],[51.549714,35.725748],[51.548165,35.725626],[51.546526,35.725503],[51.545845,35.725472],[51.543374,35.725332],[51.54285,35.725292],[51.540668,35.725129],[51.540012,35.725079],[51.539264,35.725025],[51.537258,35.72489],[51.53716,35.724884],[51.535925,35.724798],[51.535271,35.72474],[51.534104,35.724653],[51.533843,35.724636],[51.533476,35.724612],[51.532308,35.724536],[51.530837,35.72444],[51.529931,35.724376],[51.528662,35.724287],[51.527236,35.724187],[51.526755,35.724154],[51.525293,35.724052],[51.524554,35.724004],[51.523877,35.723952],[51.523825,35.723936],[51.52377,35.723912],[51.523725,35.723884],[51.523679,35.723846],[51.523646,35.723808],[51.523608,35.723754],[51.523578,35.72371],[51.523186,35.723084],[51.523105,35.72293],[51.522986,35.722815],[51.522932,35.722758],[51.522873,35.722704],[51.522811,35.722673],[51.522716,35.722652],[51.522497,35.722642],[51.522285,35.722617],[51.521969,35.722579],[51.521659,35.722537],[51.52119,35.722455],[51.520724,35.72236],[51.520228,35.722282],[51.519731,35.722167],[51.517688,35.722],[51.5169,35.721883],[51.516208,35.721718],[51.515701,35.721573],[51.515275,35.721433],[51.514853,35.721266],[51.514348,35.721038],[51.513743,35.720713],[51.513117,35.720296],[51.512594,35.719909],[51.51198,35.719326],[51.511417,35.718768],[51.511181,35.718539],[51.510602,35.717992],[51.510062,35.717435],[51.509191,35.716555],[51.508849,35.716182],[51.507182,35.714231],[51.50716,35.714204],[51.50651,35.713538],[51.505799,35.712601],[51.505235,35.711914],[51.50479,35.711255],[51.504696,35.7111],[51.504576,35.710879],[51.504267,35.71027],[51.504,35.709685],[51.503547,35.708534],[51.503128,35.707462],[51.502896,35.706929],[51.502578,35.706264],[51.502459,35.705992],[51.50218,35.705417],[51.502172,35.705395],[51.50199,35.705021],[51.501833,35.704678],[51.501654,35.704299],[51.501571,35.704116],[51.50142,35.703774],[51.501233,35.703312],[51.501104,35.702989],[51.500765,35.702045],[51.500439,35.701283],[51.500297,35.700975],[51.50007,35.700574],[51.49948,35.699647],[51.498707,35.698487],[51.498152,35.697813],[51.496898,35.696369],[51.496713,35.696114],[51.496515,35.695847],[51.496096,35.695306],[51.495255,35.694249],[51.494614,35.693431],[51.493958,35.692578],[51.493777,35.692288],[51.493659,35.692042],[51.493383,35.691304],[51.49297,35.690101],[51.492854,35.689548],[51.492782,35.688644],[51.492752,35.686995],[51.492703,35.685722],[51.492648,35.683346],[51.492605,35.682812],[51.492603,35.682129],[51.492541,35.680842],[51.492518,35.680514],[51.492486,35.68014],[51.492428,35.679475],[51.492412,35.679251],[51.49239,35.67901],[51.492352,35.678261],[51.492341,35.677709],[51.492335,35.677128],[51.492325,35.6766],[51.492288,35.675333],[51.492286,35.674809],[51.492181,35.670027],[51.492157,35.669137],[51.492094,35.668156],[51.492077,35.667797],[51.492002,35.667377],[51.491725,35.666347],[51.490963,35.664098],[51.490825,35.663655],[51.490371,35.662366],[51.490256,35.662021],[51.490078,35.661489],[51.489952,35.661111],[51.489794,35.660863],[51.489746,35.660768],[51.489726,35.660731],[51.489701,35.660698],[51.489636,35.660658],[51.489549,35.660636],[51.489441,35.660636],[51.489342,35.660652],[51.489036,35.6607],[51.488797,35.660718],[51.488061,35.66082],[51.487928,35.660839],[51.487858,35.660849],[51.486047,35.661088],[51.485594,35.661155],[51.485533,35.661164],[51.485391,35.661185],[51.485325,35.661194],[51.482433,35.661609],[51.480933,35.661815],[51.480546,35.66187],[51.480349,35.6619],[51.479942,35.661958],[51.479203,35.66206],[51.479278,35.662504],[51.479334,35.662836],[51.479387,35.663149],[51.479439,35.663454],[51.479453,35.663537],[51.479504,35.663831],[51.479561,35.664171],[51.479616,35.664493],[51.47968,35.664869],[51.479735,35.66519],[51.47931,35.66543]]}},{"type":"Feature","properties":{"route":8,"color":"#65a30d","kind":"routed_access_not_recorded_gps","duration":2.1,"distance":14.4},"geometry":{"type":"LineString","coordinates":[[51.554142,35.729941],[51.55403,35.72971]]}},{"type":"Feature","properties":{"route":9,"color":"#ea580c","kind":"routed_access_not_recorded_gps","duration":216.2,"distance":1814.7},"geometry":{"type":"LineString","coordinates":[[51.554142,35.729941],[51.554103,35.729736],[51.554805,35.728981],[51.554889,35.72889],[51.556695,35.72688],[51.556716,35.726823],[51.556716,35.726762],[51.556682,35.726687],[51.556629,35.72661],[51.556542,35.72652],[51.556248,35.726421],[51.555962,35.72632],[51.555727,35.726265],[51.554782,35.726096],[51.554043,35.726043],[51.553962,35.726038],[51.553566,35.726009],[51.553146,35.725984],[51.552861,35.725968],[51.55168,35.725891],[51.551582,35.725884],[51.550088,35.725772],[51.549714,35.725748],[51.549395,35.725757],[51.548806,35.725733],[51.548284,35.725701],[51.548041,35.725682],[51.548002,35.725745],[51.547819,35.725971],[51.547206,35.726642],[51.546562,35.727367],[51.546345,35.727612],[51.546136,35.727851],[51.546062,35.727936],[51.545867,35.728148],[51.545431,35.728648],[51.545489,35.728686],[51.546372,35.729209],[51.54564,35.72978]]}},{"type":"Feature","properties":{"route":10,"color":"#0284c7","kind":"routed_access_not_recorded_gps","duration":8.4,"distance":56.9},"geometry":{"type":"LineString","coordinates":[[51.554142,35.729941],[51.554103,35.729736],[51.5546,35.72958]]}},{"type":"Feature","properties":{"route":11,"color":"#9333ea","kind":"routed_access_not_recorded_gps","duration":494.8,"distance":6319.2},"geometry":{"type":"LineString","coordinates":[[51.554142,35.729941],[51.554103,35.729736],[51.554805,35.728981],[51.554889,35.72889],[51.556695,35.72688],[51.556716,35.726823],[51.556716,35.726762],[51.556682,35.726687],[51.556629,35.72661],[51.556542,35.72652],[51.556248,35.726421],[51.555962,35.72632],[51.555727,35.726265],[51.554782,35.726096],[51.554043,35.726043],[51.553962,35.726038],[51.553566,35.726009],[51.553146,35.725984],[51.552861,35.725968],[51.55168,35.725891],[51.551582,35.725884],[51.550088,35.725772],[51.549714,35.725748],[51.548165,35.725626],[51.546526,35.725503],[51.545845,35.725472],[51.543374,35.725332],[51.543333,35.725297],[51.543317,35.725279],[51.543307,35.725256],[51.543302,35.725233],[51.543305,35.725208],[51.543323,35.725176],[51.543355,35.725144],[51.543439,35.725119],[51.544146,35.725172],[51.545567,35.725279],[51.545798,35.725303],[51.546187,35.725336],[51.546288,35.725345],[51.546533,35.725366],[51.54912,35.725549],[51.549877,35.725589],[51.55148,35.72571],[51.55201,35.725746],[51.552358,35.725784],[51.553613,35.725867],[51.554481,35.725886],[51.555956,35.726016],[51.55779,35.726145],[51.558327,35.726161],[51.558982,35.726113],[51.561122,35.72602],[51.56305,35.725907],[51.563506,35.725843],[51.563877,35.725769],[51.564262,35.725656],[51.566053,35.725107],[51.566579,35.724966],[51.567302,35.724814],[51.5675,35.724782],[51.570226,35.724337],[51.570792,35.724252],[51.571315,35.724192],[51.572625,35.724074],[51.574228,35.72393],[51.575698,35.723825],[51.576213,35.723798],[51.576592,35.723773],[51.576923,35.723813],[51.576963,35.723828],[51.576986,35.723843],[51.577001,35.723866],[51.576989,35.723891],[51.576959,35.723902],[51.57657,35.723907],[51.57606,35.723961],[51.575843,35.723971],[51.575254,35.723994],[51.57417,35.724082],[51.571507,35.724308],[51.571188,35.724458],[51.571098,35.724561],[51.571094,35.724689],[51.571152,35.724802],[51.571267,35.724901],[51.572572,35.72566],[51.572488,35.725757],[51.572004,35.72548],[51.57075,35.724718],[51.570505,35.724566],[51.57041,35.724523],[51.569233,35.724728],[51.567758,35.72495],[51.567109,35.725072],[51.566164,35.726239],[51.56515,35.727]]}},{"type":"Feature","properties":{"route":12,"color":"#059669","kind":"routed_access_not_recorded_gps","duration":10.9,"distance":39.8},"geometry":{"type":"LineString","coordinates":[[51.554142,35.729941],[51.554103,35.729736],[51.554212,35.729798],[51.55417,35.73003]]}},{"type":"Feature","properties":{"route":13,"color":"#db2777","kind":"routed_access_not_recorded_gps","duration":739.6,"distance":7293},"geometry":{"type":"LineString","coordinates":[[51.554142,35.729941],[51.554103,35.729736],[51.554805,35.728981],[51.554889,35.72889],[51.556695,35.72688],[51.556716,35.726823],[51.556716,35.726762],[51.556682,35.726687],[51.556629,35.72661],[51.556542,35.72652],[51.556248,35.726421],[51.555962,35.72632],[51.555727,35.726265],[51.554782,35.726096],[51.554043,35.726043],[51.553962,35.726038],[51.553566,35.726009],[51.553146,35.725984],[51.552861,35.725968],[51.55168,35.725891],[51.551582,35.725884],[51.550088,35.725772],[51.549714,35.725748],[51.548165,35.725626],[51.546526,35.725503],[51.545845,35.725472],[51.543374,35.725332],[51.54285,35.725292],[51.540668,35.725129],[51.540012,35.725079],[51.539264,35.725025],[51.537258,35.72489],[51.53716,35.724884],[51.535925,35.724798],[51.535271,35.72474],[51.534104,35.724653],[51.533843,35.724636],[51.533476,35.724612],[51.532308,35.724536],[51.530837,35.72444],[51.529931,35.724376],[51.528662,35.724287],[51.527236,35.724187],[51.526755,35.724154],[51.525293,35.724052],[51.524554,35.724004],[51.523877,35.723952],[51.523825,35.723936],[51.52377,35.723912],[51.523725,35.723884],[51.523679,35.723846],[51.523646,35.723808],[51.523608,35.723754],[51.523578,35.72371],[51.523186,35.723084],[51.523105,35.72293],[51.523023,35.722786],[51.522864,35.72253],[51.522715,35.722335],[51.522537,35.722167],[51.522186,35.721922],[51.522006,35.721833],[51.521852,35.72177],[51.521645,35.721708],[51.521368,35.721651],[51.52111,35.721628],[51.520822,35.721622],[51.520362,35.721643],[51.519891,35.721638],[51.519073,35.721679],[51.51842,35.721681],[51.518329,35.721663],[51.51814,35.721638],[51.518084,35.721625],[51.518042,35.721591],[51.518025,35.721557],[51.518024,35.72153],[51.518038,35.721503],[51.518054,35.721482],[51.518077,35.721465],[51.518108,35.721458],[51.518144,35.721452],[51.518204,35.721454],[51.518383,35.721454],[51.518448,35.721452],[51.518536,35.721447],[51.518973,35.72144],[51.519881,35.721458],[51.52028,35.721432],[51.521032,35.72143],[51.521236,35.721444],[51.521416,35.721459],[51.521752,35.72153],[51.522087,35.721639],[51.522303,35.721418],[51.522394,35.721336],[51.522448,35.72131],[51.52248,35.721298],[51.52252,35.721297],[51.52255,35.721314],[51.522646,35.721403],[51.522743,35.72145],[51.522816,35.721451],[51.522883,35.721427],[51.523037,35.721282],[51.523283,35.721049],[51.523519,35.72085],[51.523632,35.720781],[51.523893,35.720641],[51.524006,35.720587],[51.524083,35.72056],[51.524162,35.720546],[51.524405,35.720592],[51.524476,35.720581],[51.524583,35.720648],[51.524707,35.72067],[51.5248,35.720651],[51.524846,35.720599],[51.524904,35.720523],[51.52501,35.720363],[51.525122,35.720195],[51.525222,35.720034],[51.525323,35.719859],[51.525445,35.719689],[51.525523,35.719573],[51.525592,35.719455],[51.525639,35.719284],[51.525679,35.719132],[51.52574,35.718976],[51.525783,35.718924],[51.525838,35.718881],[51.5259,35.718889],[51.525941,35.718903],[51.525983,35.718942],[51.525993,35.71897],[51.525992,35.719029],[51.525983,35.719124],[51.525991,35.719318],[51.526013,35.719497],[51.526044,35.719659],[51.526089,35.719752],[51.52617,35.719832],[51.526281,35.719882],[51.526426,35.719916],[51.526706,35.719946],[51.526974,35.719956],[51.52723,35.719997],[51.527528,35.72004],[51.527748,35.720019],[51.527829,35.71999],[51.528111,35.719917],[51.528221,35.719839],[51.52826,35.719823],[51.52835,35.719785],[51.528459,35.719751],[51.528554,35.719751],[51.528623,35.719779],[51.528654,35.7198],[51.528681,35.719819],[51.528749,35.71992],[51.528808,35.719997],[51.528861,35.720054],[51.528933,35.720107],[51.529021,35.72013],[51.529108,35.720154],[51.529219,35.720154],[51.529347,35.720163],[51.529504,35.720196],[51.529621,35.720267],[51.529755,35.720414],[51.529901,35.720556],[51.530047,35.72066],[51.530227,35.720745],[51.530367,35.720797],[51.530466,35.720816],[51.530536,35.720807],[51.530688,35.720736],[51.530839,35.720679],[51.530956,35.720641],[51.531014,35.720655],[51.531078,35.72067],[51.531084,35.720736],[51.531061,35.720892],[51.531067,35.72102],[51.531108,35.721072],[51.531166,35.721124],[51.531469,35.721186],[51.531965,35.721257],[51.532448,35.721257],[51.532722,35.721238],[51.533113,35.721209],[51.533451,35.721209],[51.533667,35.721209],[51.53464,35.721304],[51.535369,35.72138],[51.535591,35.72138],[51.535923,35.721328],[51.536354,35.721294],[51.53678,35.721304],[51.537503,35.721342],[51.53836,35.721399],[51.539135,35.721446],[51.539288,35.721431],[51.539496,35.721334],[51.539746,35.721273],[51.540056,35.721228],[51.540186,35.721221],[51.540319,35.721219],[51.540467,35.72124],[51.540651,35.721265],[51.540762,35.721257],[51.540889,35.721201],[51.540997,35.721111],[51.540486,35.721021],[51.540146,35.720949],[51.539692,35.720842],[51.539447,35.720748],[51.53903,35.720688],[51.538824,35.720635],[51.538716,35.72056],[51.539246,35.720433],[51.539759,35.720319],[51.540004,35.720258],[51.540085,35.720215],[51.54015,35.72013],[51.54019,35.720012],[51.540348,35.71943],[51.540383,35.719307],[51.540447,35.719245],[51.54054,35.71915],[51.540727,35.719046],[51.540981,35.718943],[51.5411,35.718895],[51.541298,35.7188],[51.541485,35.718677],[51.541939,35.718227],[51.542038,35.71809],[51.542231,35.717977],[51.542371,35.717929],[51.542499,35.717896],[51.54644,35.71512]]}},{"type":"Feature","properties":{"route":14,"color":"#475569","kind":"routed_access_not_recorded_gps","duration":205.8,"distance":1495.8},"geometry":{"type":"LineString","coordinates":[[51.554142,35.729941],[51.553566,35.730314],[51.554904,35.731073],[51.555566,35.731449],[51.555374,35.731473],[51.554659,35.732309],[51.553772,35.733344],[51.553273,35.733928],[51.55261,35.734706],[51.552129,35.73524],[51.552675,35.735545],[51.5531,35.735779],[51.553589,35.736045],[51.554139,35.736337],[51.554089,35.736394],[51.554083,35.736401],[51.553474,35.737119],[51.553349,35.737266],[51.553101,35.737559],[51.552593,35.738158],[51.552589,35.738162],[51.552416,35.738366],[51.552193,35.73863],[51.552831,35.739037],[51.552958,35.739118],[51.553471,35.739445],[51.55345,35.73951]]}},{"type":"Feature","properties":{"route":15,"color":"#ca8a04","kind":"routed_access_not_recorded_gps","duration":1.1,"distance":7.7},"geometry":{"type":"LineString","coordinates":[[51.554142,35.729941],[51.55407,35.72981]]}}]}
