{"type":"FeatureCollection","features":[{"type":"Feature","geometry":{"type":"Polygon","coordinates":[[[51.37975000157903,35.703134352123016],[51.37969056927784,35.703136470663026],[51.379130573114004,35.70317647036664],[51.37906718609319,35.70318345654507],[51.37900488179234,35.70319526108589],[51.378944209483365,35.70321177992092],[51.37888570405152,35.70323286742098],[51.378829881280076,35.703258337679614],[51.378777233303396,35.70328796615191],[51.378728224268464,35.70332149163408],[51.378683286242996,35.70335861856595],[51.37864281540639,35.70339901963666],[51.37860716855694,35.70344233866997],[51.37857665996616,35.70348819376431],[51.37793665356651,35.70456819058514],[51.37792152564024,35.704595584762075],[51.3777215230956,35.704985583747074],[51.37769428878531,35.705049310086984],[51.3776767272263,35.705115259369386],[51.37760672418209,35.705485259001556],[51.37759991323044,35.705537610758945],[51.37759920734135,35.70559025328788],[51.37760461286351,35.705642714021785],[51.37761608128394,35.70569452202515],[51.38595584975611,35.73526456886592],[51.38596512504799,35.735293786975305],[51.39032503281505,35.7476338109741],[51.3903419469495,35.747675427639784],[51.39036283333198,35.74771582767184],[51.39059283094488,35.74811582885128],[51.39062847039127,35.74816983695566],[51.39089846877619,35.74852983825381],[51.39094100718932,35.74858012033348],[51.390990058825075,35.748626292426536],[51.39104503095053,35.74866779658615],[51.39141503159563,35.74891779790227],[51.39147847083803,35.748955844466195],[51.391546870441445,35.74898767152524],[51.3919668724316,35.749157672557054],[51.392040566757764,35.749183219499834],[51.39355057543282,35.74962322228681],[51.393615816357205,35.7496392829541],[51.393682698617646,35.74964995250737],[51.393750553595524,35.74965512428366],[51.39381870294742,35.749654746581015],[51.393886465386906,35.74964882317541],[51.39395316349577,35.74963741328299],[51.39401813049654,35.749620630967975],[51.394080716918616,35.74959864400238],[51.394140297091326,35.749571672188715],[51.39419627539896,35.74953998516241],[51.40405629671638,35.743339951355765],[51.40411044794097,35.74330204822967],[51.40415944026338,35.743259736322884],[51.40420273644605,35.743213479624586],[51.40423986171736,35.743163785381455],[51.40427040897762,35.74311119853494],[51.40429404326294,35.74305629574539],[51.40461403657461,35.74216629407222],[51.404614608231206,35.74216469522488],[51.40477460483982,35.74171469438789],[51.40479245919642,35.74165045380607],[51.40496245230624,35.74081045291334],[51.40496932119189,35.74076483291853],[51.40497154182804,35.740718906167956],[51.4049213649917,35.71995890760197],[51.40492036133477,35.71992983434506],[51.404890357523776,35.71947983453732],[51.404883007560095,35.719423253907095],[51.40486860083653,35.719367582866184],[51.40484728842782,35.71931340514761],[51.404819293816274,35.719261288825216],[51.40478491054805,35.71921178035725],[51.394724856312386,35.70631182812861],[51.39468526163807,35.706266274688446],[51.39464026133737,35.706224192583534],[51.39459030987764,35.706186006802305],[51.39453591172588,35.7061521029835],[51.39447761625417,35.706122823521895],[51.39409761789047,35.70595282453222],[51.39409565229649,35.70595194860931],[51.39204566119647,35.70504195402636],[51.39199206440748,35.705020587167226],[51.39193638132641,35.70500312672828],[51.39187903895301,35.70498970660274],[51.383659091422295,35.70337971699406],[51.3836147511355,35.703372292147925],[51.38196476212069,35.7031422936324],[51.38190758434505,35.70313634093105],[51.38184999429329,35.7031343522127],[51.3802000057424,35.70313435214221],[51.37975000157903,35.703134352123016]]]},"properties":{"group":1,"color":"#2563eb","store_count":49,"source":"recorded_gps_operation_envelope","operation_spans":[[0,335,946]],"label_center":[51.39436867530903,35.727611738233946]}},{"type":"Feature","geometry":{"type":"Polygon","coordinates":[[[51.36996882800701,35.70019490631013],[51.36976130502584,35.70017030050309],[51.36955169970968,35.70016505544665],[51.36934271791001,35.700179238851575],[51.355052978119545,35.70181920720211],[51.354925585489035,35.70183755382314],[51.337415891940516,35.704877496946395],[51.337254456971074,35.70491179825224],[51.33709747831161,35.704957848058555],[51.336946238265206,35.70501527020347],[51.336476243912685,35.70521526688293],[51.336324121045095,35.705287733435576],[51.33618116108435,35.70537169882393],[51.336048666336815,35.70546639817601],[51.335927843789804,35.70557096883718],[51.33581979411658,35.70568445822744],[51.335725501649236,35.705805832518],[51.33564582541084,35.705933986047825],[51.33558149128848,35.70606775139493],[51.335533085418625,35.70620591001015],[51.335501048845146,35.706347203317094],[51.335431039411255,35.70676720231864],[51.33542720682078,35.706791697968],[51.33474710171328,35.711441688319105],[51.334745023437215,35.71145652203193],[51.33136445083378,35.736686474245374],[51.33135352356084,35.73684998582576],[51.33135352148301,35.73693998583688],[51.33135954584017,35.73706152393273],[51.33137758523016,35.73718226877558],[51.3314075819104,35.73733226924174],[51.331444701510904,35.7374743391071],[51.33149844217482,35.73761283094264],[51.331568303661754,35.73774645539122],[51.331653635637416,35.737873968404806],[51.33175364372579,35.73799418282735],[51.33186739690267,35.73810597944824],[51.331993836162205,35.738208317423194],[51.34917388428218,35.75082849134977],[51.34922060153071,35.750861660076595],[51.34973060375616,35.75121166503992],[51.349821177174995,35.751269980244174],[51.35040118123319,35.75161998544918],[51.350532745374224,35.7516924544087],[51.35067145994536,35.751755443152284],[51.35081629951299,35.75180848603554],[51.35096619335756,35.75185119093806],[51.49394855243355,35.786941799773146],[51.494057302457286,35.78696549490062],[51.49452731064837,35.78705549646612],[51.4945649588065,35.78706236844066],[51.496004984270456,35.7873123727886],[51.49613478916665,35.78733099108573],[51.496574797247234,35.78738099194292],[51.496784106196685,35.787394957500815],[51.500244171417,35.78746495828063],[51.50038420207212,35.787463463443956],[51.50052369149634,35.787453330944516],[51.501293705629905,35.78737332935376],[51.501453430479884,35.787350894486664],[51.501610127502,35.78731714010155],[51.50342015671494,35.78685713169271],[51.50342199038462,35.78685666480728],[51.50734205357372,35.78585664653321],[51.50735465024385,35.785853392494815],[51.50800466063699,35.7856833893976],[51.50801852697057,35.78567971352187],[51.50868853758552,35.78549971025371],[51.508705128913675,35.785495181728],[51.53509554205515,35.77817504931583],[51.53526688713946,35.77811957866555],[51.535430593494965,35.77805046656118],[51.53558503051827,35.777968401406156],[51.53572865994823,35.7778742006225],[51.5358600511889,35.77776880250778],[51.535977895559434,35.77765325688764],[51.53608101932875,35.777528714657926],[51.536168395405305,35.77739641631978],[51.536239153565575,35.77725767962259],[51.53629258911928,35.7771138864376],[51.53632816992534,35.776966468993024],[51.53634554168865,35.776816895607986],[51.53634453148506,35.77666665606716],[51.53632514947975,35.77651724678196],[51.536287588821835,35.776370155886134],[51.53623222371655,35.77622684841398],[51.536159605694394,35.776088751709096],[51.53607045811438,35.77595724120874],[51.53596566895653,35.7758336267454],[51.535846281975196,35.77571913950217],[51.53571348630174,35.775614919751334],[51.535568604599895,35.77552200549884],[51.535413079892066,35.775441322147095],[51.375564872867685,35.70120250739663],[51.375390431215116,35.701130996200604],[51.37520770494535,35.70107491509959],[51.37501873857767,35.70103489158007],[51.36996882800701,35.70019490631013]]]},"properties":{"group":2,"color":"#0d9488","store_count":51,"source":"recorded_gps_operation_envelope","operation_spans":[[0,623,1924]],"label_center":[51.40470744179509,35.74451840438648]}},{"type":"Feature","geometry":{"type":"Polygon","coordinates":[[[51.30581380538966,35.7018553514888],[51.305727149391394,35.7018545407256],[51.305640788384295,35.7018604241615],[51.305555497873094,35.70187294896449],[51.30547204375053,35.7018920026644],[51.30539117542023,35.70191741416266],[51.305313619067825,35.701948955268705],[51.305240071140204,35.701986342748896],[51.30517119209195,35.70202924086969],[51.30510760045468,35.70207726441228],[51.30504986728292,35.70212998213164],[51.30499851102591,35.702186920628684],[51.28100835286183,35.731596771574864],[51.28096349351853,35.7316578772158],[51.28092598532668,35.73172219244058],[51.28089617018483,35.731789131027504],[51.28087431987291,35.73185808284183],[51.28086063357438,35.73192841939705],[51.28085523605997,35.73199949958323],[51.28085817654969,35.73207067551065],[51.28086942826328,35.732141298415236],[51.2822993573431,35.73866130929942],[51.282329578302566,35.73875982586255],[51.285539499891335,35.74683984913897],[51.28554970161603,35.746864096710325],[51.285669699103984,35.74713409756868],[51.28570572475416,35.747203877980446],[51.28575024153903,35.747270322071834],[51.28580279089615,35.74733274537929],[51.28586283151309,35.74739050485725],[51.28592974490314,35.747443005502674],[51.28600284177634,35.747489706484764],[51.28608136914,35.747530126716555],[51.286164518055784,35.747563849811215],[51.28625143197315,35.747590528371575],[51.28634121555354,35.74760988756927],[51.28643294389433,35.747621727975954],[51.28689294811863,35.747661728322626],[51.2869856777964,35.74766592761529],[51.287078451999975,35.74766244264172],[51.287170314986646,35.74765130930362],[51.29437037803109,35.746471298357704],[51.29445751961011,35.746453343145575],[51.29454207981067,35.74642850479493],[51.29462324268897,35.74639702297843],[51.29470022508554,35.7463592014732],[51.29512022684506,35.74612919970716],[51.295160026733036,35.746106124277276],[51.33431015054141,35.72208594703009],[51.33437326699275,35.72204346376442],[51.33456326721822,35.72190346280773],[51.334624876250764,35.72185353389283],[51.334680400158724,35.72179906486209],[51.33472933831589,35.721740546843165],[51.334771249480276,35.72167850747091],[51.334805755772386,35.7216135061296],[51.335995732071886,35.71904349790756],[51.336023125180965,35.718974301861],[51.33604212677554,35.71890325958416],[51.336052556324,35.71883104612444],[51.33605431474776,35.718758347656156],[51.336047385361866,35.718685854960285],[51.33603183403259,35.71861425686074],[51.33600780855076,35.718544233679175],[51.33597553722655,35.71847645077074],[51.33593532671932,35.71841155220204],[51.33588755912315,35.71835015463147],[51.33583268833556,35.71829284145003],[51.33577123574426,35.71824015723825],[51.335703785272734,35.718192602591934],[51.31069385812347,35.7022227178259],[51.31061844612464,35.702179367733876],[51.31053806322688,35.70214243567389],[51.31045352748963,35.70211229750211],[51.310365699232435,35.70208925993321],[51.31027547228004,35.7020735574192],[51.31018376486659,35.702065349763586],[51.30581380538966,35.7018553514888]]]},"properties":{"group":3,"color":"#7c3aed","store_count":51,"source":"recorded_gps_operation_envelope","operation_spans":[[0,443,1263]],"label_center":[51.305723403186356,35.726841359302476]}},{"type":"Feature","geometry":{"type":"Polygon","coordinates":[[[51.48764540241943,35.71322076075744],[51.48757827815846,35.71320743897775],[51.48750990726922,35.71319936927328],[51.48744090614018,35.71319662439543],[51.487371896841246,35.71319922909038],[51.487303501516045,35.71320715987599],[51.48723633677338,35.713220345253426],[51.48717100812865,35.713238666351806],[51.48710810454523,35.71326195799968],[51.48704819312505,35.713290010214116],[51.486991813996134,35.71332257009358],[51.48009182905205,35.71772254461593],[51.48001733010677,35.71777718810458],[51.46130732190484,35.733527107961976],[51.46126596157291,35.73356503361156],[51.46125596154823,35.73357503356547],[51.461218042960226,35.733616521635376],[51.46116804271154,35.73367652139036],[51.46113040261657,35.733726907669535],[51.46109908519786,35.73378009246617],[51.461074400053946,35.733835550026605],[51.46105659122215,35.73389273212891],[51.461045834765784,35.73395107350206],[51.46104223703301,35.73400999741393],[51.46104583360502,35.73406892137245],[51.46105658894365,35.73412726288379],[51.46107439674205,35.7341844452107],[51.461099080975,35.7342399030739],[51.46113039763849,35.73429308824026],[51.461168037161286,35.734343474942506],[51.461268036686306,35.734463475439796],[51.46128656722304,35.73448469485997],[51.46235656354989,35.73565470000787],[51.46236283893517,35.73566146047226],[51.46464283202177,35.738081471317955],[51.46468068930402,35.73811844331746],[51.464722099594155,35.73815279038449],[51.465572100226716,35.738802793851264],[51.46559483889218,35.73881946399447],[51.4659648394599,35.73907946543232],[51.46603987431,35.739125655879135],[51.46644987578127,35.73934565721376],[51.466516624160235,35.73937746525722],[51.46658713457825,35.7394033211072],[51.46666061135055,35.739422932988724],[51.466736225316,35.73943607958792],[51.46766623198092,35.73955608040564],[51.46772762354386,35.739561836149605],[51.46789762479712,35.73957183621319],[51.4679761004772,35.73957299295941],[51.4680542726063,35.739567253264205],[51.5009745085802,35.73567722323174],[51.50098087000229,35.73567644720816],[51.50281088306049,35.73544644543811],[51.502814305303346,35.73544600849199],[51.516304401318685,35.73369599504932],[51.5163263823321,35.7336928597969],[51.5167763854791,35.73362285926726],[51.51678279243197,35.73362183831284],[51.521072822259754,35.732921833037906],[51.52113647548646,35.73290898896514],[51.52119845233629,35.73289152533335],[51.521258249620146,35.73286958392991],[51.52131538184595,35.73284334289709],[51.52136938516051,35.732813015285636],[51.529319404458285,35.72790298646925],[51.529372416187464,35.727866889371924],[51.529420992355945,35.72782685693788],[51.5294646954093,35.727783249768834],[51.5295031316908,35.727736460666144],[51.52953595498716,35.72768691109243],[51.52956286964691,35.727635047374996],[51.529842865031796,35.727015045846116],[51.52986366401491,35.72696122460092],[51.52987809891702,35.72690603567293],[51.52988603919935,35.72684997820147],[51.52988741306232,35.7267935591801],[51.52988220809436,35.72673728887124],[51.529870471383695,35.72668167619128],[51.52985230909196,35.72662722410787],[51.529827885493596,35.72657442509113],[51.52979742148971,35.726523756659695],[51.52976119260983,35.72647567706221],[51.52971952651966,35.7264306211329],[51.52967280005739,35.726388996359134],[51.52962143582545,35.72635117919623],[51.52956589836827,35.72631751166286],[51.52950668997105,35.72628829824811],[51.52944434611709,35.726263803157664],[51.5281443534714,35.725813806126894],[51.52812020170137,35.725805858596864],[51.4914704201846,35.71435593504403],[51.49146544611,35.71435439707082],[51.48819546578112,35.71335440376555],[51.48814539915145,35.71334075994098],[51.48764540241943,35.71322076075744]]]},"properties":{"group":4,"color":"#d97706","store_count":45,"source":"recorded_gps_operation_envelope","operation_spans":[[0,150,1009]],"label_center":[51.49972828620035,35.72637008777768]}},{"type":"Feature","geometry":{"type":"Polygon","coordinates":[[[51.148404026513155,35.71490381843183],[51.14848975429048,35.71481783019159],[51.14856456395113,35.71472531131521],[51.14862771284181,35.71462718030766],[51.14867857408167,35.71452441138639],[51.14871664278443,35.714418024808936],[51.14874154106897,35.71430907674372],[51.14875302180904,35.71419864878438],[51.14875097108438,35.71408783721199],[51.148735409309595,35.71397774211141],[51.1487064910292,35.71386945645031],[51.14866450338126,35.71376405522884],[51.148609863244815,35.7136625848079],[51.14854311309943,35.71356605252192],[51.14846491563831,35.713475416679174],[51.148376047188194,35.71339157704885],[51.148277390001624,35.71331536592948],[51.14816992349801,35.71324753988709],[51.148054714540585,35.713188772245296],[51.14793290684559,35.713139646401686],[51.14780570962902,35.71310065003696],[51.1476743856034,35.71307217027413],[51.14754023844386,35.71305448983596],[51.147404599847775,35.713047784238654],[51.14726881631639,35.71305212004963],[51.14713423578962,35.713067454226916],[51.14700219426649,35.713093634546205],[51.146874002544116,35.71313040111197],[51.14624400927431,35.71334039843092],[51.14621609357284,35.713350000025514],[51.14277612900865,35.714569984603635],[51.14268908144453,35.714603888147124],[51.14221908564121,35.714803885706345],[51.14219223557479,35.7148156241301],[51.141702239713204,35.7150356214782],[51.14168994833553,35.71504120756931],[51.14118995244269,35.715271204813185],[51.14117743149506,35.71527703574532],[50.92121920063203,35.81863580479831],[50.921210715249,35.81863981224489],[50.9205807202558,35.81893980868669],[50.92057193953301,35.81894402582092],[50.9199319445064,35.819254022160045],[50.919907326710444,35.819266234505946],[50.91927733128161,35.8195862307746],[50.91921348594812,35.8196207224654],[50.91860348946757,35.81997071853171],[50.918579991974354,35.81998450643192],[50.91797999507169,35.82034450244652],[50.917951354626275,35.82036216443191],[50.7994118781531,35.89535134944508],[50.799314880660326,35.895418733158586],[50.79922602369684,35.89549317939759],[50.799146080817266,35.895574040081335],[50.79907574798233,35.89566061128704],[50.79901563749979,35.895752139377336],[50.79896627269328,35.89584782756063],[50.798928083345565,35.89594684282693],[50.79890140195593,35.896048323199444],[50.79888646084424,35.896151385238106],[50.79888339012697,35.89625513173018],[50.79942305612294,35.91568513672643],[50.79943226050625,35.91579125837783],[50.79945388673508,35.915896179229385],[50.799487737001165,35.91599893936724],[50.79953350165619,35.916098598642094],[50.799590762043096,35.91619424527097],[50.799658994324915,35.91628500417935],[50.79973757427619,35.916370045007774],[50.79982578299311,35.91644858970931],[50.799922813470076,35.91651991966857],[50.80002777798282,35.916583382276855],[50.80013971621019,35.91663839690358],[50.80025760402053,35.91668446020912],[50.80038036284221,35.91672115075039],[50.800506869532455,35.91674813283722],[50.800635966654205,35.91676515960391],[50.80076647306698,35.916772075268284],[50.80089719473469,35.91676881655704],[50.81557739845203,35.915828804235524],[50.81562185002421,35.915825360168924],[50.81650186212348,35.915745359106204],[50.81652055251622,35.91574355387189],[50.817400564556316,35.915653552673575],[50.817419158142236,35.91565154550847],[50.8182991701163,35.91555154417525],[50.81831765711479,35.915549338446176],[50.81919766901609,35.9154393369788],[50.8192370151697,35.915433939372285],[50.820107026759054,35.9153039376395],[50.82014348854615,35.91529807135272],[50.82101349994237,35.915148069358466],[50.82103822705082,35.91514361090218],[50.822738249030785,35.91482360665838],[50.82278219851776,35.91481470713264],[50.82361220896673,35.914634704759784],[50.823630363171404,35.91463065854468],[50.82446037349121,35.91444065604741],[50.8245005673055,35.914430911271836],[50.825320577192386,35.91422090853275],[50.825325169297926,35.91421972524909],[50.826135179026814,35.91400972251254],[50.82617058110709,35.914000109114845],[50.82698059053278,35.913770106141634],[50.82698558906662,35.91376867793807],[50.82778559833101,35.91353867496839],[50.827820288214966,35.91352827015166],[50.82862029715245,35.913278266952865],[50.82865957518516,35.91326542124823],[50.82944958360893,35.91299541783316],[50.829486171506,35.91298239829513],[50.85090638862829,35.90505229917519],[50.85093003114744,35.90504332079128],[50.85242004570174,35.90446331360183],[50.852449205853404,35.90445161366616],[50.85319921282214,35.904141609866585],[50.85324541005649,35.90412160053832],[50.854745422757,35.90344159236657],[50.85476706581532,35.90343156932598],[50.85550707177113,35.90308156516214],[50.85555676532884,35.90305689463038],[50.856286770441706,35.902676890222864],[50.85629397617846,35.9026731132782],[50.857013981104394,35.9022931088881],[50.85702758945333,35.90228583253695],[50.85774759415328,35.90189582806576],[50.85777570260649,35.9018801878557],[50.85847570669903,35.90148018334593],[50.858483266974794,35.90147583193385],[50.85917327087661,35.901075827445304],[50.85921116022937,35.901053051345784],[51.129622387660675,35.73190120527435],[51.12971705548895,35.731835957864796],[51.129804068312374,35.731763972986926],[51.148404026513155,35.71490381843183]]]},"properties":{"group":5,"color":"#0891b2","store_count":60,"source":"recorded_gps_operation_envelope","operation_spans":[[0,877,1529],[1,0,131]],"label_center":[51.03690172588461,35.77526850503633]}},{"type":"Feature","geometry":{"type":"Polygon","coordinates":[[[51.43719828272244,35.74676560896433],[51.437155156548904,35.7467674446364],[51.43711244893205,35.746772664335225],[51.43707055849366,35.74678121934153],[51.4370298762285,35.74679302980515],[51.436990781855016,35.746807985490264],[51.43695364027122,35.746825946804286],[51.43656364109042,35.74703594601034],[51.43652710219711,35.747057870106815],[51.43649347766256,35.74708270067527],[51.43646311388335,35.747110181915836],[51.43643632366532,35.747140030721596],[51.43641338300102,35.74717193959505],[51.42530331914534,35.76459190388446],[51.42528555620496,35.7646233045781],[51.42527152496838,35.76465593610496],[51.42526135177933,35.76468950464645],[51.42525512824359,35.76472370794663],[51.42525291040393,35.764758238033735],[51.42525471823532,35.76479278399314],[51.42526053546494,35.764827034766896],[51.42527030971844,35.7648606819546],[51.42528395299143,35.76489342259027],[51.432333889221475,35.77949344710052],[51.43234262313721,35.779510279547154],[51.432442622414214,35.7796902798865],[51.43246311594289,35.779722735835904],[51.43248749130224,35.779753358305676],[51.432515503924385,35.779781840042794],[51.43254687274575,35.77980789527311],[51.43258128302711,35.77983126256882],[51.4326183895115,35.779851707471586],[51.432657819888405,35.77986902484507],[51.43269917852945,35.77988304093321],[51.43274205045803,35.779893615103816],[51.43278600551326,35.7799006412595],[51.43283060266604,35.779904048902395],[51.43287539444451,35.77990380384149],[51.432919931423896,35.77989990853569],[51.43296376673614,35.779892402069116],[51.43300646055372,35.77988135975898],[51.43323646139351,35.77981135945783],[51.433275479354926,35.77979773165256],[51.433312735661886,35.779781150364876],[51.43334789456296,35.7797617650248],[51.43338063920914,35.77973975033226],[51.43341067450929,35.77971530468268],[51.43343772978951,35.77968864837893],[51.43346156123241,35.77966002164597],[51.43361156062371,35.779460021180505],[51.43363949021171,35.77941641501636],[51.44360941283226,35.76089638206526],[51.44361961095743,35.7608757422148],[51.446659580124,35.75413573197047],[51.44667267305825,35.75410162029318],[51.44783265459452,35.7504616163087],[51.44784230091041,35.75042277301619],[51.44784671539953,35.7503833054998],[51.44784584585219,35.75034368060701],[51.44783970256177,35.750304367046056],[51.44710968534359,35.74705436980332],[51.4470990805493,35.74701787296578],[51.4470839299037,35.74698245811349],[51.4470739298181,35.746962458148055],[51.44705523230702,35.746929788070275],[51.44703266632272,35.74689878401393],[51.44700645274179,35.746869749441764],[51.44697684814207,35.746842968539276],[51.44694414229129,35.74681870343317],[51.44690865531072,35.74679719162572],[51.446870734541974,35.7467786436703],[51.44683075114728,35.74676324111055],[51.4467890964767,35.74675113470352],[51.446746178237774,35.74674244294416],[51.446702416505104,35.74673725090557],[51.4466582396089,35.74673560940627],[51.43719828272244,35.74676560896433]]]},"properties":{"group":6,"color":"#e11d48","store_count":47,"source":"recorded_gps_operation_envelope","operation_spans":[[0,406,505],[1,0,103]],"label_center":[51.43454824206693,35.76274414297486]}},{"type":"Feature","geometry":{"type":"Polygon","coordinates":[[[51.48123730507886,35.63445228215612],[51.48096638576365,35.63444261699863],[51.48069591913519,35.63445864060943],[51.47985593853512,35.634548638365665],[51.479658419153765,35.63457688479162],[51.42104970885818,35.64507663482246],[51.42084181957493,35.64512210403507],[51.4206399361968,35.645182991109934],[51.42044577086697,35.64525877967788],[51.420260970286506,35.645348826991686],[51.397391220777834,35.65768858379985],[51.39727275522048,35.65775688528493],[51.39701275729173,35.6579168822734],[51.39685362438344,35.65802412063207],[51.39609362667228,35.65858411086243],[51.39595436726031,35.6586956769995],[51.39564436647519,35.658965672671776],[51.395506798680394,35.65909692208186],[51.39507679450137,35.65954691561392],[51.39497433802443,35.65966284185492],[51.39466433279581,35.66004283694584],[51.3945451316713,35.66020601876851],[51.3944464099769,35.660378067496055],[51.39436914697599,35.66055727673716],[51.39420913570793,35.66099727387117],[51.39416221740964,35.66114878713495],[51.394130653331196,35.66130292615189],[51.39318047675323,35.6674929092222],[51.3931752769025,35.667529668753346],[51.391854983914676,35.677729645466506],[51.39185262357808,35.677748803145946],[51.39156255211142,35.680228798067496],[51.391557605627284,35.68027774117966],[51.389987071047116,35.69870771454177],[51.38998297405944,35.69890912394898],[51.390004937426205,35.69910976279576],[51.390052716425345,35.699307393734216],[51.39012577845164,35.69949981294194],[51.390223308947846,35.69968487469825],[51.39065329503869,35.70039488217756],[51.39074935322979,35.70053777727331],[51.390860013788526,35.7006734630504],[51.39098446909233,35.7008009491602],[51.391804465154856,35.70157096105425],[51.391969604056165,35.701710946626875],[51.392151342226356,35.7018365059358],[51.392347794749014,35.70194633668094],[51.39282780092719,35.702186341451416],[51.39305386412774,35.702285873803426],[51.393291947804485,35.70236458078607],[51.39353917900119,35.702421512633926],[51.55368273454295,35.73154215394319],[51.55391317375559,35.7315741341129],[51.5541463768089,35.73158720403246],[51.55438001538981,35.731581233212594],[51.55461175683636,35.731556281267764],[51.55483928743206,35.731512597320815],[51.55506033551095,35.73145061751512],[51.55527269414231,35.731370960659206],[51.555474243168405,35.731274422047235],[51.55566297037503,35.731161965517316],[51.55583699158328,35.731034713826695],[51.555994569461966,35.73089393744045],[51.55613413087261,35.73074104184524],[51.55668412164513,35.73007103315697],[51.556807177639676,35.729903085747196],[51.55690848905897,35.72972574439175],[51.55698699036385,35.72954087453117],[51.557041855971406,35.7293504207846],[51.55707250893294,35.72915638649325],[51.55707862699592,35.72896081264677],[51.557060145986284,35.72876575641409],[51.55701726047598,35.72857326950479],[51.55695042172886,35.72838537658855],[51.556780412088465,35.7279853797574],[51.5567594501869,35.72793808485602],[51.55549938667785,35.72520810805326],[51.55539979152893,35.72502278746285],[51.555276684711465,35.72484711153431],[51.4855954438311,35.636508245013225],[51.48550354440851,35.63639998818734],[51.48508353979116,35.63593999467056],[51.48490824258433,35.63576970554643],[51.48470985561515,35.63561723226714],[51.48410985906383,35.63520723961293],[51.48391160080334,35.635085761488845],[51.48369869491642,35.63498211243674],[51.48347353739463,35.63489745887533],[51.48270355183682,35.63464746420983],[51.482499816099356,35.63459004855303],[51.48229046693183,35.63454820203785],[51.482077285390034,35.63452228067693],[51.48123730507886,35.63445228215612]]]},"properties":{"group":7,"color":"#4f46e5","store_count":47,"source":"recorded_gps_operation_envelope","operation_spans":[[0,157,504],[1,0,591]],"label_center":[51.45908083405848,35.68949272786071]}},{"type":"Feature","geometry":{"type":"Polygon","coordinates":[[[51.51738307214381,35.780776760355494],[51.517450413687875,35.7807225187392],[51.517510791210604,35.78066308195097],[51.517563604411954,35.78059904095363],[51.51760832820554,35.780531032486884],[51.51764451793896,35.780459732736034],[51.51767181381413,35.78038585060871],[51.517689944463825,35.780310120686146],[51.517698729648835,35.780233295919395],[51.517698082049016,35.78015614014289],[51.51768800813037,35.780079420480035],[51.51766860807974,35.78000389971595],[51.51764007480758,35.77993032871361],[51.51760269202899,35.77985943894855],[51.51755683144196,35.779791935236396],[51.51750294903107,35.779728488725524],[51.51744158053322,35.77966973022454],[51.517373336110715,35.77961624393086],[51.51729889428455,35.77956856162269],[51.51721899518821,35.779527157372314],[51.51713443320918,35.779492442832954],[51.51704604909118,35.77946476314636],[51.51695472157565,35.779444393511525],[51.51686135866573,35.7794315364488],[51.516766888599264,35.77942631978653],[51.516672250620836,35.77942879539032],[51.44072297820728,35.784488741553496],[51.44063094202505,35.784498552129776],[51.44054052082241,35.78451563682174],[51.44045257837864,35.78453983242243],[51.440367954795875,35.78457090779542],[51.44028745847432,35.784608566082575],[51.44021185839015,35.784652447539756],[51.4401418767499,35.78470213297311],[51.44007818209143,35.78475714774326],[51.44002138289755,35.78481696629921],[51.439972021782914,35.78488101719865],[51.43353195453649,35.794220973905304],[51.43349897878799,35.794273364739965],[51.43347098780337,35.79432764661759],[51.433350985298,35.7945876457594],[51.433316730637586,35.794678418463405],[51.43323672768312,35.79494841787772],[51.433218843667895,35.795025880928186],[51.4331488387946,35.795445880421354],[51.43314657008757,35.795460539996824],[51.43307656436182,35.79595053949462],[51.43307451406457,35.79596629286322],[51.43272447902148,35.79894629039074],[51.43272023495728,35.79901024941169],[51.43257011946768,35.80871024904482],[51.43257325952699,35.80878361794464],[51.43258492117111,35.80885641425445],[51.432604999456835,35.80892798273576],[51.43263331368159,35.808997679200004],[51.432669609009245,35.80906487630703],[51.4327135587631,35.809128969212004],[51.43276476736578,35.809189381009766],[51.43282277389939,35.80924556792785],[51.43288705625386,35.80929702422131],[51.43295703582633,35.80934328672518],[51.433032082729156,35.80938393902379],[51.433111521459665,35.809418615199164],[51.433194636980645,35.809447003125044],[51.45893484197339,35.81708707039165],[51.45901393789562,35.81710739817266],[51.459094909199806,35.81712202970471],[51.459177138757035,35.81713085347247],[51.45925999984773,35.817133802224994],[51.459300000235885,35.81713380222212],[51.45939618100421,35.817129826613],[51.45949137344835,35.8171179406835],[51.45958459940444,35.81709826656948],[51.459674900917285,35.817071006435334],[51.45976135008481,35.8170364403964],[51.45984305859341,35.816994923640415],[51.469253096189114,35.81165488140383],[51.46927010723643,35.811644998474264],[51.46964010855171,35.81142499676296],[51.46966609975769,35.81140897854169],[51.51553622911649,35.78209875680979],[51.51556550057339,35.78207926096226],[51.51618550175503,35.78164925782041],[51.516203070594194,35.781636766499474],[51.51738307214381,35.780776760355494]]]},"properties":{"group":8,"color":"#65a30d","store_count":47,"source":"recorded_gps_operation_envelope","operation_spans":[[0,392,1098]],"label_center":[51.46220068815363,35.79745629162698]}},{"type":"Feature","geometry":{"type":"Polygon","coordinates":[[[51.18844181700363,35.71429536293883],[51.188314742160486,35.71418423350374],[51.1881743922433,35.71408429100414],[51.18802224044621,35.71399658446211],[51.1878598838225,35.71392203446479],[51.18768902652234,35.71386142350313],[51.18751146190727,35.7138153877598],[51.18732905372888,35.71378441043271],[51.187143716569345,35.71376881666409],[51.1869573957488,35.713768770128254],[51.18677204691035,35.71378427131401],[51.18658961549688,35.71381515751941],[51.126860611598964,35.726544929776054],[51.1267021585727,35.72658503211846],[51.12654884582829,35.72663674065501],[51.085969376839,35.742116483213906],[51.08592859696988,35.74213253675115],[51.085288604938206,35.74239253248134],[51.085160274489404,35.74245003408177],[51.04396069012336,35.76269971616079],[51.04393718195884,35.76271146230902],[51.04332718782101,35.763021457487085],[51.043211144636395,35.76308561860642],[51.001171432525766,35.78829524644565],[51.001019024501666,35.78839740482292],[51.00088108556051,35.78851240616152],[51.00075923712791,35.78863889871374],[51.00032923237473,35.78913889345382],[51.000224164571065,35.789276488806756],[50.976153665401085,35.824996173408195],[50.976116205710426,35.82505479197083],[50.97585619903881,35.8254847884812],[50.9757865798923,35.825615392627576],[50.975732659004,35.825750831584706],[50.975694933376495,35.8258898571804],[50.97567375076698,35.82603118818241],[50.97566930647939,35.82617352210554],[50.97568164156132,35.82631554721496],[50.97571064242243,35.82645595461491],[50.975756041878,35.82659345031164],[50.97581742160821,35.82672676713907],[50.975894216010474,35.82685467643761],[50.99317385849638,35.8524349027798],[50.99326478410186,35.852555458479955],[50.99336940508678,35.852668412907946],[50.993486769599194,35.85277273833325],[50.993615809825826,35.852867485533565],[50.99375535170719,35.85295179243257],[50.993904125619856,35.85302489194452],[50.99406077792878,35.8530861189547],[50.99422388330469,35.85313491637207],[50.99465389018947,35.853244918301],[50.9948127881199,35.85327923658332],[50.99497483928083,35.853301753552465],[50.99513872402251,35.853312285843245],[50.99530310776112,35.85331074768673],[50.99595311980793,35.85328074713719],[50.99616257884113,35.853261130459984],[50.996367850902494,35.85322194276385],[50.99694786034828,35.85308194029796],[50.9971084631163,35.85303643410362],[50.99726315403173,35.85297893465112],[50.9974105851963,35.85290994296651],[51.007890682546076,35.84745985857384],[51.008094702609625,35.84733663050993],[51.189205368979756,35.7207548684634],[51.18933674777556,35.72065309360858],[51.18945505497946,35.720541162649866],[51.189559116194495,35.72042018674307],[51.189647898459995,35.720291366829464],[51.18972052050422,35.72015598171264],[51.18992051265595,35.719725978948084],[51.18997233615439,35.719597053480804],[51.19000949558629,35.71946480548954],[51.19003168006468,35.7193303416615],[51.190038704020466,35.719194787221085],[51.19003050875284,35.71905927651355],[51.19000716291791,35.71892494351252],[51.18916708486717,35.715294956058855],[51.18912317035187,35.715147206007025],[51.18906094064272,35.71500389835449],[51.188981049671,35.714866538806525],[51.18888433691911,35.71473657056546],[51.18877181859724,35.71461535916834],[51.18844181700363,35.71429536293883]]]},"properties":{"group":9,"color":"#ea580c","store_count":58,"source":"recorded_gps_operation_envelope","operation_spans":[[0,1244,2364]],"label_center":[51.066397972813085,35.775690432526034]}},{"type":"Feature","geometry":{"type":"Polygon","coordinates":[[[51.80032331334194,35.41581162403426],[51.80035208074682,35.41562488067893],[51.8003582127215,35.41543672525668],[51.80034164964994,35.41524899188185],[51.80030255314235,35.415063510542176],[51.800241304453806,35.41488208926079],[51.80015850076203,35.41470649647276],[51.800054949341025,35.41453844378795],[51.799931659687395,35.41437956930821],[51.79978983367632,35.41423142166148],[51.79963085384334,35.41409544490818],[51.79945626990626,35.41397296446717],[51.79926778365845,35.413865174198214],[51.79906723238116,35.41377312476688],[51.798856570936074,35.41369771340501],[51.79863785271287,35.41363967516682],[51.798413209617365,35.41359957576531],[51.79818483129494,35.4135778060593],[51.797954943791844,35.41357457824423],[51.79772578786198,35.41358992378429],[51.79749959713047,35.413623693105684],[51.79727857632664,35.41367555705411],[51.79684858469514,35.413795554303015],[51.79675950584509,35.41382208170911],[51.79413955407182,35.41465206307671],[51.793966903637305,35.41471343172088],[51.79380087090955,35.41478601377989],[51.671542460176326,35.47344481666778],[51.671383297256064,35.47352831735493],[51.67123293276292,35.47362209778265],[51.55263356922676,35.5538806486551],[51.55246408590802,35.55400711418133],[51.552310628462216,35.55414657665202],[51.55217468213701,35.55429768635026],[51.55205756272982,35.55445898082928],[51.55196040385108,35.55462889906438],[51.55188040023735,35.55478889768273],[51.55180723194008,35.55495738868619],[51.551753699854416,35.55513073990763],[51.551720274901506,35.5553074267936],[51.551707251175245,35.55548589544477],[51.55171474335124,35.5556645762816],[51.55174268567347,35.5558418978481],[51.55179083252787,35.556016300632656],[51.55185876059782,35.55618625078394],[51.55198875416743,35.556466253163],[51.55209453002347,35.55666062976984],[51.55258451544245,35.55744063822601],[51.55268870732548,35.55758959358541],[51.55280886592534,35.55773029095861],[51.55294401808067,35.55786159074815],[51.5530930691717,35.55798242946851],[51.55795308608684,35.56158249165352],[51.558160574069866,35.561719369603246],[51.558385822391806,35.5618360065394],[51.55882582879338,35.562036010566324],[51.55902695736368,35.56211734111123],[51.55923671843716,35.56218250598794],[51.559453171319824,35.5622309022919],[51.55967431339269,35.562262082260695],[51.55989809864353,35.56227575741739],[51.560122456600475,35.56227180124022],[51.560345311492114,35.56225025033325],[51.56056460145677,35.56221130408761],[51.77757916393896,35.51441017627623],[51.77785024797729,35.51433531603554],[51.77794024959519,35.51430531536661],[51.77815318331968,35.51422387344292],[51.77835500432881,35.51412531494823],[51.77854366107017,35.51401064177305],[51.77871723583544,35.5138810196156],[51.77887396425532,35.51373776613008],[51.779012253234605,35.5135823375301],[51.77913069714484,35.51341631378387],[51.77922809211005,35.51324138255144],[51.779303448240476,35.513059322027644],[51.77935599969006,35.512871982864986],[51.80032331334194,35.41581162403426]]]},"properties":{"group":10,"color":"#0284c7","store_count":57,"source":"recorded_gps_operation_envelope","operation_spans":[[1,138,1283]],"label_center":[51.712914142039835,35.49324704032382]}},{"type":"Feature","geometry":{"type":"Polygon","coordinates":[[[51.061812563625,35.57412811071764],[51.06152982155823,35.57410891720158],[51.0612461347114,35.57411226119383],[51.06096418808846,35.57413811104475],[51.06068665022717,35.574186222093715],[51.06041614794868,35.57425613898406],[51.06015524150155,35.57434719997184],[51.059906400335024,35.57445854318748],[51.05033655095021,35.57924842371595],[51.05010394140046,35.579377841721005],[51.04988768391815,35.57952497319879],[51.04984768405367,35.57955497255295],[51.04966778478333,35.57970222489061],[51.049504295610085,35.57986173674014],[51.04935846320248,35.580032291859496],[51.04928846155686,35.580122290450475],[51.04915803616296,35.58030789609208],[51.04904852479668,35.58050231415512],[51.04896081124063,35.580703975913416],[51.03866994533076,35.60821374154606],[51.03860201843956,35.608431528997286],[51.03799193561755,35.61086151477496],[51.03797258595876,35.61094636676097],[51.03789257238123,35.61133636488464],[51.03772242405564,35.6121669434339],[51.037720075257745,35.61217858606362],[51.036579874855434,35.61791855930223],[51.036552832337925,35.61809711127144],[51.03572254736182,35.626027091680974],[51.03571313255451,35.626298103722334],[51.03574149176615,35.62656823425041],[51.03580725811507,35.62683398500332],[51.05532526735932,35.68759443806704],[51.05539710096348,35.68778500004638],[51.055488213315826,35.687969994907775],[51.055748200898144,35.688440000591],[51.05586769302628,35.6886323004402],[51.056008005673746,35.68881500009181],[51.05616798986782,35.68898660330153],[51.097907647116806,35.72975737094599],[51.09807925013866,35.7299107625497],[51.098266581047476,35.73005138898837],[51.098426582112566,35.73016139145764],[51.09866177802172,35.73030716109236],[51.098913825331735,35.73043281959387],[51.09918014718051,35.73053708222962],[51.099458020728434,35.730618883013996],[51.09974460500156,35.73067738560955],[51.10003696994396,35.730711991879886],[51.10033212638203,35.730722348006594],[51.10062705659409,35.73070834810771],[51.10091874517213,35.73067013532049],[51.10120420985995,35.73060810033752],[51.10148053205185,35.73052287741129],[51.10174488663976,35.73041533786772],[51.1019945709031,35.73028658119561],[51.10222703214601,35.73013792380267],[51.189067495508176,35.66849655797372],[51.18927740167383,35.66833163490977],[51.189466115349845,35.668150458871054],[51.18963175678821,35.66795483466726],[51.189772676114714,35.66774671102181],[51.18988746975973,35.667528161156625],[51.18997499443386,35.6673013621371],[51.190034378509154,35.66706857318331],[51.19006503069312,35.66683211316337],[51.19006664590919,35.666594337493365],[51.1900392083256,35.66635761467417],[51.18998299150285,35.66612430269855],[51.18989855565873,35.66589672556381],[51.189786742078454,35.66567715012396],[51.18964866472607,35.66546776351169],[51.18948569914105,35.66527065135507],[51.188125680516116,35.66379067743963],[51.18800763797003,35.66367051693695],[51.16586748551006,35.64256091960337],[51.165730022000375,35.64243869275915],[51.165320021783394,35.64209869974552],[51.165078206511346,35.641919441948815],[51.063639011693034,35.57468096759187],[51.06342379665911,35.574551027408546],[51.063194908523826,35.57443775197587],[51.062954274677836,35.574342095123136],[51.0627039213926,35.57426486232038],[51.06244595676109,35.57420670389758],[51.062182552950475,35.57416810956989],[51.061812563625,35.57412811071764]]]},"properties":{"group":11,"color":"#9333ea","store_count":59,"source":"recorded_gps_operation_envelope","operation_spans":[[1,893,2451]],"hull_override":{"hull_start":919,"hull_end":2477,"record_index_base":1,"start_time":28359,"end_time":46385,"reason":"reviewed first/last western distribution stop clusters; hull only"},"label_center":[51.1105936351406,35.65311571827016]}},{"type":"Feature","geometry":{"type":"Polygon","coordinates":[[[51.46149560050049,35.68989032064928],[51.46142673942405,35.68988862014592],[51.46135800659696,35.68989244583673],[51.4612900667707,35.68990176072154],[51.46122357702774,35.689916474711225],[51.46115918042691,35.68993644549901],[51.461097499784394,35.689961479936606],[51.46103913165042,35.6899913359023],[51.46098464053991,35.69002572464235],[51.44960465615083,35.697965682044554],[51.449555755426516,35.6980032516669],[51.44951149053888,35.698044468891574],[51.44947226845069,35.69808895478242],[51.44943844976484,35.698136300351656],[51.449410345408936,35.698186070319885],[51.44938821377641,35.69823780711774],[51.44937225835064,35.69829103509258],[51.44936262583378,35.69834526488136],[51.44935940479755,35.6983999979096],[51.449359390626114,35.700019998012536],[51.449362085804495,35.70007008097258],[51.44937015147202,35.700119778572244],[51.44947014764673,35.700579779165636],[51.449483304579594,35.70062804966741],[51.44950152801095,35.70067521172166],[51.44952468150845,35.700720912220206],[51.45062466963311,35.70265091803654],[51.450665528916055,35.702712444748244],[51.45092552740215,35.703052446026554],[51.45096544396537,35.703099268034386],[51.45101088313128,35.70314261186322],[51.451061392397385,35.70318204586883],[51.451116468767815,35.70321717734285],[51.45117556376241,35.703247656423734],[51.45123808887887,35.703273179581046],[51.45176809169993,35.703463180785526],[51.451776639953216,35.703466190114334],[51.45530665916172,35.704686197885245],[51.45532597016887,35.704692596912984],[51.478656103017244,35.71209264449425],[51.47866521893414,35.712095475391436],[51.51160541033825,35.722105539960154],[51.51162175912815,35.722110317997675],[51.51251176446656,35.722360319619554],[51.5125159892903,35.72236149408885],[51.51560600796479,35.7232114996108],[51.515611859389765,35.72321308578793],[51.51883187904678,35.72407309138463],[51.51889408063865,35.72408715259062],[51.553854312628765,35.73058719526018],[51.55392399211557,35.73059715371415],[51.55399454784472,35.73060133412227],[51.554065260998684,35.730599693894945],[51.55413541115604,35.73059224974283],[51.55420428363154,35.73057907750661],[51.55427117675774,35.73056031138426],[51.55433540903392,35.73053614256379],[51.55439632606955,35.73050681727524],[51.554453307251414,35.73047263428203],[51.554505772066555,35.73043394183702],[51.554553186016555,35.730391134134294],[51.554593185920666,35.730351133956944],[51.554631996027965,35.73030840979221],[51.55466576854903,35.73026292960021],[51.555185764247554,35.729482927012185],[51.55519012826902,35.72947627660824],[51.555500125536994,35.72899627505582],[51.55552797533515,35.72894776476453],[51.55555013280556,35.72889734148086],[51.55556640331061,35.72884544816229],[51.55557664392937,35.72879254067939],[51.555580764712616,35.72873908381098],[51.55557872947265,35.72868554716123],[51.5555705561008,35.7286324010342],[51.55555631640972,35.72858011230238],[51.55553613550222,35.728529140305476],[51.55551019067184,35.72847993281521],[51.55547870984503,35.72843292210194],[51.55347869748365,35.725752932034275],[51.55343846379636,35.72570473809249],[51.55339241780835,35.725660137562414],[51.5533410387593,35.72561959463085],[51.553284861391056,35.725583531253854],[51.553224470382176,35.72555232276546],[51.47962478712281,35.691642528122976],[51.479559896150825,35.691616115645814],[51.47910989855894,35.69145611665977],[51.47902413786454,35.69143090205647],[51.478344142163145,35.6912709031055],[51.478284988069035,35.69125922889495],[51.478224815143534,35.69125178719906],[51.46613490007491,35.69019179397021],[51.46611556780887,35.69019031878921],[51.46149560050049,35.68989032064928]]]},"properties":{"group":12,"color":"#059669","store_count":45,"source":"recorded_gps_operation_envelope","operation_spans":[[0,155,849]],"label_center":[51.49148557293637,35.70839262070362]}},{"type":"Feature","geometry":{"type":"Polygon","coordinates":[[[51.39974382177753,35.53366583682343],[51.399618042750404,35.53361844399489],[51.399487192729644,35.533581342002414],[51.39935252832186,35.53355488715052],[51.399215342760236,35.53353933349507],[51.399076953486464,35.53353483040367],[51.39893868950053,35.53354142112144],[51.398801878599485,35.5335590423558],[51.39866783462776,35.533587524884105],[51.39853784486141,35.53362659517864],[51.39841315764731,35.53367587803298],[51.39829497041601,35.53373490016485],[51.39818441818324,35.53380309476073],[51.39808256265045,35.533879806918556],[51.39799038200911,35.533964299936414],[51.39790876154654,35.53405576238676],[51.397838485143545,35.534153315908306],[51.39778022774557,35.53425602364078],[51.39773454887958,35.53436289922144],[51.397701887279105,35.534472916257364],[51.397682556669004,35.53458501818198],[51.397676742750605,35.53469812840177],[51.39768450141614,35.534811160635364],[51.39772449607807,35.535121161130064],[51.397724663926226,35.53512245513552],[51.406903451437394,35.60544256873733],[51.40692087759159,35.605537983511624],[51.40704086912928,35.60604798493275],[51.40704537749939,35.60606634265297],[51.40790532233113,35.60942635277054],[51.407920208876675,35.60947845897764],[51.408160196836924,35.61023846174989],[51.408174872502734,35.610281480004254],[51.41025478591639,35.615951503665805],[51.4102690488727,35.61598815232845],[51.41047904136899,35.6164981546849],[51.41053207544173,35.61660801648051],[51.410598568097235,35.61671288321694],[51.41067782454855,35.616811659053454],[51.4107690166201,35.61690331179448],[51.4917088530174,35.6901540101025],[51.491805858411425,35.69023355321735],[51.491911865879764,35.690305043486234],[51.49202587529069,35.6903678064168],[51.492146811008304,35.6904212498555],[51.49227353204132,35.69046486957501],[51.492404842808874,35.69049825403209],[51.492539504421636,35.69052108825081],[51.49267624637175,35.69053315679462],[51.49281377852134,35.690534345799264],[51.49295080327623,35.69052464404709],[51.4930860278302,35.69050414307299],[51.49321817636388,35.690473036300595],[51.49334600208338,35.690431617217115],[51.49346829898484,35.690380276604],[51.49358391323393,35.69031949884955],[51.49369175405283,35.69024985737825],[51.49379080401193,35.690172009240115],[51.49388012862919,35.690086688910924],[51.49395888518653,35.689994701361975],[51.49402633067998,35.68989691446493],[51.49408182882884,35.68979425080297],[51.49412485607746,35.689687678966166],[51.4941550065333,35.689578204412705],[51.49417199579456,35.689466859982446],[51.494175663631445,35.68935469615239],[51.49401555843026,35.68339469884932],[51.4940154289836,35.68339026779429],[51.49381531714806,35.677050271007815],[51.493655222138834,35.67201007992006],[51.49352514658034,35.66792996802701],[51.49351766807853,35.66783769825272],[51.49350116948638,35.66774621221998],[51.493411162984714,35.667356213298085],[51.493408264288675,35.66734401427826],[51.49329825683796,35.66689401558935],[51.493292851788176,35.66687293197152],[51.49318284508658,35.666462933271724],[51.493180362986024,35.66645385734581],[51.48529990361912,35.638163950104875],[51.48526956933988,35.63807253016973],[51.485230162833616,35.637983446104435],[51.48491015421009,35.63734344960719],[51.484831840066484,35.63721145912141],[51.44567125879513,35.58062185849769],[51.4455643553553,35.58048940037407],[51.40350409988678,35.53540978915072],[51.403411266421564,35.53532007710051],[51.40330776444829,35.53523853704867],[51.40319466472913,35.53516601253063],[51.40307313730557,35.53510325381374],[51.402573141630725,35.53487325662096],[51.40253379567527,35.53485582206916],[51.39974382177753,35.53366583682343]]]},"properties":{"group":13,"color":"#db2777","store_count":52,"source":"recorded_gps_operation_envelope","operation_spans":[[0,212,1508]],"label_center":[51.43868635298195,35.61311649183503]}},{"type":"Feature","geometry":{"type":"Polygon","coordinates":[[[51.615019165504286,35.72069243435499],[51.614882201930016,35.72069346032086],[51.57435261737946,35.723223430539555],[51.57432520608415,35.7232254416434],[51.57361521330493,35.72328544096627],[51.57360037559624,35.723286784677654],[51.57153039653692,35.72348678245326],[51.57152080375781,35.72348774693621],[51.57085081050998,35.72355774616397],[51.57083271100779,35.72355977205937],[51.57016271770603,35.72363977118831],[51.56949271740134,35.72371977115345],[51.56947362879742,35.72372220163012],[51.556753754754936,35.72544218313392],[51.556650883407215,35.72546059698297],[51.55655090037296,35.72548759066318],[51.55645487873219,35.72552287446275],[51.556363849052644,35.725566069694935],[51.556278788329784,35.72561671276205],[51.556200609501516,35.725674260130646],[51.55613015165015,35.725738094164605],[51.55606817099678,35.72580752975364],[51.55316814819486,35.72943750969453],[51.55311706264166,35.729509017821115],[51.553074975466984,35.72958432276112],[51.553042306124574,35.72966267404884],[51.553019380216035,35.72974329085738],[51.55300642624496,35.72982536977994],[51.553003573338586,35.72990809283614],[51.55301084995971,35.72999063562384],[51.5530408474812,35.73019063589429],[51.553058384141565,35.73027290876398],[51.55308598317711,35.730353325623945],[51.55312336455718,35.73043107044659],[51.55317014898199,35.730505354316556],[51.55322586173057,35.73057542343635],[51.553289937477174,35.730640566775904],[51.55336172602738,35.730700123288194],[51.553401726080494,35.73073012351357],[51.55347114370798,35.73077770604756],[51.55354548548327,35.73082005540889],[51.55362415988645,35.73085683462989],[51.55370654092083,35.73088775106326],[51.55379197309405,35.73091255871083],[51.55399197490263,35.730962559183595],[51.55409986119164,35.73098434922153],[51.70037130452587,35.753594561952795],[51.70049275618578,35.75360714289948],[51.70061518245032,35.753607735780804],[51.74109559976491,35.75180771253348],[51.741139320548335,35.75180498926644],[51.74163932564458,35.75176498879801],[51.74166265509745,35.75176290055723],[51.74812272038453,35.75112289326911],[51.74812551053494,35.7511226135774],[51.75098553940486,35.75083261028239],[51.750988018993475,35.750832356302375],[51.75156802484208,35.750772355622175],[51.75159412915465,35.750769374386095],[51.752154134734035,35.75069937361012],[51.75219607613626,35.750693395716965],[51.78481639321851,35.74546333925475],[51.78483294905697,35.74546056570993],[51.78546295510898,35.74535056453228],[51.78547469506979,35.74534845541465],[51.84990530810722,35.73342832835558],[51.85000122672492,35.73340647571283],[51.850094062729426,35.733377075910155],[51.8501829252366,35.73334041107903],[51.85026696149673,35.7332968330683],[51.85034536507819,35.73324676006742],[51.85041738360659,35.73319067259306],[51.8504823259848,35.733129108877584],[51.85053956902483,35.73306265970364],[51.85058856342784,35.73299196273452],[51.85062883905482,35.7329176963947],[51.85066000943751,35.732840573359155],[51.850681775486215,35.73276133371424],[51.85069392835893,35.73268073785539],[51.85069635146443,35.73259955919021],[51.850689021579946,35.73251857671666],[51.8506720090729,35.732438567547646],[51.850645477224525,35.73236029945399],[51.850609680661954,35.73228452349686],[51.85056496291383,35.732211966820884],[51.850511753112926,35.73214332567667],[51.85045056187752,35.73207925873984],[51.85026056147811,35.731899259946886],[51.85019010645844,35.73183893027924],[51.85011258090279,35.7317846710616],[51.850028767771754,35.731737030270004],[51.84993951352087,35.731696489038605],[51.849845719552285,35.73166345680114],[51.84974833311182,35.73163826715618],[51.8496483377232,35.731621174498414],[51.84954674325604,35.73161235144963],[51.615019165504286,35.72069243435499]]]},"properties":{"group":14,"color":"#475569","store_count":50,"source":"recorded_gps_operation_envelope","operation_spans":[[1,178,707],[2,0,628]],"label_center":[51.71307891822062,35.739388391885115]}},{"type":"Feature","geometry":{"type":"Polygon","coordinates":[[[51.574998690096145,35.72529791092059],[51.57478548869386,35.725262156004455],[51.57456936186257,35.72524110219413],[51.57435183133405,35.72523489772895],[51.19058197618303,35.726814793912055],[51.19036841683623,35.72682251468443],[51.190156362157104,35.726844547185244],[51.18994725211487,35.7268807418019],[51.18783730252125,35.72732073052787],[51.18758802909095,35.72738375844563],[51.187347783508606,35.727466890621336],[51.18711899739336,35.72756928565267],[51.186903986404765,35.72768990716921],[51.18670492680817,35.727827534319694],[51.18652383344956,35.727980774126266],[51.186362539362676,35.72814807558089],[51.186222677214715,35.7283277453412],[51.185972670271596,35.72868774073456],[51.18585729594878,35.728874925767045],[51.18576519560942,35.72907049867213],[51.185697272847904,35.72927254105655],[51.185654194115074,35.72947907105272],[51.185636382174096,35.729688062758],[51.185644011946025,35.72989746610655],[51.18567700878624,35.73010522697872],[51.19021637548827,35.750635323971366],[51.1902765590548,35.750845425194285],[51.19036268539248,35.751049435764514],[51.19047385859866,35.7512452330657],[51.19532370350236,35.75875532489784],[51.19545471781889,35.75893585542866],[51.19560702485019,35.75910492181593],[51.195779126980646,35.75926086150883],[51.19596933190547,35.75940214103162],[51.20175937058276,35.763292219307104],[51.2019556794033,35.763411871465124],[51.202164964078115,35.76351589369391],[51.202385357353386,35.7636033578773],[51.20261489284031,35.76367348363212],[51.202851522562476,35.763725645272466],[51.203093135231946,35.763759377393534],[51.48455043808376,35.79164006035258],[51.48479114338599,35.79165440766614],[51.48503244383614,35.79165048024127],[51.485272253774156,35.79162831202563],[51.48550850042641,35.79158809462926],[51.50186889011855,35.788148004430724],[51.5019614988056,35.78812702701271],[51.502661514896275,35.78795702262254],[51.502716368332734,35.7879431607102],[51.540957225763805,35.777892903440005],[51.541038814277265,35.77787021929003],[51.54236884287672,35.777480209448015],[51.54244718205431,35.77745606687702],[51.54377720936548,35.777026056190245],[51.543834744492756,35.77700680075304],[51.54643479585862,35.77610677864912],[51.54645038053861,35.77610133465897],[51.554790543419685,35.77316126268543],[51.55479546552115,35.773159522389165],[51.557305514350745,35.77226950062219],[51.55734526031797,35.77225508271631],[51.557965272015,35.772025077140206],[51.55806253802652,35.77198698516685],[51.558692548927056,35.77172697900658],[51.55880968847611,35.77167551836512],[51.56000970666122,35.77111550550039],[51.5600427452836,35.77109982259361],[51.560622753687824,35.7708198162217],[51.56069319156722,35.77078456430638],[51.56123319857792,35.77050455806901],[51.56132998153153,35.770451851977555],[51.562379992750785,35.7698518390369],[51.56252757381424,35.76976094275504],[51.568697614407704,35.765670859467505],[51.56877049258683,35.765620702945675],[51.56926049465754,35.765270696048646],[51.56928799047979,35.76525077310298],[51.5712879970249,35.76378074451808],[51.57130725588457,35.7637664450854],[51.57182725722658,35.76337643757446],[51.57183368569757,35.763371599765506],[51.572323686846765,35.76300159266313],[51.57236679093112,35.76296828871191],[51.5761867936315,35.75994823204949],[51.576196261289546,35.75994070832485],[51.579426262347226,35.75736066017559],[51.57961499112107,35.757192734186255],[51.57978047545482,35.75700924221152],[51.57992079701613,35.75681231151766],[51.58003432922748,35.75660422515281],[51.58062429624021,35.75534421372396],[51.58070348582706,35.755146370804496],[51.58167340117783,35.75224635167058],[51.581729942185476,35.75203537528316],[51.58175979797897,35.751820798960665],[51.58176265755421,35.751604859468],[51.58173849132112,35.751389807761996],[51.57747773173549,35.7271599046043],[51.57742900513281,35.72695517630498],[51.57735579072995,35.726755355815214],[51.577258800436795,35.7265623856263],[51.577138977273655,35.72637814162314],[51.576997486198444,35.72620441485011],[51.57683570277747,35.72604289410228],[51.5766551998101,35.7258951495107],[51.57645773203752,35.72576261728161],[51.576245219084214,35.725646585737465],[51.57601972679811,35.72554818279577],[51.575783447170565,35.725468365006776],[51.57553867703147,35.7254079082571],[51.574998690096145,35.72529791092059]]]},"properties":{"group":15,"color":"#ca8a04","store_count":54,"source":"recorded_gps_operation_envelope","operation_spans":[[1,74,1373]],"label_center":[51.38671332187725,35.75805799253672]}}]}
