{"type":"FeatureCollection","features":[{"type":"Feature","properties":{"route":1,"color":"#2563eb","kind":"routed_access_not_recorded_gps","duration":10.5,"distance":36.5},"geometry":{"type":"LineString","coordinates":[[51.554142,35.729941],[51.554103,35.729736],[51.554212,35.729798],[51.55417,35.72998]]}},{"type":"Feature","properties":{"route":2,"color":"#0d9488","kind":"routed_access_not_recorded_gps","duration":196.7,"distance":1403.3},"geometry":{"type":"LineString","coordinates":[[51.554142,35.729941],[51.553566,35.730314],[51.554904,35.731073],[51.555566,35.731449],[51.555374,35.731473],[51.554659,35.732309],[51.553772,35.733344],[51.553273,35.733928],[51.55261,35.734706],[51.552129,35.73524],[51.552675,35.735545],[51.5531,35.735779],[51.553589,35.736045],[51.554139,35.736337],[51.554089,35.736394],[51.554083,35.736401],[51.553474,35.737119],[51.553349,35.737266],[51.553101,35.737559],[51.552593,35.738158],[51.552589,35.738162],[51.552416,35.738366],[51.551839,35.738],[51.55208,35.7378]]}},{"type":"Feature","properties":{"route":3,"color":"#7c3aed","kind":"routed_access_not_recorded_gps","duration":1.5,"distance":10},"geometry":{"type":"LineString","coordinates":[[51.554142,35.729941],[51.554,35.72974]]}},{"type":"Feature","properties":{"route":4,"color":"#d97706","kind":"routed_access_not_recorded_gps","duration":105.3,"distance":778.1},"geometry":{"type":"LineString","coordinates":[[51.554142,35.729941],[51.553566,35.730314],[51.553468,35.730426],[51.552721,35.731272],[51.552089,35.731981],[51.551337,35.732826],[51.550679,35.733556],[51.550164,35.734154],[51.550091,35.734236],[51.549678,35.734137],[51.549264,35.734123],[51.548958,35.734132],[51.548839,35.734112],[51.548752,35.734098],[51.548387,35.733876],[51.54851,35.73356]]}},{"type":"Feature","properties":{"route":5,"color":"#0891b2","kind":"routed_access_not_recorded_gps","duration":1.5,"distance":10.6},"geometry":{"type":"LineString","coordinates":[[51.554142,35.729941],[51.55416,35.73007]]}},{"type":"Feature","properties":{"route":6,"color":"#e11d48","kind":"routed_access_not_recorded_gps","duration":17.3,"distance":116.5},"geometry":{"type":"LineString","coordinates":[[51.554142,35.729941],[51.553566,35.730314],[51.55404,35.73058]]}},{"type":"Feature","properties":{"route":7,"color":"#4f46e5","kind":"routed_access_not_recorded_gps","duration":1130.5,"distance":17974.2},"geometry":{"type":"LineString","coordinates":[[51.554142,35.729941],[51.554103,35.729736],[51.554805,35.728981],[51.554889,35.72889],[51.556695,35.72688],[51.556716,35.726823],[51.556716,35.726762],[51.556682,35.726687],[51.556629,35.72661],[51.556542,35.72652],[51.556248,35.726421],[51.555962,35.72632],[51.555727,35.726265],[51.554782,35.726096],[51.554043,35.726043],[51.553962,35.726038],[51.553566,35.726009],[51.553146,35.725984],[51.552861,35.725968],[51.55168,35.725891],[51.551582,35.725884],[51.550088,35.725772],[51.549714,35.725748],[51.548165,35.725626],[51.546526,35.725503],[51.545845,35.725472],[51.543374,35.725332],[51.54285,35.725292],[51.540668,35.725129],[51.540012,35.725079],[51.539264,35.725025],[51.537258,35.72489],[51.53716,35.724884],[51.535925,35.724798],[51.535271,35.72474],[51.534104,35.724653],[51.533843,35.724636],[51.533476,35.724612],[51.532308,35.724536],[51.530837,35.72444],[51.529931,35.724376],[51.528662,35.724287],[51.527236,35.724187],[51.526755,35.724154],[51.525293,35.724052],[51.524554,35.724004],[51.523877,35.723952],[51.523825,35.723936],[51.52377,35.723912],[51.523725,35.723884],[51.523679,35.723846],[51.523646,35.723808],[51.523608,35.723754],[51.523578,35.72371],[51.523186,35.723084],[51.523105,35.72293],[51.522986,35.722815],[51.522932,35.722758],[51.522873,35.722704],[51.522811,35.722673],[51.522716,35.722652],[51.522497,35.722642],[51.522285,35.722617],[51.521969,35.722579],[51.521659,35.722537],[51.52119,35.722455],[51.520724,35.72236],[51.520228,35.722282],[51.519731,35.722167],[51.517688,35.722],[51.5169,35.721883],[51.516208,35.721718],[51.515701,35.721573],[51.515275,35.721433],[51.514853,35.721266],[51.514348,35.721038],[51.513743,35.720713],[51.513117,35.720296],[51.512594,35.719909],[51.51198,35.719326],[51.511417,35.718768],[51.511181,35.718539],[51.510602,35.717992],[51.510062,35.717435],[51.509191,35.716555],[51.508849,35.716182],[51.507182,35.714231],[51.50716,35.714204],[51.50651,35.713538],[51.505799,35.712601],[51.505235,35.711914],[51.50479,35.711255],[51.504696,35.7111],[51.504576,35.710879],[51.504267,35.71027],[51.504,35.709685],[51.503547,35.708534],[51.503128,35.707462],[51.502896,35.706929],[51.502578,35.706264],[51.502459,35.705992],[51.50218,35.705417],[51.502172,35.705395],[51.50199,35.705021],[51.501833,35.704678],[51.501654,35.704299],[51.501571,35.704116],[51.50142,35.703774],[51.501233,35.703312],[51.501104,35.702989],[51.500765,35.702045],[51.500439,35.701283],[51.500297,35.700975],[51.50007,35.700574],[51.49948,35.699647],[51.498707,35.698487],[51.498152,35.697813],[51.496898,35.696369],[51.496713,35.696114],[51.496515,35.695847],[51.496096,35.695306],[51.495255,35.694249],[51.494614,35.693431],[51.493958,35.692578],[51.493777,35.692288],[51.493659,35.692042],[51.493383,35.691304],[51.49297,35.690101],[51.492854,35.689548],[51.492782,35.688644],[51.492752,35.686995],[51.492703,35.685722],[51.492648,35.683346],[51.492605,35.682812],[51.492603,35.682129],[51.492541,35.680842],[51.492518,35.680514],[51.492486,35.68014],[51.492428,35.679475],[51.492412,35.679251],[51.49239,35.67901],[51.492352,35.678261],[51.492341,35.677709],[51.492335,35.677128],[51.492325,35.6766],[51.492288,35.675333],[51.492286,35.674809],[51.492181,35.670027],[51.492157,35.669137],[51.492001,35.668262],[51.491848,35.667885],[51.491661,35.6676],[51.491409,35.667336],[51.491063,35.667123],[51.490708,35.667023],[51.490323,35.666963],[51.48977,35.66697],[51.489409,35.667009],[51.488627,35.667077],[51.488475,35.667091],[51.487426,35.667194],[51.486827,35.667275],[51.486713,35.667292],[51.48621,35.667361],[51.48467,35.66755],[51.484136,35.667621],[51.483845,35.66766],[51.483666,35.667683],[51.48267,35.667821],[51.482602,35.66783],[51.479974,35.668177],[51.477081,35.668586],[51.476561,35.66866],[51.475028,35.668877],[51.474303,35.668983],[51.473961,35.669027],[51.473864,35.669041],[51.473679,35.669066],[51.472948,35.669169],[51.47229,35.669261],[51.471679,35.669345],[51.469964,35.669622],[51.468836,35.669809],[51.467694,35.670011],[51.467155,35.670092],[51.465715,35.670377],[51.464469,35.670646],[51.46415,35.670715],[51.463169,35.670915],[51.463064,35.670936],[51.462959,35.670957],[51.462837,35.670978],[51.462089,35.6711],[51.461769,35.671143],[51.461451,35.671178],[51.460648,35.671276],[51.460266,35.671331],[51.458522,35.671651],[51.458235,35.671701],[51.457731,35.671751],[51.456277,35.671888],[51.455647,35.671958],[51.455064,35.672004],[51.454621,35.67204],[51.454218,35.672072],[51.453206,35.672263],[51.451864,35.672608],[51.450742,35.672859],[51.449083,35.673138],[51.448355,35.67326],[51.446315,35.673658],[51.446127,35.673698],[51.444963,35.673948],[51.443996,35.674065],[51.443705,35.674089],[51.44327,35.674112],[51.443012,35.674108],[51.442121,35.674138],[51.441235,35.674167],[51.441018,35.674171],[51.440906,35.674173],[51.440742,35.674179],[51.439932,35.67421],[51.439216,35.674227],[51.438731,35.674282],[51.438225,35.674363],[51.438059,35.67439],[51.437807,35.674431],[51.437231,35.674535],[51.43663,35.674631],[51.436295,35.674685],[51.436046,35.674726],[51.43562,35.674795],[51.43504,35.674892],[51.434636,35.674963],[51.43403,35.67507],[51.433506,35.67517],[51.433156,35.675237],[51.432827,35.675299],[51.432481,35.675362],[51.43155,35.675532],[51.43062,35.675714],[51.430602,35.675635],[51.431308,35.675504],[51.431517,35.675465],[51.431724,35.675425],[51.431674,35.67527],[51.431247,35.67525],[51.431001,35.675301],[51.430876,35.675332],[51.430788,35.675347],[51.430581,35.675383],[51.430204,35.675377],[51.430089,35.675375],[51.429976,35.674703],[51.429965,35.674632],[51.429823,35.673789],[51.429762,35.673428],[51.429674,35.672888],[51.429633,35.672656],[51.429546,35.672137],[51.429522,35.671996],[51.42944,35.671592],[51.429376,35.671353],[51.429316,35.670989],[51.429228,35.670245],[51.42916,35.669842],[51.429115,35.669574],[51.429073,35.669322],[51.428937,35.669305],[51.428691,35.669274],[51.428439,35.669242],[51.42716,35.669092],[51.42703,35.669076],[51.426471,35.669012],[51.425957,35.668952],[51.425825,35.668936],[51.425042,35.668838],[51.424982,35.66883],[51.424876,35.668817],[51.424469,35.668764],[51.424028,35.668707],[51.423948,35.668696],[51.423891,35.66869],[51.42392,35.66864]]}},{"type":"Feature","properties":{"route":8,"color":"#65a30d","kind":"routed_access_not_recorded_gps","duration":349.6,"distance":2504.6},"geometry":{"type":"LineString","coordinates":[[51.554142,35.729941],[51.553566,35.730314],[51.554904,35.731073],[51.555566,35.731449],[51.556105,35.73174],[51.557483,35.732488],[51.558601,35.733123],[51.5596,35.733685],[51.560805,35.734352],[51.561563,35.73481],[51.562312,35.735268],[51.563253,35.735833],[51.56348,35.735933],[51.56395,35.735554],[51.564492,35.734962],[51.564573,35.734873],[51.566562,35.732701],[51.566843,35.732403],[51.566919,35.732321],[51.567838,35.732873],[51.568885,35.733487],[51.570214,35.73202],[51.570346,35.731888],[51.570567,35.731786],[51.57018,35.731381],[51.569726,35.730905],[51.569099,35.73032],[51.568996,35.730454],[51.568993,35.730458],[51.568159,35.729796],[51.568223,35.729736],[51.568271,35.72969],[51.568287,35.729676],[51.5687,35.72965]]}},{"type":"Feature","properties":{"route":9,"color":"#ea580c","kind":"routed_access_not_recorded_gps","duration":210.6,"distance":1577.9},"geometry":{"type":"LineString","coordinates":[[51.554142,35.729941],[51.554103,35.729736],[51.554805,35.728981],[51.554889,35.72889],[51.556695,35.72688],[51.556716,35.726823],[51.556716,35.726762],[51.556682,35.726687],[51.556629,35.72661],[51.556542,35.72652],[51.556248,35.726421],[51.555962,35.72632],[51.555727,35.726265],[51.554782,35.726096],[51.554043,35.726043],[51.553962,35.726038],[51.553566,35.726009],[51.553146,35.725984],[51.552861,35.725968],[51.55168,35.725891],[51.551582,35.725884],[51.551091,35.725998],[51.550837,35.726095],[51.550674,35.726176],[51.550513,35.726344],[51.551381,35.726838],[51.551841,35.727109],[51.552654,35.727583],[51.553064,35.727863],[51.553222,35.727948],[51.553806,35.728266],[51.554052,35.728396],[51.553731,35.728747],[51.553575,35.728918],[51.553497,35.729003],[51.553032,35.728734],[51.55288,35.72896]]}},{"type":"Feature","properties":{"route":10,"color":"#0284c7","kind":"routed_access_not_recorded_gps","duration":229.2,"distance":2627.2},"geometry":{"type":"LineString","coordinates":[[51.554142,35.729941],[51.554103,35.729736],[51.554805,35.728981],[51.554889,35.72889],[51.556695,35.72688],[51.556716,35.726823],[51.556716,35.726762],[51.556682,35.726687],[51.556629,35.72661],[51.556542,35.72652],[51.556248,35.726421],[51.555962,35.72632],[51.555727,35.726265],[51.554782,35.726096],[51.554043,35.726043],[51.553962,35.726038],[51.553566,35.726009],[51.553146,35.725984],[51.552861,35.725968],[51.55168,35.725891],[51.551582,35.725884],[51.550088,35.725772],[51.549714,35.725748],[51.548165,35.725626],[51.546526,35.725503],[51.545845,35.725472],[51.543374,35.725332],[51.543333,35.725297],[51.543317,35.725279],[51.543307,35.725256],[51.543302,35.725233],[51.543305,35.725208],[51.543323,35.725176],[51.543355,35.725144],[51.543439,35.725119],[51.544146,35.725172],[51.545567,35.725279],[51.545798,35.725303],[51.546187,35.725336],[51.546288,35.725345],[51.546533,35.725366],[51.54912,35.725549],[51.549877,35.725589],[51.55148,35.72571],[51.55201,35.725746],[51.552358,35.725784],[51.552178,35.725646],[51.5513,35.725579],[51.55101,35.72532]]}},{"type":"Feature","properties":{"route":11,"color":"#9333ea","kind":"routed_access_not_recorded_gps","duration":156.2,"distance":1116.5},"geometry":{"type":"LineString","coordinates":[[51.554142,35.729941],[51.553566,35.730314],[51.554904,35.731073],[51.555566,35.731449],[51.555374,35.731473],[51.554659,35.732309],[51.553772,35.733344],[51.553273,35.733928],[51.55261,35.734706],[51.552129,35.73524],[51.552675,35.735545],[51.552631,35.73559],[51.552296,35.735405],[51.551479,35.736208],[51.55098,35.736805],[51.55116,35.73694]]}},{"type":"Feature","properties":{"route":12,"color":"#059669","kind":"routed_access_not_recorded_gps","duration":77.9,"distance":538.5},"geometry":{"type":"LineString","coordinates":[[51.554142,35.729941],[51.553566,35.730314],[51.554904,35.731073],[51.555566,35.731449],[51.555374,35.731473],[51.554681,35.731093],[51.554137,35.730793],[51.55311,35.73181]]}},{"type":"Feature","properties":{"route":13,"color":"#db2777","kind":"routed_access_not_recorded_gps","duration":11.2,"distance":41.9},"geometry":{"type":"LineString","coordinates":[[51.554142,35.729941],[51.554103,35.729736],[51.554212,35.729798],[51.55438,35.72982]]}},{"type":"Feature","properties":{"route":14,"color":"#475569","kind":"routed_access_not_recorded_gps","duration":193.5,"distance":1569.2},"geometry":{"type":"LineString","coordinates":[[51.554142,35.729941],[51.553566,35.730314],[51.554904,35.731073],[51.555566,35.731449],[51.556105,35.73174],[51.557483,35.732488],[51.558601,35.733123],[51.5596,35.733685],[51.560805,35.734352],[51.561563,35.73481],[51.562312,35.735268],[51.563253,35.735833],[51.56348,35.735933],[51.56395,35.735554],[51.564492,35.734962],[51.564573,35.734873],[51.56665,35.73323]]}}]}
