{"type":"FeatureCollection","features":[{"type":"Feature","properties":{"route":1,"color":"#2563eb","kind":"routed_access_not_recorded_gps","duration":5.1,"distance":35.4},"geometry":{"type":"LineString","coordinates":[[51.554142,35.729941],[51.55385,35.73016]]}},{"type":"Feature","properties":{"route":2,"color":"#0d9488","kind":"routed_access_not_recorded_gps","duration":723.9,"distance":7183.6},"geometry":{"type":"LineString","coordinates":[[51.554142,35.729941],[51.554103,35.729736],[51.554805,35.728981],[51.554889,35.72889],[51.556695,35.72688],[51.556716,35.726823],[51.556716,35.726762],[51.556682,35.726687],[51.556629,35.72661],[51.556542,35.72652],[51.556248,35.726421],[51.555962,35.72632],[51.555727,35.726265],[51.554782,35.726096],[51.554043,35.726043],[51.553962,35.726038],[51.553566,35.726009],[51.553146,35.725984],[51.552861,35.725968],[51.55168,35.725891],[51.551582,35.725884],[51.550088,35.725772],[51.549714,35.725748],[51.548165,35.725626],[51.546526,35.725503],[51.545845,35.725472],[51.543374,35.725332],[51.54285,35.725292],[51.540668,35.725129],[51.540012,35.725079],[51.539264,35.725025],[51.539008,35.725072],[51.538914,35.725118],[51.53882,35.725203],[51.538748,35.725308],[51.538713,35.725495],[51.538595,35.726464],[51.538503,35.727141],[51.538466,35.727335],[51.538349,35.727485],[51.538327,35.727664],[51.5383,35.727796],[51.538266,35.72797],[51.538207,35.728201],[51.53813,35.728461],[51.537898,35.728837],[51.537512,35.729318],[51.537369,35.729455],[51.537061,35.72972],[51.536738,35.729964],[51.536609,35.730049],[51.536246,35.730234],[51.536122,35.73028],[51.536037,35.730127],[51.536157,35.730077],[51.536698,35.729801],[51.537065,35.729535],[51.53735,35.729282],[51.537751,35.728747],[51.53795,35.728412],[51.538062,35.727977],[51.538114,35.727815],[51.538139,35.727708],[51.538161,35.727506],[51.538381,35.725276],[51.538449,35.724441],[51.538544,35.723604],[51.53862,35.722902],[51.538659,35.722556],[51.538684,35.722416],[51.538711,35.722307],[51.538745,35.722214],[51.538789,35.72212],[51.538837,35.722036],[51.538899,35.721951],[51.538986,35.721837],[51.539081,35.721747],[51.539193,35.721656],[51.539307,35.721587],[51.539414,35.721526],[51.539559,35.721479],[51.53971,35.721428],[51.539867,35.721397],[51.540035,35.721379],[51.540188,35.721377],[51.54034,35.721388],[51.540477,35.721404],[51.540622,35.721438],[51.540726,35.72147],[51.540831,35.721511],[51.540919,35.721554],[51.541006,35.721602],[51.541105,35.72166],[51.541206,35.721729],[51.541319,35.721806],[51.541454,35.721902],[51.541595,35.721989],[51.541742,35.722077],[51.541884,35.722153],[51.542015,35.72222],[51.542166,35.722278],[51.542328,35.722332],[51.542457,35.722365],[51.542611,35.722394],[51.542747,35.722411],[51.542887,35.722422],[51.543022,35.722426],[51.543167,35.722426],[51.543329,35.722419],[51.544158,35.722357],[51.545271,35.722303],[51.54625,35.722182],[51.54673,35.722149],[51.547386,35.722166],[51.54799,35.722202],[51.548625,35.722298],[51.549108,35.722409],[51.549406,35.722362],[51.549512,35.722369],[51.549598,35.72239],[51.550168,35.722591],[51.550299,35.722648],[51.550749,35.722849],[51.550943,35.722856],[51.551102,35.722848],[51.551223,35.72282],[51.551332,35.72278],[51.551422,35.722753],[51.551562,35.722726],[51.551684,35.722727],[51.552223,35.72273],[51.552546,35.722784],[51.552891,35.722789],[51.55364,35.722792],[51.554677,35.722937],[51.554811,35.722968],[51.555241,35.723242],[51.555592,35.723454],[51.555793,35.723575],[51.555961,35.723657],[51.556252,35.723779],[51.556864,35.723407],[51.556959,35.723164],[51.557049,35.722851],[51.557086,35.722519],[51.557075,35.722245],[51.557017,35.721992],[51.556959,35.721861],[51.556758,35.72167],[51.556589,35.721535],[51.555752,35.72098],[51.555491,35.720894],[51.555029,35.720828],[51.554118,35.720779],[51.552309,35.720517],[51.552042,35.720436],[51.551876,35.72038],[51.551609,35.720333],[51.551182,35.720277],[51.550907,35.720264],[51.550662,35.720318],[51.550052,35.720611],[51.549822,35.720729],[51.549587,35.720834],[51.549302,35.720929],[51.549035,35.720986],[51.548784,35.721012],[51.548618,35.720999],[51.548486,35.720926],[51.54833,35.720753],[51.548227,35.720691],[51.548084,35.720682],[51.547706,35.720774],[51.547415,35.720663],[51.547223,35.720544],[51.54713,35.720445],[51.546955,35.720232],[51.546792,35.720052],[51.546739,35.72001],[51.546663,35.719991],[51.546564,35.72001],[51.546413,35.720038],[51.54629,35.720038],[51.546162,35.719967],[51.546047,35.719835],[51.546008,35.719677],[51.545922,35.719639],[51.545806,35.719604],[51.545712,35.719589],[51.545579,35.719585],[51.545428,35.719711],[51.545247,35.719849],[51.545107,35.719868],[51.544979,35.719849],[51.544833,35.719768],[51.544705,35.719636],[51.544594,35.719489],[51.544431,35.719252],[51.544285,35.719158],[51.543865,35.719025],[51.543364,35.718964],[51.542985,35.718968],[51.542437,35.71893],[51.542303,35.718902],[51.542227,35.718845],[51.54184,35.7191]]}},{"type":"Feature","properties":{"route":3,"color":"#7c3aed","kind":"routed_access_not_recorded_gps","duration":156.8,"distance":1120.2},"geometry":{"type":"LineString","coordinates":[[51.554142,35.729941],[51.553566,35.730314],[51.553468,35.730426],[51.552721,35.731272],[51.552089,35.731981],[51.551337,35.732826],[51.550679,35.733556],[51.550164,35.734154],[51.550091,35.734236],[51.549365,35.735059],[51.549038,35.735429],[51.548987,35.735486],[51.54859,35.735936],[51.547927,35.7356],[51.547815,35.735541],[51.547783,35.735595],[51.547746,35.735644],[51.547704,35.735692],[51.547657,35.735734],[51.547597,35.735752],[51.54754,35.735762],[51.547455,35.735769],[51.547336,35.735773],[51.546232,35.735939],[51.546132,35.735923],[51.546043,35.73591],[51.54576,35.73612]]}},{"type":"Feature","properties":{"route":4,"color":"#d97706","kind":"routed_access_not_recorded_gps","duration":1.9,"distance":13.8},"geometry":{"type":"LineString","coordinates":[[51.554142,35.729941],[51.55415,35.7301]]}},{"type":"Feature","properties":{"route":5,"color":"#0891b2","kind":"routed_access_not_recorded_gps","duration":1,"distance":7.2},"geometry":{"type":"LineString","coordinates":[[51.554142,35.729941],[51.55396,35.72991]]}},{"type":"Feature","properties":{"route":6,"color":"#e11d48","kind":"routed_access_not_recorded_gps","duration":96.3,"distance":681.4},"geometry":{"type":"LineString","coordinates":[[51.554142,35.729941],[51.553566,35.730314],[51.554904,35.731073],[51.555566,35.731449],[51.556105,35.73174],[51.557483,35.732488],[51.557399,35.732571],[51.556813,35.732254],[51.55636,35.732003],[51.55585,35.73241]]}},{"type":"Feature","properties":{"route":7,"color":"#4f46e5","kind":"routed_access_not_recorded_gps","duration":157.3,"distance":1414.3},"geometry":{"type":"LineString","coordinates":[[51.554142,35.729941],[51.554103,35.729736],[51.554805,35.728981],[51.554889,35.72889],[51.556695,35.72688],[51.556716,35.726823],[51.556716,35.726762],[51.556682,35.726687],[51.556629,35.72661],[51.556542,35.72652],[51.556248,35.726421],[51.555962,35.72632],[51.555727,35.726265],[51.554782,35.726096],[51.554043,35.726043],[51.553962,35.726038],[51.553566,35.726009],[51.553146,35.725984],[51.552861,35.725968],[51.55168,35.725891],[51.551582,35.725884],[51.551091,35.725998],[51.550837,35.726095],[51.550674,35.726176],[51.550513,35.726344],[51.549462,35.727531],[51.549181,35.727826],[51.548406,35.728709],[51.5482,35.72932]]}},{"type":"Feature","properties":{"route":8,"color":"#65a30d","kind":"routed_access_not_recorded_gps","duration":196.3,"distance":1823.8},"geometry":{"type":"LineString","coordinates":[[51.554142,35.729941],[51.553566,35.730314],[51.554904,35.731073],[51.555566,35.731449],[51.555374,35.731473],[51.554659,35.732309],[51.553772,35.733344],[51.553273,35.733928],[51.55261,35.734706],[51.552129,35.73524],[51.552675,35.735545],[51.5531,35.735779],[51.553589,35.736045],[51.554139,35.736337],[51.554756,35.73668],[51.554806,35.736709],[51.555166,35.736922],[51.555506,35.737136],[51.556188,35.737513],[51.556444,35.737656],[51.556705,35.737797],[51.557021,35.737984],[51.55748,35.73825],[51.558142,35.73863],[51.558572,35.73886],[51.558918,35.739056],[51.559276,35.739269],[51.55962,35.739472],[51.560105,35.739769],[51.560507,35.739998],[51.561073,35.74032],[51.56135,35.74038]]}},{"type":"Feature","properties":{"route":9,"color":"#ea580c","kind":"routed_access_not_recorded_gps","duration":1.4,"distance":10.2},"geometry":{"type":"LineString","coordinates":[[51.554142,35.729941],[51.55397,35.72995]]}},{"type":"Feature","properties":{"route":10,"color":"#0284c7","kind":"routed_access_not_recorded_gps","duration":498.2,"distance":5656.1},"geometry":{"type":"LineString","coordinates":[[51.554142,35.729941],[51.554103,35.729736],[51.554805,35.728981],[51.554889,35.72889],[51.556695,35.72688],[51.556716,35.726823],[51.556716,35.726762],[51.556682,35.726687],[51.556629,35.72661],[51.556542,35.72652],[51.556248,35.726421],[51.555962,35.72632],[51.555727,35.726265],[51.554782,35.726096],[51.554043,35.726043],[51.553962,35.726038],[51.553566,35.726009],[51.553146,35.725984],[51.552861,35.725968],[51.55168,35.725891],[51.551582,35.725884],[51.550088,35.725772],[51.549714,35.725748],[51.548165,35.725626],[51.546526,35.725503],[51.545845,35.725472],[51.543374,35.725332],[51.54285,35.725292],[51.540668,35.725129],[51.540012,35.725079],[51.539264,35.725025],[51.539008,35.725072],[51.538914,35.725118],[51.53882,35.725203],[51.538748,35.725308],[51.538713,35.725495],[51.538595,35.726464],[51.538503,35.727141],[51.538466,35.727335],[51.538349,35.727485],[51.538327,35.727664],[51.5383,35.727796],[51.538266,35.72797],[51.538207,35.728201],[51.53813,35.728461],[51.537898,35.728837],[51.537512,35.729318],[51.537369,35.729455],[51.537061,35.72972],[51.536738,35.729964],[51.536609,35.730049],[51.536246,35.730234],[51.536122,35.73028],[51.536037,35.730127],[51.536157,35.730077],[51.536698,35.729801],[51.537065,35.729535],[51.53735,35.729282],[51.537751,35.728747],[51.53795,35.728412],[51.538062,35.727977],[51.538114,35.727815],[51.538139,35.727708],[51.538161,35.727506],[51.538381,35.725276],[51.538449,35.724441],[51.538544,35.723604],[51.53862,35.722902],[51.538659,35.722556],[51.538684,35.722416],[51.538711,35.722307],[51.538745,35.722214],[51.538789,35.72212],[51.538837,35.722036],[51.538899,35.721951],[51.538986,35.721837],[51.539081,35.721747],[51.539193,35.721656],[51.539307,35.721587],[51.539414,35.721526],[51.539559,35.721479],[51.53971,35.721428],[51.539867,35.721397],[51.540035,35.721379],[51.540188,35.721377],[51.54034,35.721388],[51.540477,35.721404],[51.540622,35.721438],[51.540726,35.72147],[51.540831,35.721511],[51.540919,35.721554],[51.541006,35.721602],[51.541105,35.72166],[51.541206,35.721729],[51.541319,35.721806],[51.541454,35.721902],[51.541595,35.721989],[51.541742,35.722077],[51.541884,35.722153],[51.542015,35.72222],[51.542166,35.722278],[51.542328,35.722332],[51.542457,35.722365],[51.542611,35.722394],[51.542747,35.722411],[51.542887,35.722422],[51.543022,35.722426],[51.543167,35.722426],[51.543329,35.722419],[51.544158,35.722357],[51.545271,35.722303],[51.54625,35.722182],[51.54673,35.722149],[51.547386,35.722166],[51.54799,35.722202],[51.548625,35.722298],[51.549108,35.722409],[51.549406,35.722362],[51.549512,35.722369],[51.549598,35.72239],[51.550168,35.722591],[51.550299,35.722648],[51.550749,35.722849],[51.550943,35.722856],[51.551102,35.722848],[51.551223,35.72282],[51.551332,35.72278],[51.551422,35.722753],[51.551562,35.722726],[51.551684,35.722727],[51.552223,35.72273],[51.552546,35.722784],[51.552891,35.722789],[51.55364,35.722792],[51.554677,35.722937],[51.554811,35.722968],[51.555241,35.723242],[51.555592,35.723454],[51.555793,35.723575],[51.555961,35.723657],[51.556252,35.723779],[51.556864,35.723407],[51.556959,35.723164],[51.557049,35.722851],[51.557086,35.722519],[51.557075,35.722245],[51.557017,35.721992],[51.556959,35.721861],[51.55734,35.72151]]}},{"type":"Feature","properties":{"route":11,"color":"#9333ea","kind":"routed_access_not_recorded_gps","duration":9.8,"distance":32.1},"geometry":{"type":"LineString","coordinates":[[51.554142,35.729941],[51.554103,35.729736],[51.554212,35.729798],[51.55417,35.72991]]}}]}
