{"type":"FeatureCollection","features":[{"type":"Feature","properties":{"route":1,"color":"#2563eb","kind":"routed_access_not_recorded_gps","duration":167.5,"distance":1558.8},"geometry":{"type":"LineString","coordinates":[[51.554142,35.729941],[51.553566,35.730314],[51.553468,35.730426],[51.552721,35.731272],[51.552089,35.731981],[51.551337,35.732826],[51.550679,35.733556],[51.550164,35.734154],[51.550091,35.734236],[51.549678,35.734137],[51.549264,35.734123],[51.548958,35.734132],[51.548839,35.734112],[51.548752,35.734098],[51.548387,35.733876],[51.547432,35.733295],[51.54641,35.732673],[51.545816,35.732312],[51.545704,35.732291],[51.545488,35.732259],[51.545325,35.732261],[51.545163,35.73228],[51.544998,35.732465],[51.544821,35.732656],[51.544818,35.73266],[51.544715,35.732753],[51.544569,35.73285],[51.544508,35.732885],[51.544314,35.732977],[51.544276,35.732995],[51.544068,35.733092],[51.543825,35.733189],[51.543797,35.733195],[51.543596,35.733237],[51.54337,35.733266],[51.541393,35.733523],[51.54075,35.73366]]}},{"type":"Feature","properties":{"route":2,"color":"#0d9488","kind":"routed_access_not_recorded_gps","duration":0.8,"distance":5.9},"geometry":{"type":"LineString","coordinates":[[51.554142,35.729941],[51.554,35.72992]]}},{"type":"Feature","properties":{"route":3,"color":"#7c3aed","kind":"routed_access_not_recorded_gps","duration":234.7,"distance":1690},"geometry":{"type":"LineString","coordinates":[[51.554142,35.729941],[51.553566,35.730314],[51.553468,35.730426],[51.552721,35.731272],[51.552089,35.731981],[51.551337,35.732826],[51.550679,35.733556],[51.550164,35.734154],[51.550091,35.734236],[51.549365,35.735059],[51.549038,35.735429],[51.548987,35.735486],[51.54859,35.735936],[51.548285,35.736294],[51.548039,35.736661],[51.547949,35.736957],[51.547621,35.736995],[51.54775,35.737644],[51.547875,35.738289],[51.547986,35.738858],[51.548108,35.739479],[51.54822,35.740049],[51.548332,35.740626],[51.548463,35.741292],[51.548581,35.741894],[51.55017,35.7417]]}},{"type":"Feature","properties":{"route":4,"color":"#d97706","kind":"routed_access_not_recorded_gps","duration":89.6,"distance":534.6},"geometry":{"type":"LineString","coordinates":[[51.554142,35.729941],[51.553566,35.730314],[51.553468,35.730426],[51.552721,35.731272],[51.552089,35.731981],[51.551337,35.732826],[51.551871,35.73313],[51.551483,35.73357],[51.55141,35.73355]]}},{"type":"Feature","properties":{"route":5,"color":"#0891b2","kind":"routed_access_not_recorded_gps","duration":321.1,"distance":2691},"geometry":{"type":"LineString","coordinates":[[51.554142,35.729941],[51.553566,35.730314],[51.554904,35.731073],[51.555566,35.731449],[51.555374,35.731473],[51.554659,35.732309],[51.553772,35.733344],[51.553273,35.733928],[51.55261,35.734706],[51.552129,35.73524],[51.552675,35.735545],[51.5531,35.735779],[51.553589,35.736045],[51.554139,35.736337],[51.554756,35.73668],[51.554806,35.736709],[51.555166,35.736922],[51.555506,35.737136],[51.556188,35.737513],[51.556444,35.737656],[51.556705,35.737797],[51.557021,35.737984],[51.55748,35.73825],[51.558142,35.73863],[51.558083,35.738695],[51.557845,35.738953],[51.55758,35.739242],[51.556976,35.739897],[51.556326,35.740638],[51.556124,35.740814],[51.555787,35.741114],[51.555342,35.741586],[51.555075,35.741772],[51.555149,35.742153],[51.555237,35.742611],[51.555343,35.743167],[51.555448,35.743712],[51.555479,35.743871],[51.555565,35.744321],[51.555599,35.744498],[51.555684,35.744937],[51.558208,35.744607],[51.55835,35.745161],[51.558453,35.745701],[51.55912,35.74576]]}},{"type":"Feature","properties":{"route":6,"color":"#e11d48","kind":"routed_access_not_recorded_gps","duration":95,"distance":664.1},"geometry":{"type":"LineString","coordinates":[[51.554142,35.729941],[51.553566,35.730314],[51.553468,35.730426],[51.552721,35.731272],[51.552089,35.731981],[51.551337,35.732826],[51.550679,35.733556],[51.550164,35.734154],[51.550091,35.734236],[51.549678,35.734137],[51.54942,35.7341]]}},{"type":"Feature","properties":{"route":7,"color":"#4f46e5","kind":"routed_access_not_recorded_gps","duration":1567.8,"distance":21603.1},"geometry":{"type":"LineString","coordinates":[[51.554142,35.729941],[51.554103,35.729736],[51.554805,35.728981],[51.554889,35.72889],[51.556695,35.72688],[51.556716,35.726823],[51.556716,35.726762],[51.556682,35.726687],[51.556629,35.72661],[51.556542,35.72652],[51.556248,35.726421],[51.555962,35.72632],[51.555727,35.726265],[51.554782,35.726096],[51.554043,35.726043],[51.553962,35.726038],[51.553566,35.726009],[51.553146,35.725984],[51.552861,35.725968],[51.55168,35.725891],[51.551582,35.725884],[51.550088,35.725772],[51.549714,35.725748],[51.548165,35.725626],[51.546526,35.725503],[51.545845,35.725472],[51.543374,35.725332],[51.54285,35.725292],[51.540668,35.725129],[51.540012,35.725079],[51.539264,35.725025],[51.537258,35.72489],[51.53716,35.724884],[51.535925,35.724798],[51.535271,35.72474],[51.534104,35.724653],[51.533843,35.724636],[51.533476,35.724612],[51.532308,35.724536],[51.530837,35.72444],[51.529931,35.724376],[51.528662,35.724287],[51.527236,35.724187],[51.526755,35.724154],[51.525293,35.724052],[51.524554,35.724004],[51.523877,35.723952],[51.523282,35.723913],[51.523081,35.723901],[51.522614,35.723875],[51.522065,35.723844],[51.521697,35.723825],[51.521161,35.723784],[51.520564,35.723739],[51.519896,35.723663],[51.519385,35.723605],[51.519024,35.723521],[51.518629,35.723429],[51.518275,35.723317],[51.518153,35.723281],[51.517041,35.72295],[51.515786,35.722584],[51.513395,35.721822],[51.512222,35.721454],[51.511334,35.721181],[51.510963,35.721067],[51.510516,35.72093],[51.508658,35.72035],[51.508462,35.720289],[51.507962,35.720134],[51.506406,35.719653],[51.505699,35.719434],[51.505544,35.719386],[51.503747,35.71883],[51.502637,35.718499],[51.501527,35.718149],[51.501214,35.718051],[51.499151,35.717402],[51.499009,35.717357],[51.498909,35.717326],[51.498853,35.717308],[51.498359,35.717155],[51.49762,35.716928],[51.496559,35.716602],[51.49498,35.716117],[51.494481,35.715964],[51.49432,35.715914],[51.494151,35.715862],[51.493846,35.715768],[51.493138,35.715553],[51.492795,35.715442],[51.492084,35.715221],[51.490664,35.714784],[51.490435,35.714712],[51.489902,35.714545],[51.488719,35.714179],[51.487812,35.713899],[51.487286,35.713736],[51.486443,35.713478],[51.485181,35.71309],[51.484791,35.712983],[51.484516,35.712905],[51.484376,35.712864],[51.483332,35.712547],[51.48262,35.712332],[51.482571,35.712317],[51.482261,35.712223],[51.481363,35.711951],[51.479499,35.711353],[51.478582,35.711059],[51.477306,35.710685],[51.476033,35.710306],[51.474737,35.709895],[51.474134,35.709708],[51.4727,35.709263],[51.472353,35.709149],[51.472202,35.709099],[51.471778,35.708963],[51.470731,35.708629],[51.469339,35.708192],[51.468883,35.708049],[51.466843,35.707441],[51.466542,35.707349],[51.466271,35.707266],[51.465132,35.706915],[51.462477,35.706145],[51.462232,35.706076],[51.461951,35.705996],[51.461256,35.705801],[51.460528,35.705598],[51.459401,35.705288],[51.458723,35.705084],[51.458652,35.705068],[51.458068,35.704895],[51.457445,35.704713],[51.457078,35.704612],[51.455903,35.704269],[51.454079,35.703745],[51.453897,35.703693],[51.453824,35.703672],[51.45291,35.703407],[51.450941,35.702838],[51.450345,35.702661],[51.449077,35.702289],[51.448406,35.70211],[51.448105,35.702058],[51.44719,35.702014],[51.446478,35.702004],[51.446261,35.702001],[51.446233,35.702],[51.446053,35.701997],[51.445902,35.701998],[51.445218,35.701995],[51.444935,35.701993],[51.444221,35.70199],[51.443768,35.701993],[51.443688,35.701997],[51.443505,35.701997],[51.442607,35.701982],[51.441771,35.701967],[51.440761,35.701944],[51.440513,35.701938],[51.440182,35.701937],[51.438788,35.701921],[51.438376,35.701924],[51.43806,35.701925],[51.436857,35.701913],[51.436232,35.701921],[51.436032,35.701924],[51.435391,35.701914],[51.434542,35.701902],[51.434459,35.7019],[51.433981,35.70189],[51.433872,35.701891],[51.433857,35.701892],[51.433285,35.701883],[51.432954,35.701879],[51.432655,35.701874],[51.43233,35.701869],[51.431777,35.701861],[51.430923,35.701848],[51.430177,35.701834],[51.429516,35.701828],[51.429195,35.701823],[51.42876,35.701817],[51.428219,35.701809],[51.427662,35.7018],[51.42704,35.701775],[51.426739,35.70176],[51.426186,35.701747],[51.425841,35.701741],[51.424769,35.701719],[51.424152,35.701714],[51.42361,35.701706],[51.423051,35.7017],[51.422442,35.701686],[51.422425,35.701685],[51.421529,35.701659],[51.420819,35.701642],[51.420208,35.701627],[51.419851,35.701621],[51.419706,35.701641],[51.419529,35.701673],[51.419514,35.701684],[51.419495,35.701694],[51.419476,35.701704],[51.419457,35.701713],[51.419436,35.701722],[51.419417,35.701729],[51.419397,35.701737],[51.419377,35.701744],[51.419355,35.701751],[51.41933,35.701758],[51.419304,35.701764],[51.419275,35.701771],[51.419248,35.701777],[51.419219,35.701782],[51.41919,35.701787],[51.419158,35.70179],[51.419129,35.701792],[51.4191,35.701794],[51.419072,35.701795],[51.419043,35.701794],[51.418991,35.70179],[51.418957,35.701782],[51.418932,35.701776],[51.418891,35.701763],[51.418871,35.701757],[51.418849,35.701749],[51.418831,35.701741],[51.418808,35.701731],[51.418783,35.701719],[51.41876,35.701706],[51.418737,35.701692],[51.418716,35.701678],[51.418696,35.701663],[51.418676,35.701648],[51.418657,35.701632],[51.418385,35.701579],[51.418292,35.701577],[51.417666,35.701565],[51.417133,35.701555],[51.415909,35.701532],[51.41533,35.70152],[51.415123,35.701483],[51.414821,35.701457],[51.410722,35.701368],[51.410056,35.701373],[51.409817,35.701395],[51.409449,35.701392],[51.408575,35.701376],[51.406539,35.70134],[51.405712,35.701325],[51.40522,35.701318],[51.40511,35.701315],[51.404064,35.701288],[51.402864,35.701255],[51.402804,35.701252],[51.402688,35.701247],[51.400835,35.701208],[51.400578,35.701202],[51.40046,35.701199],[51.400339,35.701196],[51.400209,35.701193],[51.399183,35.701183],[51.398425,35.701164],[51.398292,35.701161],[51.398153,35.70116],[51.396358,35.701131],[51.396249,35.701129],[51.396204,35.701128],[51.39616,35.701128],[51.39438,35.701099],[51.394212,35.701096],[51.39411,35.701094],[51.393945,35.70109],[51.392946,35.70107],[51.392148,35.701079],[51.391874,35.701159],[51.391679,35.701215],[51.391357,35.701237],[51.391253,35.701266],[51.391186,35.70127],[51.39112,35.701269],[51.391038,35.701254],[51.390972,35.70123],[51.390881,35.701175],[51.390811,35.701102],[51.390768,35.701017],[51.390756,35.700925],[51.390774,35.700834],[51.390822,35.70075],[51.390896,35.70068],[51.39099,35.700629],[51.391084,35.700602],[51.39119,35.700343],[51.391325,35.699294],[51.391389,35.6988],[51.39148,35.698094],[51.391523,35.697762],[51.391597,35.697181],[51.391605,35.697108],[51.391618,35.697019],[51.391698,35.696398],[51.39171,35.696307],[51.39172,35.696224],[51.391731,35.69615],[51.391743,35.696053],[51.391782,35.695773],[51.391863,35.695183],[51.391934,35.694669],[51.391941,35.694615],[51.391961,35.694474],[51.392017,35.694067],[51.392066,35.693715],[51.392109,35.693402],[51.392122,35.693308],[51.392134,35.693218],[51.392172,35.692945],[51.392225,35.69256],[51.392297,35.692038],[51.392377,35.691457],[51.392405,35.691255],[51.39242,35.691123],[51.392356,35.691099],[51.392298,35.691065],[51.392251,35.691023],[51.392216,35.690973],[51.392194,35.690918],[51.392187,35.690867],[51.392192,35.690815],[51.392219,35.690745],[51.392268,35.690683],[51.392335,35.690634],[51.392416,35.690601],[51.392471,35.690586],[51.392486,35.690478],[51.39265,35.689287],[51.39266,35.689216],[51.392739,35.688643],[51.392764,35.68848],[51.392757,35.688434],[51.392728,35.688395],[51.392691,35.688374],[51.392657,35.688349],[51.392628,35.688321],[51.392604,35.68829],[51.392492,35.688257],[51.392453,35.688246],[51.392411,35.688241],[51.392369,35.688236],[51.392327,35.688237],[51.392091,35.688307],[51.389976,35.688951],[51.389842,35.688974],[51.389705,35.688973],[51.38957,35.688965],[51.389435,35.688945],[51.388343,35.688592],[51.387907,35.688451],[51.387823,35.688423],[51.386809,35.688095],[51.386422,35.688035],[51.386163,35.688023],[51.386117,35.688026],[51.385458,35.688069],[51.383952,35.688167],[51.383702,35.688183],[51.383499,35.688168],[51.383281,35.688151],[51.382731,35.68811],[51.381926,35.688045],[51.381703,35.688027],[51.381292,35.687994],[51.379073,35.687859],[51.377921,35.68779],[51.377641,35.687774],[51.377421,35.687761],[51.377115,35.687744],[51.376522,35.687709],[51.376478,35.687707],[51.375842,35.68767],[51.37556,35.687653],[51.374949,35.687618],[51.374863,35.687613],[51.374737,35.687602],[51.374046,35.687565],[51.373424,35.687529],[51.373045,35.687507],[51.372191,35.687458],[51.371581,35.687422],[51.370434,35.687356],[51.370254,35.687345],[51.36865,35.687252],[51.368599,35.687249],[51.368583,35.687248],[51.368481,35.687242],[51.367935,35.687211],[51.367876,35.687207],[51.36785,35.687206],[51.367178,35.687167],[51.367053,35.687159],[51.366973,35.687155],[51.366539,35.68713],[51.366339,35.687118],[51.366059,35.687102],[51.365914,35.687093],[51.365548,35.687072],[51.365297,35.687057],[51.36523,35.687054],[51.364865,35.687032],[51.364316,35.687001],[51.364308,35.687],[51.364157,35.686991],[51.364163,35.686894],[51.36417,35.686793],[51.364188,35.686521],[51.364206,35.686236],[51.364209,35.686184],[51.364228,35.685907],[51.364232,35.685845],[51.364248,35.685591],[51.364273,35.685202],[51.364281,35.685086],[51.364285,35.685025],[51.364316,35.684542],[51.364324,35.684426],[51.364344,35.68411],[51.364365,35.683799],[51.36438,35.683566],[51.36438,35.68353],[51.364284,35.683524],[51.363567,35.683475],[51.363448,35.683467],[51.363038,35.683439],[51.362552,35.683406],[51.362341,35.683391],[51.361821,35.683356],[51.361741,35.68335],[51.361417,35.683328],[51.361238,35.683316],[51.361167,35.682942],[51.361113,35.682741],[51.361068,35.682577],[51.361027,35.682404],[51.360818,35.68203],[51.360802,35.681955],[51.360795,35.681761],[51.360814,35.681518],[51.360881,35.681284],[51.360929,35.681148],[51.360957,35.681094],[51.361,35.680987],[51.361051,35.680851],[51.36108,35.680695],[51.361079,35.680479],[51.361078,35.680376],[51.36098,35.680371],[51.360633,35.680351],[51.360364,35.680335],[51.35947,35.680283],[51.35906,35.68026],[51.359012,35.680257],[51.357977,35.680197],[51.357869,35.680191],[51.357719,35.680182],[51.357576,35.680174],[51.357323,35.680159],[51.357025,35.680142],[51.356637,35.68012],[51.356603,35.680391],[51.356563,35.680708],[51.356513,35.681109],[51.356502,35.681195],[51.35596,35.681161],[51.355825,35.681152],[51.35569,35.681143],[51.3557,35.68139]]}},{"type":"Feature","properties":{"route":8,"color":"#65a30d","kind":"routed_access_not_recorded_gps","duration":312.1,"distance":2644.3},"geometry":{"type":"LineString","coordinates":[[51.554142,35.729941],[51.553566,35.730314],[51.554904,35.731073],[51.555566,35.731449],[51.555374,35.731473],[51.554659,35.732309],[51.553772,35.733344],[51.553273,35.733928],[51.55261,35.734706],[51.552129,35.73524],[51.552675,35.735545],[51.5531,35.735779],[51.553589,35.736045],[51.554139,35.736337],[51.554756,35.73668],[51.554806,35.736709],[51.555166,35.736922],[51.555506,35.737136],[51.556188,35.737513],[51.556444,35.737656],[51.556705,35.737797],[51.557021,35.737984],[51.55748,35.73825],[51.558142,35.73863],[51.558083,35.738695],[51.557845,35.738953],[51.55758,35.739242],[51.556976,35.739897],[51.556326,35.740638],[51.556124,35.740814],[51.555787,35.741114],[51.555342,35.741586],[51.555075,35.741772],[51.555149,35.742153],[51.555237,35.742611],[51.555343,35.743167],[51.555448,35.743712],[51.555479,35.743871],[51.555565,35.744321],[51.555599,35.744498],[51.555684,35.744937],[51.558208,35.744607],[51.55835,35.745161],[51.558453,35.745701],[51.55844,35.74581]]}},{"type":"Feature","properties":{"route":9,"color":"#ea580c","kind":"routed_access_not_recorded_gps","duration":6.3,"distance":44},"geometry":{"type":"LineString","coordinates":[[51.554142,35.729941],[51.55387,35.73027]]}},{"type":"Feature","properties":{"route":10,"color":"#0284c7","kind":"routed_access_not_recorded_gps","duration":72.1,"distance":457.4},"geometry":{"type":"LineString","coordinates":[[51.554142,35.729941],[51.553566,35.730314],[51.554904,35.731073],[51.555566,35.731449],[51.556105,35.73174],[51.55705,35.73103]]}},{"type":"Feature","properties":{"route":11,"color":"#9333ea","kind":"routed_access_not_recorded_gps","duration":0.5,"distance":4},"geometry":{"type":"LineString","coordinates":[[51.554142,35.729941],[51.55379,35.72977]]}},{"type":"Feature","properties":{"route":12,"color":"#059669","kind":"routed_access_not_recorded_gps","duration":218.8,"distance":1714.1},"geometry":{"type":"LineString","coordinates":[[51.554142,35.729941],[51.553566,35.730314],[51.554904,35.731073],[51.555566,35.731449],[51.556105,35.73174],[51.557483,35.732488],[51.558601,35.733123],[51.5596,35.733685],[51.560805,35.734352],[51.561563,35.73481],[51.561482,35.734897],[51.560611,35.73587],[51.560273,35.736246],[51.559919,35.73664],[51.559477,35.737122],[51.559212,35.737413],[51.559716,35.737734],[51.559776,35.737773],[51.56004,35.737942],[51.560366,35.738156],[51.560477,35.738221],[51.560665,35.738341],[51.561102,35.73862],[51.561205,35.738686],[51.561588,35.73893],[51.562133,35.739279],[51.562572,35.739559],[51.5628,35.73941]]}},{"type":"Feature","properties":{"route":13,"color":"#db2777","kind":"routed_access_not_recorded_gps","duration":0.4,"distance":3.3},"geometry":{"type":"LineString","coordinates":[[51.554142,35.729941],[51.55408,35.72994]]}},{"type":"Feature","properties":{"route":14,"color":"#475569","kind":"routed_access_not_recorded_gps","duration":208.9,"distance":1619.3},"geometry":{"type":"LineString","coordinates":[[51.554142,35.729941],[51.554103,35.729736],[51.554805,35.728981],[51.554889,35.72889],[51.556695,35.72688],[51.556716,35.726823],[51.556716,35.726762],[51.556682,35.726687],[51.556629,35.72661],[51.556542,35.72652],[51.556248,35.726421],[51.555962,35.72632],[51.555727,35.726265],[51.554782,35.726096],[51.554043,35.726043],[51.553962,35.726038],[51.553566,35.726009],[51.553146,35.725984],[51.552861,35.725968],[51.55168,35.725891],[51.551582,35.725884],[51.551091,35.725998],[51.550837,35.726095],[51.550674,35.726176],[51.550513,35.726344],[51.551381,35.726838],[51.551841,35.727109],[51.552654,35.727583],[51.553064,35.727863],[51.553222,35.727948],[51.553806,35.728266],[51.554052,35.728396],[51.554373,35.728589],[51.554168,35.728816],[51.554052,35.728945],[51.553896,35.729119],[51.553773,35.729255],[51.553649,35.729392],[51.55352,35.729536],[51.553384,35.729688],[51.55351,35.72993]]}},{"type":"Feature","properties":{"route":15,"color":"#ca8a04","kind":"routed_access_not_recorded_gps","duration":9.7,"distance":31.4},"geometry":{"type":"LineString","coordinates":[[51.554142,35.729941],[51.554103,35.729736],[51.554212,35.729798],[51.55416,35.72991]]}}]}
