{"type":"FeatureCollection","features":[{"type":"Feature","geometry":{"type":"Polygon","coordinates":[[[51.42334291362473,35.700543616684605],[51.423212935529776,35.70054671383209],[51.42308382754851,35.70055934658785],[51.42295663894594,35.70058141228535],[51.42283240339035,35.70061273159612],[51.4227121305536,35.70065304998688],[51.40598230365723,35.706992965458966],[51.40586261903949,35.707043994428616],[51.40574930983882,35.7071039288273],[51.4056433692154,35.707172243335535],[51.40554572575141,35.70724833918152],[51.405457235312156,35.70733154938868],[51.40537867354429,35.7074211446212],[51.40531072907684,35.70751633957611],[51.40525399748459,35.70761629986591],[51.40520897606686,35.70772014933158],[51.40517605948734,35.707826977721695],[51.39595542668055,35.74502687487798],[51.39593220823498,35.74515833803587],[51.39588219983506,35.74562833749982],[51.395881330840965,35.74563686467145],[51.395731303269294,35.74717686307723],[51.395729603717555,35.74719635883322],[51.395689594376385,35.74771635842023],[51.3956869940434,35.74776899272447],[51.395656969315425,35.74913899252712],[51.395656833070994,35.749146578585865],[51.39563680725353,35.75057657851379],[51.395641610605935,35.750686848267456],[51.39565906528315,35.75079626626936],[51.395689017814014,35.75090387013364],[51.39573120479969,35.75100871342686],[51.39578525522875,35.75110987399273],[51.395850693738915,35.75120646206326],[51.395926944796805,35.75129762808527],[51.39601333775907,35.75138257019316],[51.39610911277035,35.75146054126243],[51.39621342744618,35.751530855481654],[51.39632536428219,35.75159289438526],[51.39672536746088,35.75179289684119],[51.39683203091851,35.751841291726734],[51.39694332980247,35.75188216611284],[51.39705846791082,35.751915227593294],[51.41027863758061,35.75520527219662],[51.41028469105299,35.75520676649045],[51.41077469737105,35.75532676811814],[51.410887960568786,35.75535047403744],[51.41100320635695,35.75536662844493],[51.41147321311506,35.75541662912042],[51.41158604447569,35.75542497702472],[51.41169933151057,35.75542608553906],[51.41214933812443,35.75541608534997],[51.41227792160121,35.75540853306328],[51.412405165435054,35.755391658755435],[51.412530054504735,35.755365597046044],[51.4126515924773,35.7553305558495],[51.51213271581683,35.72245010507756],[51.51226087298488,35.722401587031406],[51.512382595579766,35.7223430790485],[51.512496716135765,35.72227514229824],[51.51260214010877,35.722198428382725],[51.51269785637474,35.722113673086454],[51.512782946927594,35.72202168931856],[51.51285659568352,35.72192335931522],[51.51291809630742,35.7218196261774],[51.51296685898625,35.72171148482469],[51.51300241608447,35.72159997245242],[51.51302442662737,35.721486158583346],[51.51303267956936,35.72137113480947],[51.513027095815914,35.72125600432242],[51.51300772897991,35.721141871332506],[51.51297476486514,35.72102983047856],[51.51292851968211,35.720920956329465],[51.512869437013265,35.72081629307845],[51.51279808355678,35.72071684452883],[51.51271514368995,35.72062356446728],[51.51262141290428,35.72053734751697],[51.5125177901752,35.72045902055799],[51.51240526933982,35.72038933479782],[51.51228492956527,35.72032895856743],[51.512157924999016,35.72027847091207],[51.51152793202591,35.720058473788484],[51.51147835355404,35.720042041055635],[51.50233846132472,35.71717207903362],[51.50233349251579,35.717170527136616],[51.470413870469876,35.70725065862906],[51.47039078270224,35.70724366305643],[51.46629083231786,35.706033679181544],[51.466281706061494,35.7060310138809],[51.463651738153175,35.705271024028214],[51.46364587280102,35.70526934061536],[51.45459598378997,35.70268937510819],[51.45458466396433,35.70268619043693],[51.45195469653212,35.701956200218724],[51.451950625439274,35.70195507568345],[51.44984065165622,35.701375083461556],[51.44981594153864,35.701368492511335],[51.44923594889056,35.70121849453105],[51.44908569737619,35.701186780737515],[51.44726572260859,35.70088678481822],[51.447136490958016,35.700870415647685],[51.44700597285027,35.700863661483474],[51.43885609256415,35.7007436623662],[51.438852685787424,35.70074361537242],[51.42334291362473,35.700543616684605]]]},"properties":{"group":1,"color":"#2563eb","store_count":48,"source":"recorded_gps_operation_envelope","operation_spans":[[0,112,997]],"label_center":[51.438366350428154,35.73373848997777]}},{"type":"Feature","geometry":{"type":"Polygon","coordinates":[[[51.377272341958445,35.706105438180664],[51.37723026599924,35.70608979836151],[51.3771864836997,35.706077668159786],[51.377141433829685,35.706069169139724],[51.37709556786164,35.70606438647521],[51.37704934544631,35.706063368096316],[51.37700322980646,35.706066124208824],[51.37695768309485,35.706072627192114],[51.37691316176291,35.706082811875866],[51.376870111986555,35.70609657619319],[51.37682896519494,35.70611378220339],[51.37679013374696,35.70613425747439],[51.37675400679887,35.706157796810615],[51.374924008119315,35.70747779221147],[51.374887286672816,35.7075074239909],[51.37139728401901,35.71065741420014],[51.37139091325285,35.710663285661084],[51.37088091270483,35.71114328420463],[51.37087054342536,35.71115339554827],[51.36609053560943,35.71598338150619],[51.36608821506509,35.71598574550278],[51.36239820853714,35.7197757345943],[51.36239662524753,35.71977736994876],[51.36110662284454,35.721117366118946],[51.36107753291843,35.72115126155738],[51.36105317611637,35.721187553786265],[51.361033846186444,35.721225805123645],[51.361019776254054,35.72126555426021],[51.360909774168746,35.72165555386625],[51.36090157710636,35.72169332873237],[51.3608981333719,35.72173158753622],[51.36089947867983,35.72176993357687],[51.36090559908767,35.72180796924829],[51.36091643114019,35.72184530016209],[51.360931862527146,35.721881539236904],[51.36095173324756,35.72191631071206],[51.360975837268526,35.72194925404386],[51.372355800981936,35.73583929011308],[51.372377713243004,35.73586382872214],[51.37240197733545,35.73588684941401],[51.377671975045914,35.74049686403869],[51.37770973221612,35.74052635277042],[51.37803973254928,35.74075635358114],[51.37806916719103,35.74077524021696],[51.37845916791684,35.7410052410789],[51.37850555538249,35.741029306243426],[51.37855512053284,35.74104870913408],[51.37861512075234,35.741068709218816],[51.37865729085738,35.7410808594305],[51.37870070424731,35.74108962896306],[51.37874495420423,35.74109493565923],[51.378789626172505,35.74109672980321],[51.378834301642755,35.741094994586625],[51.37887856207279,35.741089746265914],[51.378921992808905,35.74108103400996],[51.37896418697069,35.74106893943956],[51.37900474926308,35.74105357586259],[51.37904329967975,35.741035087212595],[51.379079477063314,35.74101364670017],[51.37911294248888,35.7409894551902],[51.37970294254972,35.74051945362701],[51.37973568036326,35.74049049613881],[51.379764531398294,35.74045891059558],[51.37978918038356,35.74042504215535],[51.37980935796765,35.740389260922484],[51.379824843662256,35.74035195790335],[51.38012483918483,35.739481956836165],[51.38012591048384,35.73947879728659],[51.38027590814977,35.73902879675228],[51.38027748764875,35.73902392988008],[51.38051748366165,35.73826392902364],[51.38052514333084,35.73823501472649],[51.38052999682739,35.738205699588804],[51.38181993377203,35.72715569510994],[51.38182197571494,35.727124735461835],[51.38182088867257,35.727093743746025],[51.381816680011134,35.72706292987089],[51.37796656612786,35.706572944984515],[51.37795797231274,35.70653820432135],[51.37794541398865,35.706504276049486],[51.377929002300334,35.70647146043047],[51.37790888249387,35.7064400478786],[51.37788523263118,35.706410316390915],[51.377858262014,35.70638252908694],[51.37782820933156,35.706356931880194],[51.377795340548126,35.70633375130194],[51.377759946549254,35.70631319249647],[51.37772234056747,35.70629543740571],[51.377272341958445,35.706105438180664]]]},"properties":{"group":2,"color":"#0d9488","store_count":49,"source":"recorded_gps_operation_envelope","operation_spans":[[0,610,1111]],"label_center":[51.372203436369745,35.72450609195737]}},{"type":"Feature","geometry":{"type":"Polygon","coordinates":[[[51.33279615614501,35.724627760219434],[51.33277917038405,35.72457636660182],[51.332755957352134,35.724526618739915],[51.332726750524124,35.72447901696962],[51.33269184365555,35.724434040041714],[51.33265158782794,35.72439214030717],[51.332606387917494,35.724353739167654],[51.332556698523014,35.724319222837615],[51.33250301939369,35.72428893846007],[51.33244589040297,35.72426319061543],[51.332385886119,35.724242238258384],[51.33232361002614,35.72422629211364],[51.33225968845579,35.72421551255671],[51.33219476428753,35.724210008001],[51.33212949048376,35.72420983380763],[51.3320645235231,35.72421499172857],[51.32536456643352,35.72502498625644],[51.32530153081575,35.72503522111584],[51.32524004042715,35.72505047563853],[51.302040165980344,35.731840433166894],[51.30198201793555,35.731860080603155],[51.30192646902519,35.73188421534682],[51.30187403863492,35.731912611737705],[51.30182521699366,35.73194500426891],[51.30178046059009,35.73198109006915],[51.30008045906654,35.73349108339097],[51.30004512700436,35.7335252476502],[51.300013445110395,35.73356171425259],[51.29998563799729,35.73360022466963],[51.29313558372385,35.74407019265984],[51.29310759873032,35.74411871393658],[51.29308576144738,35.744169289431674],[51.29307029474405,35.74422140300436],[51.29306135647636,35.74427452281628],[51.293059037875906,35.74432810675892],[51.29306336261825,35.7443816079861],[51.293074286580755,35.74443448049466],[51.29309169829238,35.744486184696754],[51.29311542007072,35.744536192926645],[51.293145209834925,35.74458399482576],[51.29318076357578,35.744629102551436],[51.29322171845797,35.744671055755575],[51.29326765652272,35.74470942628299],[51.29428765728424,35.74547942998006],[51.294351995991015,35.745522126101214],[51.30130201477161,35.749562147559125],[51.30135921905682,35.74959185946023],[51.3014892195722,35.74965185979978],[51.30151427883925,35.749662843253724],[51.303824289034935,35.75062284880723],[51.3038743392165,35.75064151938059],[51.30392614509539,35.75065667718995],[51.30451614848527,35.750806678111516],[51.30453698263393,35.75081166568752],[51.30769700139139,35.7515216700795],[51.30775246717154,35.75153202897719],[51.3078088306826,35.75153840060138],[51.30793883153527,35.751548400662365],[51.307996847062874,35.751550741840006],[51.308054887685046,35.751548858791075],[51.30834488958797,35.751528858651064],[51.30841810704346,35.75152037318308],[51.30848967173215,35.751505174235966],[51.3116496895498,35.7506751689711],[51.31173681511835,35.7506464758857],[51.31178681534281,35.75062647576696],[51.31183817540038,35.750603540268955],[51.31188679957405,35.750576935615754],[51.311932294490965,35.75054687704237],[51.33117231358925,35.736616808722225],[51.33122685733748,35.73657232121229],[51.33127456246798,35.736522884897035],[51.33254455722814,35.735032879357206],[51.332578510889796,35.73498853068592],[51.33260694843528,35.734941673586334],[51.33262959395253,35.734892762700476],[51.33311958530369,35.73365276025701],[51.333129505908644,35.733625103333246],[51.33353949657196,35.73235510126671],[51.333555487312644,35.73228854191194],[51.33401546442882,35.72940853960008],[51.33402091445399,35.72933999823858],[51.33402091412853,35.729299998240336],[51.334017222547935,35.72924355589537],[51.334006190602146,35.72918775372165],[51.33279615614501,35.724627760219434]]]},"properties":{"group":3,"color":"#7c3aed","store_count":49,"source":"recorded_gps_operation_envelope","operation_spans":[[0,469,1132]],"label_center":[51.31079942870882,35.74034350069103]}},{"type":"Feature","geometry":{"type":"Polygon","coordinates":[[[51.47594865166039,35.70979334310926],[51.47584463302379,35.70978446478512],[51.475740046609204,35.70978426998363],[51.475635979336154,35.709792760729506],[51.47553351272956,35.70980984878246],[51.47543371168089,35.7098353565541],[51.47533761338225,35.70986901895337],[51.47524621654803,35.70991048614126],[51.4747362192488,35.710170483846426],[51.47467634980435,35.710203451262814],[51.46434638970839,35.71633339982694],[51.46427109165896,35.71638265559078],[51.464201802844286,35.716437464285214],[51.46413913657564,35.71649734078032],[51.464083647549664,35.71656175508823],[51.46403582693827,35.71663013705397],[51.45870575388478,35.72516009763684],[51.458690674613464,35.72518525899919],[51.458380669662475,35.725725256673066],[51.458359823352794,35.72576410273208],[51.458189819956345,35.726104101432405],[51.45814842567344,35.7262047125336],[51.45798842000185,35.72669471127437],[51.45798187486326,35.72671585973844],[51.45700183526474,35.73006585200808],[51.4569853796369,35.730134807305504],[51.45697607580954,35.73020464508647],[51.45697398938188,35.73027487308153],[51.457103912978724,35.736234874739004],[51.457109144878395,35.736305678970425],[51.45712171341098,35.7363758674797],[51.45722170820346,35.73680586834515],[51.45724288952777,35.736878890339746],[51.45739288467713,35.73730889159005],[51.45742667607635,35.73738980368107],[51.4576466716032,35.737839805434426],[51.45767209612108,35.73788745339839],[51.458182088277695,35.738767457338064],[51.458201934730205,35.73879986695748],[51.459551917806195,35.740889877138535],[51.45960582111869,35.74096383480062],[51.45966875437494,35.741032889124654],[51.45974005229795,35.74109631010277],[51.45981896117826,35.74115342727834],[51.45990464684149,35.74120363683438],[51.46051465004958,35.74152363958944],[51.46060628447643,35.74156644210423],[51.46070282914204,35.74160134076998],[51.46080326174898,35.741627966048135],[51.460906518827095,35.741646036005925],[51.46101150699553,35.741655359302115],[51.57279267249827,35.74680540269754],[51.57289405598812,35.74680593770754],[51.57299500958257,35.74679831589709],[51.57309454818765,35.74678261163926],[51.57364455341046,35.74667261048748],[51.573654603832715,35.74667055647457],[51.59400479537383,35.74242051214749],[51.59410854027035,35.74239398858678],[51.59420826112892,35.74235866619777],[51.59430283875084,35.74231494141715],[51.59439121166674,35.74226330498406],[51.5944723880504,35.742204336431804],[51.59454545685058,35.74213869758319],[51.59455545681532,35.74212869751827],[51.594577592408534,35.74210575595088],[51.59551758784269,35.741095749689286],[51.59557328906501,35.74102952404161],[51.59562094677871,35.74095925019128],[51.59566012205062,35.74088557540098],[51.595690454078834,35.740809178256136],[51.595711663515196,35.74073076241457],[51.59572355503731,35.74065105012531],[51.595726019146625,35.74057077557611],[51.59571903317594,35.74049067813127],[51.595702661497164,35.740411495521684],[51.59567705492734,35.74033395705005],[51.59564244933862,35.74025877687394],[51.59559916348487,35.740186647428175],[51.59554759606501,35.740118233047596],[51.595488222050214,35.74005416384848],[51.59542158830876,35.73999502992533],[51.59534830856883,35.73994137591628],[51.59526905776577,35.73989369598708],[51.59518456582571,35.73985242928006],[51.59509561094299,35.73981795586986],[51.595003012413116,35.7397905932631],[51.47656408985334,35.70988087883905],[51.476418646911775,35.70985334253434],[51.47594865166039,35.70979334310926]]]},"properties":{"group":4,"color":"#d97706","store_count":47,"source":"recorded_gps_operation_envelope","operation_spans":[[0,154,1123]],"label_center":[51.50367662957147,35.72839085587326]}},{"type":"Feature","geometry":{"type":"Polygon","coordinates":[[[51.34728000676398,35.606378872014076],[51.34721941211005,35.60637946598519],[51.34670942517466,35.60638946565849],[51.34665125779416,35.606391154299075],[51.34613127107792,35.606411153718696],[51.34606505907153,35.60641441281066],[51.34556507177888,35.60644441198202],[51.34506507163346,35.60647441192466],[51.34456507148808,35.606504411867384],[51.34449895435388,35.606509093214896],[51.34400896671684,35.60654909213841],[51.34389306631147,35.60656077043024],[51.343393078699634,35.606620768858654],[51.34323671041846,35.60664365938219],[51.34271672284172,35.60673365708466],[51.34266669304177,35.60674275039175],[51.341616717758065,35.60694274532487],[51.341579145123966,35.606950149996685],[51.34103915768049,35.60706014722583],[51.34091118738556,35.60708915581805],[51.340391198890316,35.607219152608295],[51.3403532300272,35.607228912780286],[51.339823241551144,35.607368909345304],[51.33977351519803,35.60738251205335],[51.33924352643936,35.60753250840424],[51.33871352347059,35.60768250877697],[51.338601964045374,35.60771650948102],[51.33808197437621,35.607886505429775],[51.338020777372705,35.60790727723992],[50.856830052243396,35.776003339844884],[50.85659585567856,35.77609639676346],[50.85637464941677,35.776208593976875],[50.856168780905264,35.77633874087371],[50.85598043486116,35.77648545635849],[50.85581161008846,35.77664718350506],[50.855664098266296,35.77682220607568],[50.855539464933386,35.777008666731035],[50.85108929928239,35.78456858307155],[50.85100816444914,35.784722063355886],[50.8508481558924,35.785062060234694],[50.850772483536474,35.78524914239967],[50.85071907474694,35.7854412562252],[50.85068841750771,35.785636646992955],[50.85064840464589,35.78604664613458],[50.850640537966235,35.78622771602304],[50.850652217923184,35.78640864920882],[50.85068335439086,35.78658804751056],[50.85073370688715,35.78676452459865],[50.85097368715703,35.78746452934943],[50.851050564701346,35.78765315317133],[50.851149383076596,35.78783486661066],[50.85469926060722,35.79359493217764],[50.85486701820311,35.79382772070729],[50.85491701734889,35.79388772156408],[50.855048730893124,35.79403183864539],[50.85505873080936,35.79404183880613],[50.855214434725944,35.79418364235584],[50.855385525833945,35.79431314361312],[50.855570546147426,35.79442923895458],[50.90554108437609,35.82286983433542],[50.90576381604432,35.822982984878365],[50.905999742127,35.82307673525617],[50.9137398927106,35.82575679838675],[50.91380446435081,35.825778302902435],[50.91430447450877,35.825938306715265],[50.91456998977177,35.82600975328202],[50.91507000132946,35.8261197560068],[50.91536815407303,35.82616990136385],[50.91587816684457,35.826229902896],[50.916042245147246,35.8262447750545],[50.91651225718399,35.82627477583363],[50.91670999400002,35.82628107692104],[50.91717000589294,35.82628107693689],[50.91730006341666,35.826278353317264],[50.91897010642894,35.82620835159037],[50.919124399665364,35.82619802174638],[50.919884418947255,35.826128019996894],[50.91992784695269,35.82612370998703],[50.93063811692408,35.82498368147508],[50.93091286626274,35.82494174398469],[50.93118026015314,35.82487538486172],[50.93175027214857,35.824705380802875],[50.93194723428046,35.824638845685065],[51.02034885679774,35.79110807142087],[51.02055999108952,35.791017773498766],[51.2374831287716,35.68700548721064],[51.2376880057327,35.686895674182544],[51.23805800928582,35.68667566965648],[51.238142076370536,35.68662345245726],[51.354042908525145,35.611331955351005],[51.35423171437381,35.61119598902284],[51.35440299499862,35.61104534048512],[51.35455504663928,35.61088150835761],[51.35468635684913,35.61070612239797],[51.35479561953778,35.61052092728727],[51.35488174795959,35.61032776527233],[51.35494388551904,35.61012855783811],[51.35498141428571,35.60992528659214],[51.35499396113424,35.609719973551584],[51.35499395610868,35.609559973580524],[51.35498290075096,35.60936732294572],[51.35494984367739,35.609176359525826],[51.35489507447345,35.60898875529594],[51.35481907281568,35.60880615280849],[51.35472250426692,35.608630150812814],[51.35460621444452,35.60846229025851],[51.35447122161291,35.608304040805315],[51.35431870776517,35.60815678795723],[51.354150008272235,35.60802182093387],[51.353340011636284,35.60743183205827],[51.35314663488393,35.60730436549912],[51.35272663905331,35.607054370588344],[51.352512649291384,35.60694008419931],[51.35228559889986,35.60684406515464],[51.35204781803177,35.60676729885431],[51.35180174693901,35.60671057311391],[51.35121176096981,35.60660057574787],[51.35101513167221,35.60657055571389],[51.35034514834659,35.60649055762224],[51.35017749528805,35.60647519239491],[51.34939751513077,35.60642519354368],[51.34933564067035,35.60642185102267],[51.3484256639258,35.60638185190168],[51.348289993812294,35.60637887216051],[51.34779000663608,35.606378872087966],[51.34728000676398,35.606378872014076]]]},"properties":{"group":5,"color":"#0891b2","store_count":59,"source":"recorded_gps_operation_envelope","operation_spans":[[0,527,2160]],"label_center":[51.0644453278927,35.73150441352776]}},{"type":"Feature","geometry":{"type":"Polygon","coordinates":[[[51.451490668269486,35.75799885882245],[51.451452962376464,35.757953232989074],[51.45140997021956,35.75791082665247],[51.45136210280704,35.757872045212636],[51.45130981775206,35.757837259415396],[51.451253614897894,35.75780680180831],[51.45119403153952,35.75778096356168],[51.45113163728726,35.75775999168513],[51.451067028621644,35.75774408666644],[51.45100082319136,35.757733400554955],[51.45093365390895,35.757728035508094],[51.45086616290069,35.757728042814854],[51.44986616990952,35.75776804248645],[51.44979330374828,35.75777412835783],[51.448303313829975,35.75796412698067],[51.44823702927947,35.75797531718998],[51.44817240811902,35.75799174546996],[51.4481100717861,35.758013253836346],[51.448050619747185,35.75803963545154],[51.4479946237332,35.75807063661356],[51.44794262224159,35.75810595919565],[51.447895115357845,35.758145263513086],[51.4478525599464,35.75818817158969],[51.44781536525704,35.758234270792514],[51.440415314796134,35.768464235047425],[51.44041210076692,35.76846872478827],[51.43650207280291,35.77398870580199],[51.43646820328017,35.77404313776513],[51.43644176755967,35.7741002390531],[51.43604175987463,35.775130236946445],[51.43602633591684,35.77517680440029],[51.43601586300564,35.77522427728781],[51.43595585997145,35.775584276972246],[51.43594985172483,35.77564416160611],[51.43595171423601,35.77570422688999],[51.43667165059002,35.783144231403746],[51.436680845798755,35.78320151611947],[51.43669720187477,35.78325773049154],[51.436720546377515,35.78331228180614],[51.43675054598012,35.78337228196636],[51.4367806268206,35.783424585852714],[51.436817130499094,35.78347410101871],[51.43685967227525,35.78352030557044],[51.436907803764356,35.783562712507305],[51.43696101766314,35.7836008748552],[51.43701875309666,35.78363439037794],[51.437080401530004,35.78366290581705],[51.45634049342554,35.79153295408911],[51.45638849822218,35.79155072911371],[51.46082852255569,35.793030738463855],[51.46089534752106,35.793049816181146],[51.4609642190556,35.79306321836691],[51.46103441304686,35.79307080411109],[51.461105191477294,35.79307249365751],[51.46117581018421,35.793068269242454],[51.46124552668437,35.793058175281395],[51.461313607980955,35.79304231790207],[51.463393620142,35.79246231399407],[51.463468739106965,35.792437258507086],[51.46589875085889,35.791487252460804],[51.46595897563995,35.79146063525268],[51.46601566659447,35.79142928663992],[51.466068265650556,35.79139351522413],[51.46611625501975,35.791353673145416],[51.46615916229423,35.79131015261561],[51.466196565097235,35.79126338205717],[51.46622809524075,35.791213821885435],[51.46625344234976,35.791161959976264],[51.46737342290825,35.788491954115294],[51.46738639031383,35.788457463238196],[51.46746638844805,35.78821746281465],[51.4674794430936,35.788170405838116],[51.46883939263218,35.782060398634115],[51.46884703304685,35.78201610516696],[51.468850331281395,35.781971457116995],[51.46886032782318,35.78157145708639],[51.46885859609343,35.78151856822356],[51.468850775239,35.781466045751316],[51.46883693443003,35.78141435411542],[51.46881719606934,35.781363950413876],[51.46879173470957,35.781315280354896],[51.46876077550936,35.781268774315706],[51.451490668269486,35.75799885882245]]]},"properties":{"group":6,"color":"#e11d48","store_count":46,"source":"recorded_gps_operation_envelope","operation_spans":[[0,313,965]],"label_center":[51.45019710743077,35.77540427713003]}},{"type":"Feature","geometry":{"type":"Polygon","coordinates":[[[51.38519934739501,35.66216671731094],[51.385067766128735,35.662137696557586],[51.3849333427865,35.66211929265029],[51.384797360393236,35.66211168124829],[51.38466111685263,35.662114935000105],[51.38452591256074,35.66212902285015],[51.38439303799566,35.66215381033515],[51.384263761401954,35.66218906086734],[51.38413931668702,35.66223443799232],[51.35670957236533,35.67357429471476],[51.356588891858095,35.67363049292287],[51.35647565964741,35.673696206249716],[51.35637099861186,35.67377078305392],[51.35627594664303,35.67385348379809],[51.35619144635324,35.67394348838172],[51.35611833572776,35.674039904273],[51.35605733981401,35.674141775358976],[51.356009063530486,35.674248091426236],[51.35597398566641,35.674357798178235],[51.35334381721132,35.68465776969868],[51.353333620823264,35.684702068341785],[51.35325361429638,35.68509206747659],[51.353237144571295,35.685209549860765],[51.35323569938086,35.68532779226625],[51.3532492943805,35.685445519225865],[51.35382924020623,35.688665526100124],[51.35384806636251,35.68874852620466],[51.353874378450776,35.68883016032264],[51.35400437317678,35.68918016177612],[51.354052353399034,35.68928906334432],[51.35411363651188,35.68939342899414],[51.35418758943837,35.689492180504786],[51.35427344819916,35.68958429765247],[51.354573447134015,35.689874300281346],[51.3546813737361,35.68996744382759],[51.354801449620034,35.69005010091145],[51.35493215301974,35.69012122396588],[51.362952218059135,35.69397127012149],[51.36304510362054,35.69401208054021],[51.363141502852415,35.69404705069303],[51.37791166772433,35.6988671124756],[51.37801368808221,35.698896707360525],[51.37852369435874,35.69902670906275],[51.37861779476853,35.6990477800571],[51.52572972571976,35.727418153473636],[51.52583054312465,35.72743435951147],[51.553750926946385,35.731054406383926],[51.55389121029362,35.731066692665046],[51.5540322981318,35.73106737290312],[51.55417274986213,35.73105644015303],[51.554311131381894,35.73103400604573],[51.55444602972933,35.73100029964824],[51.5545760675126,35.73095566512452],[51.55469991697532,35.73090055822074],[51.55473991727162,35.73088055797859],[51.55486862694061,35.730807801684165],[51.554986533988775,35.73072375019548],[51.55509215503482,35.73062946098521],[51.55512215489155,35.7305994607202],[51.55520459121428,35.73050807985987],[51.55527546529111,35.730410463477114],[51.55533407351823,35.730307580720606],[51.555379834075865,35.730200453020515],[51.555412292702954,35.73009014394698],[51.55543112720526,35.72997774865061],[51.55543615065195,35.729864382989454],[51.555427313229224,35.72975117245061],[51.55540470273251,35.729639240976454],[51.55536854369253,35.72952969980634],[51.55531919514404,35.729423636444615],[51.555257147059265,35.729322103864455],[51.55518301548188,35.72922611005467],[51.55509753640949,35.7291366080132],[51.555001558485785,35.72905448628671],[51.55489603457469,35.728980560150006],[51.49530631111101,35.6912409761947],[51.495207060951486,35.69118354429179],[51.49510205577367,35.691133383352664],[51.494992093813686,35.69109087469017],[51.494878010983804,35.69105634144568],[51.38519934739501,35.66216671731094]]]},"properties":{"group":7,"color":"#4f46e5","store_count":47,"source":"recorded_gps_operation_envelope","operation_spans":[[0,71,822],[1,0,230]],"label_center":[51.43703448879723,35.69645708158431]}},{"type":"Feature","geometry":{"type":"Polygon","coordinates":[[[50.99196304492603,35.68709740505629],[50.99176580190111,35.68707030330137],[50.99156607411935,35.68706147218171],[50.968126497865775,35.68710147160633],[50.967959895294314,35.687108131668],[50.96779479391797,35.687127516853124],[50.96763265077872,35.687159456084906],[50.967474896815865,35.687203667495076],[50.96732292423962,35.687259760911154],[50.964992952014576,35.68822974551462],[50.964950554973136,35.68824798763934],[50.96450056000228,35.688447984509374],[50.9644608367498,35.68846618205367],[50.96232085905818,35.689476166471934],[50.962148154218866,35.689569028285696],[50.96168815718104,35.68984902428423],[50.96155333658694,35.68993985019382],[50.96143011939177,35.69004105310086],[50.96131970041441,35.690151651693085],[50.96122315038928,35.690270573548936],[50.96114140558288,35.69039666553525],[50.961075258713585,35.690528704987805],[50.96088525066226,35.69096870237482],[50.96086192454177,35.69102657302384],[50.95113142571628,35.7169864372153],[50.951088988560265,35.717123064825486],[50.95106303418554,35.717262409089024],[50.95105380839858,35.717403150780136],[50.951061398632085,35.71754395743617],[50.95108573311395,35.717683495972494],[50.95112658154337,35.717820445303595],[50.95137656813184,35.71851044878455],[50.95140322336598,35.71857790234039],[50.95143322207761,35.718647902751805],[50.95149343547159,35.718770228544756],[50.95156703550432,35.71888758405601],[50.95165341275604,35.718998997472404],[50.95175185199094,35.71910354618293],[51.00192161343321,35.76760410494865],[51.00204339385117,35.76771041386696],[51.002177641208206,35.76780623410869],[51.00232300211923,35.767890599653626],[51.00247801114234,35.76796265996017],[51.00264110555353,35.76802168854143],[51.00281064110276,35.768067090290394],[51.00298490859261,35.76809840748049],[51.00316215111214,35.768115324380844],[51.003340581752184,35.7681176704401],[51.00351840162333,35.768105422005895],[51.003693817994794,35.76807870256356],[51.00410382480966,35.767998701171294],[51.004266107235,35.7679603038608],[51.00442318163123,35.76790951939364],[51.00457362805309,35.7678468068624],[51.0047160864811,35.76777273318842],[51.00484926911745,35.76768796799603],[51.00497197202826,35.76759327755848],[51.00508308602744,35.7674895178698],[51.00518160670337,35.76737762690601],[51.03318122476179,35.73213728452319],[51.03330603835541,35.73195164484174],[51.03358603035464,35.73145164113564],[51.03360450451376,35.73141749241607],[51.03501445932143,35.728717473543455],[51.035017633885936,35.72871135524009],[51.03617759594496,35.726461339685564],[51.03617965525034,35.726457328216455],[51.03754960984307,35.72377730982515],[51.037551239158105,35.72377411154662],[51.040851128624844,35.71727406721175],[51.040854719158496,35.71726694046316],[51.042604659153035,35.71376691690668],[51.04260640297715,35.71376341589422],[51.04326638008526,35.712433407001726],[51.043278628785494,35.71240803855299],[51.043818608438144,35.71125803122462],[51.043834298413316,35.711223292534065],[51.04406428871087,35.71069328938398],[51.04408339729489,35.71064676323249],[51.04427338796147,35.71015676060146],[51.044306625483834,35.71005932830506],[51.04443661654169,35.70961932647133],[51.044460420473584,35.7095251197606],[51.04454041240804,35.70914511861838],[51.0445540923909,35.709067628346844],[51.044634080217165,35.70850762719863],[51.04464597659948,35.70834894561867],[51.044636480632185,35.70819015643785],[51.044605706824086,35.708033172329834],[51.044554025978286,35.70787988421451],[51.04432401552856,35.70731988739708],[51.044243921687766,35.707158000339376],[51.04414053285256,35.7070051473533],[51.04303051682473,35.70557516101812],[51.04292962157444,35.70545835331851],[51.04281510810661,35.70535022154675],[51.0426880906795,35.70525181781561],[51.0425498051999,35.705164099581204],[51.04240159719768,35.70508792032818],[51.04224490873428,35.705024021266524],[50.99282556858608,35.687284310804586],[50.99266685539989,35.68723455046047],[50.992503035897265,35.68719740331569],[50.99196304492603,35.68709740505629]]]},"properties":{"group":8,"color":"#65a30d","store_count":58,"source":"recorded_gps_operation_envelope","operation_spans":[[0,1305,2226]],"label_center":[50.99806210678873,35.727586347462825]}},{"type":"Feature","geometry":{"type":"Polygon","coordinates":[[[51.39874337490702,35.62052824587008],[51.3987108705637,35.620421425169745],[51.39866546751256,35.620317787841984],[51.39860761948028,35.62021836945544],[51.39853790454057,35.62012416341845],[51.39845701933649,35.62003611105323],[51.398365772118346,35.619955092190615],[51.398265074666725,35.61988191637927],[51.39815593318148,35.619817314797324],[51.39803943822768,35.619761932947],[51.39791675383897,35.61971632420536],[51.397789105887234,35.61968094429555],[51.39765776983464,35.61965614673364],[51.39752405799052,35.61964217929674],[51.39738930640029,35.61963918154746],[51.394159350627596,35.61969918045177],[51.39397694045013,35.61971272556797],[51.35657743262052,35.62459265737744],[51.35645284391528,35.62461385835771],[51.35633125755075,35.624644553482696],[51.35621375624655,35.62468446941523],[51.35610138634946,35.62473325070713],[51.35599514851656,35.62479046296415],[51.30996538249155,35.652190162025725],[51.30985762943324,35.65226146324581],[51.309759416409634,35.652341418406166],[51.30967178177958,35.65242918220391],[51.29920170713849,35.66408908921333],[51.29910475891399,35.664213787090105],[51.2988647551337,35.66457378477752],[51.29881130115384,35.664663402643626],[51.29876799646193,35.66475659786335],[51.29873519591193,35.664852606839446],[51.29871316829501,35.664950642917326],[51.29870209413599,35.66504990283034],[51.298702064213,35.665149573281276],[51.29899197618126,35.670399576911095],[51.298992566597974,35.67040931007365],[51.29907254633442,35.67161931105524],[51.29907313818822,35.6716276734211],[51.2991531204608,35.672687674390055],[51.2991675616853,35.67279419395715],[51.29919462514987,35.67289906345273],[51.29923405452957,35.67300128944201],[51.299285476352466,35.67309990352867],[51.299348403536015,35.67319397152881],[51.29942223999988,35.67328260232108],[51.29950628631147,35.67336495628888],[51.29959974631101,35.67344025327479],[51.29970173465319,35.6735077799717],[51.29981128519406,35.67356689668073],[51.29992736014367,35.6736170433719],[51.30004885989783,35.67365774498994],[51.300174633455725,35.67368861595512],[51.30030348932466,35.6737093638164],[51.300434206808724,35.67371979202219],[51.300565547574145,35.673719801782596],[51.35319626737583,35.67161976954723],[51.35331141164791,35.6716111022046],[51.353425223744885,35.671594422709006],[51.353536867903294,35.67156985354428],[51.37832715849592,35.66516976913654],[51.37844583686117,35.66513403990484],[51.378559893403896,35.665089398047805],[51.3786683256385,35.6650362359428],[51.37877018051928,35.664975020854634],[51.37886456281767,35.66490629082805],[51.37906456286519,35.664746289279684],[51.37914608213846,35.66467502972755],[51.379219558336395,35.66459816545829],[51.379284415531444,35.66451629898117],[51.37934014536184,35.6644300720139],[51.37938631101578,35.66434016045215],[51.39874572101652,35.621369963368686],[51.398782762358,35.62127450431227],[51.39880902934376,35.621176692367115],[51.398824304775665,35.621077336474684],[51.39882846236156,35.62097725834248],[51.398821467758424,35.6208772856481],[51.398803378855014,35.62077824519417],[51.39874337490702,35.62052824587008]]]},"properties":{"group":9,"color":"#ea580c","store_count":50,"source":"recorded_gps_operation_envelope","operation_spans":[[0,404,1390]],"label_center":[51.362006368429746,35.63849031249494]}},{"type":"Feature","geometry":{"type":"Polygon","coordinates":[[[51.58136343349189,35.4181213820732],[51.58119953551187,35.41811122594295],[51.58103522625634,35.41811478889287],[51.5808722149633,35.41813203385989],[51.58071219737077,35.41816278145272],[51.58055683807923,35.41820671181755],[51.58040775323773,35.41826336796501],[51.58026649373368,35.41833216052328],[51.58013452906104,35.418412373868335],[51.5800132320347,35.418503173567345],[51.57990386450994,35.418603615058004],[51.57011380684068,35.42857351509682],[51.5700107566486,35.42869111078427],[51.488459687766834,35.533280213205465],[51.488376370520356,35.53340033262507],[51.488308870531895,35.53352691297685],[51.488257927449496,35.5336585673678],[51.48822409952231,35.533793853303635],[51.488207757480694,35.53393128849308],[51.48269573388151,35.63493123171408],[51.482696967771055,35.63506817005414],[51.48277694577133,35.6361681712838],[51.48278608383251,35.63625032297365],[51.482846075978976,35.63665032382367],[51.4828664829494,35.6367527812426],[51.482896695340386,35.63685361154593],[51.48712648275243,35.64889366705852],[51.48718189875727,35.64902489323663],[51.48725390174858,35.649150640119665],[51.4873416945822,35.649269515434234],[51.48744430527579,35.649380202983394],[51.48756059776849,35.6494814772207],[51.487930598191944,35.6497714806112],[51.48805645087091,35.64986042035743],[51.48819284524535,35.6499383214218],[51.48833833417731,35.6500043572625],[51.488491374022054,35.65005782722781],[51.488650341007755,35.65009816399106],[51.48881354846572,35.65012493957085],[51.488979264728655,35.650137869872665],[51.48914573150647,35.650136817703554],[51.48931118254498,35.65012179422798],[51.48947386236895,35.65009295884931],[51.49240390517351,35.649442948331654],[51.49241968402045,35.64943937751928],[51.49384970470975,35.64910937220172],[51.49403210190363,35.649057488395975],[51.494972113568735,35.648737483510686],[51.495117962928646,35.64868068668174],[51.49525613383876,35.64861228513382],[51.49538524482633,35.6485329627762],[51.495504005014794,35.64844351270697],[51.49561122703076,35.64834482928241],[51.49570583887566,35.64823789917388],[51.49578689464323,35.64812379150183],[51.53589604585043,35.584473326659186],[51.53597326027778,35.584330473588146],[51.536029268181885,35.584181167737654],[51.584556257603005,35.420530572924505],[51.58458038548613,35.42043311967221],[51.58463038068535,35.420183119068454],[51.58464818589442,35.42005518385481],[51.58465066907564,35.41992643715079],[51.584637806643485,35.41979810559029],[51.58460972121658,35.41967141184618],[51.58456668044671,35.41954756298154],[51.584509094466235,35.419427738949764],[51.58443751197815,35.419313081353195],[51.584352615026354,35.41920468256729],[51.58425521249585,35.41910357533393],[51.58414623240499,35.419010722923005],[51.58392623274671,35.41884072490863],[51.58379550803343,35.41874997222339],[51.58365374780455,35.41867109841003],[51.58350255576065,35.41860499573454],[51.58334364228705,35.41855241198669],[51.58270365106866,35.41837241464133],[51.58266657287058,35.418362395715256],[51.58212658048302,35.41822239778964],[51.58198640753278,35.418191666358126],[51.58184342583232,35.41817138134845],[51.58136343349189,35.4181213820732]]]},"properties":{"group":10,"color":"#0284c7","store_count":52,"source":"recorded_gps_operation_envelope","operation_spans":[[1,251,1531]],"label_center":[51.51515804654585,35.55905622811537]}},{"type":"Feature","geometry":{"type":"Polygon","coordinates":[[[51.03765163670607,35.664422699278475],[51.03742871149077,35.66442764762467],[51.03720754137775,35.66445096208031],[51.0369903925838,35.664492403754245],[51.036779490129504,35.66455154801455],[51.03657699504468,35.66462778883868],[51.03638498222893,35.66472034502192],[51.03620541919382,35.66482826818053],[51.03604014590457,35.6649504524679],[51.035890855927434,35.66508564590384],[51.03575907907612,35.66523246320132],[51.01325871458707,35.6931521238788],[51.01319438778391,35.693236945070424],[51.01272437737715,35.693896937731814],[51.012622369367975,35.694058454047166],[51.01254086673309,35.69422754460999],[51.01247086279903,35.694397543412194],[51.01240432494918,35.694596147564624],[51.01236605944906,35.694799655198686],[51.012296043163886,35.6953996539433],[51.01228612513336,35.695569979824796],[51.0122861168794,35.695869979826504],[51.01228674972113,35.69591310011436],[51.01229674037465,35.69625310029688],[51.01230236343954,35.69634538141933],[51.012352348709065,35.69688538232304],[51.01237733989497,35.69705167915748],[51.01242120086159,35.69721535606155],[51.012483550784836,35.69737499148009],[51.01258354589044,35.6975949931749],[51.012676627742415,35.69777052216347],[51.0158165322695,35.702920572978144],[51.015902110059976,35.70304777744145],[51.015999985966964,35.703168938398846],[51.029029826222256,35.71795912967158],[51.02915947499542,35.718092459496475],[51.02930400106447,35.718215195614384],[51.029462109625804,35.71832623838234],[51.02963238416664,35.71842459291862],[51.02981329915618,35.71850937801765],[51.0302433054902,35.71868938156356],[51.0303783243086,35.718741269052245],[51.031318340118695,35.71907127576198],[51.03149518234255,35.71912614856141],[51.03197519145073,35.71925615129107],[51.03219484426224,35.719305522573954],[51.032419572897375,35.719336141418694],[51.114991392671726,35.727006308174815],[51.11515831716605,35.72701654000503],[51.115325712564605,35.727016415167256],[51.13042605100554,35.72653640386312],[51.13064115696087,35.72652092247914],[51.13085337364149,35.72648835584854],[51.34346773551382,35.68476744055762],[51.34368363150531,35.68471520479798],[51.343891865238135,35.68464526461473],[51.34409026188683,35.68455835048195],[51.34427674938569,35.68445537015132],[51.34444938007227,35.68433739916966],[51.34477938075096,35.684087395110346],[51.34491992286837,35.683970769210056],[51.34504689172381,35.68384420521155],[51.345159236495284,35.683708750652556],[51.34525602741482,35.68356552665024],[51.351895820794006,35.672585420283696],[51.35198360863131,35.67241974454588],[51.35205059393176,35.67224772084135],[51.35209610157759,35.67207108327616],[51.352119672969486,35.67189161245549],[51.35212107064395,35.6717111175334],[51.35210028066113,35.67153141797536],[51.352057512739385,35.671354325217195],[51.35199319813529,35.6711816244056],[51.35190798529087,35.67101505640403],[51.35180273329207,35.6708563002454],[51.351678503204596,35.670706956208534],[51.35153654737469,35.6705685296886],[51.351378296802764,35.67044241602445],[51.35120534671727,35.670329886435404],[51.351019440494326,35.67023207520912],[51.350822452085126,35.670149968269946],[51.350616367128225,35.67008439324255],[51.35040326293699,35.67003601111101],[51.35018528756389,35.670005309557446],[51.34996463815232,35.669992598047266],[51.03765163670607,35.664422699278475]]]},"properties":{"group":11,"color":"#9333ea","store_count":57,"source":"recorded_gps_operation_envelope","operation_spans":[[0,551,1814]],"label_center":[51.14996925735791,35.695719979825654]}},{"type":"Feature","geometry":{"type":"Polygon","coordinates":[[[51.40972476614727,35.65708792532854],[51.40956747508639,35.657084701097205],[51.408737487231285,35.6571047007275],[51.40869333453868,35.657106318004324],[51.408083343423115,35.657136317512354],[51.408068040371674,35.6571371368167],[51.406168067981625,35.65724713504735],[51.406078256781235,35.65725464832095],[51.40534826717273,35.65733464710567],[51.40517411468116,35.65736273766481],[51.40447412387978,35.65751273550578],[51.40434313275385,35.657546325246],[51.404216654340416,35.65758993921496],[51.40409583736818,35.65764318129573],[51.40398177915281,35.65770556792465],[51.40387551563136,35.657776532482664],[51.40377801195398,35.65785543044106],[51.403690153718024,35.65794154521475],[51.4036127389245,35.658034094669944],[51.40354647072965,35.658132238227374],[51.40349195105765,35.65823508449618],[51.40344967513248,35.65834169936955],[51.40342002697849,35.65845111450833],[51.403403275930934,35.65856233613576],[51.40339957418777,35.65867435406329],[51.403408955425405,35.65878615086563],[51.403768911157634,35.66130615537699],[51.403775742649295,35.66134756774799],[51.4050356261991,35.668077583218384],[51.4050365262663,35.6680823259006],[51.4108360053532,35.69822239702771],[51.41086225268118,35.698327316910614],[51.411242232666396,35.69955732139825],[51.41128279182671,35.69966610953423],[51.4113360439373,35.69977119326003],[51.41140149101871,35.69987158980452],[51.41147852103419,35.69996636022889],[51.41156641361236,35.70005461820828],[51.4116643467834,35.70013553832174],[51.412064347516605,35.7004355415164],[51.41218225846194,35.700514985256994],[51.41230982452724,35.70058379210442],[51.412445609792584,35.70064118753776],[51.41258808580845,35.70068652548672],[51.412735648801984,35.700719295604955],[51.42664583984178,35.70316932900771],[51.42671949048953,35.70318067062351],[51.47607018924728,35.70969075865998],[51.47620935416188,35.709703467588106],[51.47634937438019,35.709705104358235],[51.47648892871406,35.70969565352674],[51.47662670037196,35.70967520426917],[51.47676138938544,35.70964394953868],[51.47689172487672,35.709602184245085],[51.477016477051656,35.70955030247192],[51.477134468804735,35.70948879375745],[51.477324469903124,35.709378792448895],[51.477435210537955,35.709307796070505],[51.47753692730253,35.70922832417938],[51.47762864914307,35.70914113548761],[51.47770950043507,35.709047062376364],[51.47777870934219,35.70894700294848],[51.47783561518394,35.7088419124539],[51.47787967474173,35.70873279416939],[51.47791046744326,35.70862068982009],[51.48221011793098,35.688370642456704],[51.482210624122274,35.68836824307863],[51.48234061341494,35.687748241648094],[51.482356013409394,35.68765009297615],[51.48236124337498,35.68755123549384],[51.48238096628182,35.67214123741865],[51.482374228733036,35.67202643171407],[51.48235378644505,35.67191271129052],[51.482319834810866,35.67180116279841],[51.48227269830782,35.671692852129986],[51.48221282739505,35.67158881423457],[51.48214079420745,35.67149004322972],[51.482057287087144,35.671397482902584],[51.48196310400499,35.6713120176923],[51.4818591449349,35.67123446423972],[51.481746403253936,35.671165563584715],[51.481256406570594,35.670895566797554],[51.48111073072765,35.67082509486159],[51.48095592860475,35.670769055971],[51.472656027354766,35.668229089629556],[51.47248851753686,35.66818710654574],[51.421139209599076,35.65804724414081],[51.421021992814886,35.658028231783945],[51.420472000608115,35.65795823273135],[51.420393144580395,35.657950007926196],[51.41021329183084,35.6571200188826],[51.410184759459916,35.657117924940366],[51.40972476614727,35.65708792532854]]]},"properties":{"group":12,"color":"#059669","store_count":47,"source":"recorded_gps_operation_envelope","operation_spans":[[0,350,1369]],"label_center":[51.444835607057726,35.67984623645624]}},{"type":"Feature","geometry":{"type":"Polygon","coordinates":[[[51.482184149162414,35.62757267146096],[51.482083079073426,35.62752602438709],[51.48197720869516,35.62748711700751],[51.481867424836175,35.62745627522264],[51.48175464708199,35.62743375737265],[51.481639820093186,35.62741975207384],[51.48152390569338,35.627414376638825],[51.4814078748137,35.62741767609405],[51.40107889952514,35.632687601888215],[51.40096727817433,35.63269897130396],[51.40085732917957,35.632718367958255],[51.40074991693003,35.63274563936028],[51.400645885873956,35.632780571109954],[51.40054605388052,35.63282288858333],[51.39126612213747,35.63719283995341],[51.39117113737902,35.63724227524287],[51.3910818984132,35.637298393502476],[51.390999108745234,35.637360752338395],[51.390923421043425,35.63742886015968],[51.39085543199393,35.63750218005329],[51.39047542885806,35.63795217682138],[51.390415560566105,35.63803029400392],[51.39036443448605,35.63811244586503],[51.39032245533557,35.63819798212883],[51.3900524470359,35.638827979532515],[51.39001366238772,35.638937460590974],[51.38998984807011,35.63904975746962],[51.38998129250526,35.6391635104061],[51.389988099354724,35.63927734200151],[51.39004809205785,35.639747342667974],[51.3900558628206,35.63979668976548],[51.390145855514135,35.64027669073647],[51.39017576000007,35.640391920333975],[51.390345752829944,35.640901922084424],[51.39037737750974,35.640983374684964],[51.392347320723744,35.64541339429468],[51.3924004890178,35.64551552823674],[51.392730483140866,35.64606553135507],[51.39276004494071,35.646111811684996],[51.393140039638226,35.64667181517452],[51.39319256098537,35.64674241791684],[51.39358255750774,35.647222421317906],[51.39359263744901,35.64723463800804],[51.39390263492997,35.64760464068431],[51.39392989250408,35.64763591441897],[51.39421989070909,35.64795591685426],[51.394288728182424,35.64802539446701],[51.39436464648277,35.64808977043397],[51.39444708052486,35.6481485655698],[51.395197083335326,35.64863857042423],[51.39522248061203,35.64865473589728],[51.39572248284736,35.6489647390272],[51.39664281835803,35.64953495017447],[51.39668226987078,35.64955843014753],[51.397172272569776,35.64983843305181],[51.3972894139191,35.649897899338534],[51.39741377214025,35.649946634892075],[51.44532424933786,35.66615682243001],[51.44542087498589,35.666185801240395],[51.44552006088827,35.66620829411555],[51.445990066497274,35.66629829519185],[51.44610074939727,35.666315300640214],[51.44621284397725,35.66632423157772],[51.44632546744053,35.66632501766936],[51.44643773282479,35.666317652724544],[51.448687761143205,35.666087649610475],[51.44873318011191,35.66608232415027],[51.44941318852816,35.66599232295674],[51.44945735772004,35.66598582081117],[51.45019736669087,35.66586581924568],[51.45030367457629,35.66584465487343],[51.484614061906555,35.6577145524414],[51.48473142705039,35.65768156264707],[51.48484428134634,35.65763937237798],[51.48495154495804,35.65758838533114],[51.48505219154896,35.65752908937447],[51.485145258103486,35.65746205187819],[51.485229854141636,35.657387914285415],[51.485305170239556,35.657307385974114],[51.48537048577406,35.65722123746889],[51.485425175817184,35.65713029306789],[51.48546871711477,35.657035422955126],[51.485500693092,35.65693753487385],[51.48552079783789,35.65683756544076],[51.48559079006433,35.65633756477864],[51.48559680088272,35.65628083482548],[51.48740640550171,35.63117081915846],[51.48740745453616,35.63106611481998],[51.48739554863966,35.63096185910796],[51.48737080955475,35.630859117640696],[51.48733349019205,35.63075894055513],[51.487283972043315,35.63066235177341],[51.487222761280414,35.630570338537744],[51.48715048358023,35.63048384132001],[51.48706787772828,35.630403744209794],[51.48697578806678,35.6303308658786],[51.486875155864,35.630265951212934],[51.48265517839907,35.62781597645126],[51.482594146392024,35.62778266921836],[51.482184149162414,35.62757267146096]]]},"properties":{"group":13,"color":"#db2777","store_count":48,"source":"recorded_gps_operation_envelope","operation_spans":[[0,264,1224]],"label_center":[51.43982723471639,35.64698241961737]}},{"type":"Feature","geometry":{"type":"Polygon","coordinates":[[[51.636697577211905,35.726322175810466],[51.636601166366624,35.7263241010174],[51.63650565428585,35.72633498221616],[51.63641228807947,35.7263546773303],[51.625472367766704,35.729214653393996],[51.62539397439628,35.72923870172782],[51.625318890234155,35.72926896724495],[51.62524785472044,35.72930515188787],[51.62518156742646,35.729346899306385],[51.62512068116553,35.729393798366935],[51.625065795564005,35.72944538720115],[51.62501745115605,35.729501157754136],[51.62497612406012,35.72956056078767],[51.62494222128974,35.72962301128893],[51.62491607674465,35.72968789423168],[51.62489794792187,35.729754570632856],[51.624888013379156,35.729822383845416],[51.6248863709757,35.72989066602504],[51.62489303690762,35.72995874470714],[51.624907945547555,35.7300259494296],[51.62493095009024,35.73009161833571],[51.62496182399745,35.73015510469245],[51.625000263228365,35.730215783259936],[51.625045889233235,35.73027305644921],[51.625098252680985,35.730326360207755],[51.62515683788407,35.730375169574806],[51.6252210678769,35.730419003851615],[51.625290310098066,35.73045743133592],[51.62536388262006,35.730490073573705],[51.6254410608655,35.730516609086806],[51.625521084743426,35.73053677653905],[51.711811762382084,35.74847691691005],[51.71182257530302,35.74847909873505],[51.71233257935371,35.748579099514856],[51.7124070539906,35.74859084476889],[51.71290705817454,35.74865084522532],[51.712914908507564,35.748651756561586],[51.738255121402375,35.75149177798567],[51.738331680036325,35.75149746988419],[51.738871684677406,35.7515174699988],[51.7388892912241,35.751517972053314],[51.73938929552821,35.75152797208703],[51.73939315834028,35.75152804212523],[51.74062316893023,35.75154804216898],[51.74066956876155,35.751547756708554],[51.741369574771156,35.751527756466935],[51.74141492237209,35.75152546343873],[51.805065462309805,35.74688541743195],[51.839556094274464,35.74434536715654],[51.83962588603191,35.74433781389219],[51.83969466295241,35.74432554559129],[51.839761946599715,35.744308647596654],[51.84021194974929,35.74417864651262],[51.84028658554517,35.7441537533608],[51.84035796704275,35.74412316775966],[51.84042544279966,35.74408716884168],[51.84048839702079,35.74404608514226],[51.84054625517825,35.74400029160117],[51.840598489254745,35.74395020614069],[51.84877845806416,35.73530016168444],[51.84883007121919,35.73523901859306],[51.85060005748024,35.73287900832099],[51.850639653394246,35.732819892437114],[51.850671971546326,35.732757903516706],[51.85069670233437,35.732693635435794],[51.85071360884774,35.7326277039041],[51.85072252913633,35.732560740566264],[51.85072337776133,35.732493386950324],[51.85071614661303,35.732426288321726],[51.850700904987725,35.732360087501455],[51.85067779892306,35.73229541870771],[51.850647049798255,35.732232901480145],[51.85060895221256,35.732173134744514],[51.850563871162365,35.7321166910752],[51.85051223854405,35.73206411120993],[51.850454549015915,35.73201589886977],[51.85039135525913,35.73197251593353],[51.85032326268288,35.73193437801328],[51.850250923624536,35.7319018504729],[51.850175031100335,35.73187524492807],[51.850096312166606,35.73185481626125],[51.850015520954855,35.731840760180006],[51.84993343144765,35.731833211342234],[51.849353436418475,35.731803211528465],[51.849325749024544,35.73180215120137],[51.636697577211905,35.726322175810466]]]},"properties":{"group":14,"color":"#475569","store_count":47,"source":"recorded_gps_operation_envelope","operation_spans":[[0,271,968]],"label_center":[51.756962044939016,35.739625183912565]}}]}
