{"type":"FeatureCollection","features":[{"type":"Feature","geometry":{"type":"Polygon","coordinates":[[[51.42668647625585,35.70242005016648],[51.42664917917882,35.70237201144422],[51.426606363589066,35.70232713851168],[51.42655843052481,35.70228585166827],[51.42650582895467,35.70224853762401],[51.426449051572334,35.702215545877465],[51.42638863018183,35.702187185442405],[51.42632513071649,35.70216372195366],[51.42625914793838,35.70214537517916],[51.4261912998678,35.70213231696161],[51.42612222199499,35.70212466960916],[51.4260525613282,35.70212250474973],[51.42598297033402,35.702125842660294],[51.42313299084588,35.70237584071989],[51.42306600458962,35.70238433287367],[51.423000293740564,35.70239792394686],[51.422936440319106,35.70241649355953],[51.42287500989495,35.70243987723528],[51.406675085193,35.70937983224024],[51.406611572614715,35.709410518408],[51.406552243990824,35.70944634477635],[51.406497722348,35.70948693512611],[51.40644858023646,35.709531863210074],[51.40640533371748,35.70958065722879],[51.40636843694398,35.709632804784995],[51.40633827739103,35.70968775826404],[51.40614827451762,35.71008775723642],[51.4061303010533,35.71013038145924],[51.40611638699988,35.71017400403376],[51.396706093403175,35.74511395162476],[51.39669287609386,35.74518163953058],[51.39663287173579,35.745671639205504],[51.39663262919368,35.745673654954096],[51.39650261940037,35.7467736542517],[51.39650052704181,35.74679569290989],[51.39634050702286,35.74902569209351],[51.39633990860933,35.7490845930223],[51.396346548080786,35.74914324677932],[51.39636035871736,35.74920106381491],[51.396381201718484,35.74925746298833],[51.396408867597444,35.74931187740914],[51.39644307828649,35.74936376013531],[51.396483489931306,35.749412589670925],[51.396529696346875,35.74945787520814],[51.396581233099965,35.749499161560635],[51.39663758217714,35.749536033739176],[51.39669817719156,35.749568121123005],[51.39676240907599,35.74959510118536],[51.39722241154415,35.74976510229253],[51.397228438934114,35.74976730271012],[51.410348510499254,35.75449733362147],[51.41035711570537,35.75450038087912],[51.41081711827067,35.75466038192968],[51.41088634820182,35.754681117374474],[51.41095781535382,35.75469597725044],[51.41103077137033,35.75470480595483],[51.41192077783192,35.75477480641744],[51.41199116178144,35.75477752143512],[51.41206153462698,35.75477462147693],[51.412131223801424,35.754766134258425],[51.41219956327211,35.754752140893686],[51.4122658999066,35.75473277512],[51.41232959971517,35.754708222019694],[51.41239005391026,35.754678716251085],[51.41244668472499,35.75464453980571],[51.4124989509352,35.75460601931319],[51.412546353032006,35.754563522919256],[51.41258843799569,35.75451745676736],[51.41286843656929,35.75417745540219],[51.412901728893665,35.7541328683345],[51.41293003504482,35.75408604864394],[51.41295313161431,35.75403736587327],[51.42636288391941,35.72153729242287],[51.4263824294667,35.72148066130303],[51.426394931807295,35.72142272007658],[51.42640026559672,35.721364049715056],[51.426940099998106,35.702954047666644],[51.426938732976716,35.70290119652892],[51.426931547416345,35.702848659543776],[51.426918601499366,35.702796862026574],[51.42690000004082,35.702746223305454],[51.42687589363952,35.702697153326774],[51.42684647745862,35.70265004933637],[51.42668647625585,35.70242005016648]]]},"properties":{"group":1,"color":"#2563eb","store_count":47,"source":"recorded_gps_operation_envelope","operation_spans":[[0,221,1046]],"label_center":[51.4106899774936,35.73332562202381]}},{"type":"Feature","geometry":{"type":"Polygon","coordinates":[[[51.346225439136965,35.71671988084482],[51.346176774538804,35.71671904589373],[51.345686777174585,35.716729045825886],[51.345633269955236,35.716732359618085],[51.34558045039286,35.716740080318345],[51.34552886279671,35.7167521283644],[51.337428899053414,35.719012116799135],[51.33738016085125,35.71902795740849],[51.33733358821418,35.719047659944195],[51.33728963991638,35.71907103032277],[51.33724874888153,35.719097838329795],[51.33721131791834,35.719127819887525],[51.33717771575257,35.71916067965625],[51.33714827339484,35.71919609394342],[51.33712328087979,35.71923371389215],[51.3371029844089,35.71927316891772],[51.33708758392503,35.719314070357896],[51.337077231142565,35.7193560153016],[51.337072028052624,35.71939859055778],[51.33677199564957,35.724318589435164],[51.33677195487262,35.7243607334452],[51.336776960823705,35.72440267930866],[51.33678696566688,35.724444026132616],[51.336801873789476,35.72448437874883],[51.336971871679836,35.724874379454725],[51.33699186177923,35.72491390811277],[51.337016555722634,35.72495162753075],[51.33704571058139,35.724987166631095],[51.33707903953997,35.72502017578539],[51.33711621471745,35.72505033025405],[51.337156870393066,35.72507733338115],[51.337200606604085,35.725100919513],[51.337246993080655,35.72512085661173],[51.37799715046665,35.740570930207085],[51.37803840106104,35.740584865031],[51.37808094665642,35.740595912749846],[51.37817094709164,35.74061591284985],[51.37822259682764,35.74062515619902],[51.378275120714434,35.74063014745099],[51.37832799344147,35.74063083668649],[51.378380686209155,35.740627217012275],[51.37843267201785,35.74061932463005],[51.37848343093883,35.74060723847447],[51.37853245531447,35.740591079423545],[51.3785792548358,35.74057100908971],[51.37862336144635,35.74054722820338],[51.378664334023526,35.74051997460528],[51.378701762790456,35.74048952086763],[51.37873527341438,35.740456171568],[51.37876453075032,35.740420260242956],[51.378789242193,35.74038214605223],[51.37880916060302,35.74034221018652],[51.37882408677838,35.740300852055036],[51.3796740692704,35.737420848578026],[51.37968381557754,35.737378705013406],[51.37968837764909,35.73733598045341],[51.38017830657315,35.726565978765564],[51.380178579000805,35.72654201114216],[51.380168576095805,35.7261020112033],[51.38016529416381,35.72606138425647],[51.38015732647239,35.726021190985016],[51.38014474410233,35.72598178992302],[51.38012765929806,35.72594353253732],[51.380106224466175,35.72590676009243],[51.38008063081576,35.72587180060638],[51.380051106652544,35.72583896592484],[51.3800179153423,35.72580854893941],[51.37998135296139,35.725780820975096],[51.37994174565573,35.72575602937009],[51.37989944673146,35.72573439526953],[51.37985483350343,35.72571611165295],[51.37980830392957,35.72570134161297],[51.34783844953958,35.71694138490009],[51.34780377677504,35.71693294419766],[51.34705378042971,35.71677294499987],[51.34700498612655,35.71676451886892],[51.346955435228075,35.716759880654564],[51.346225439136965,35.71671988084482]]]},"properties":{"group":2,"color":"#0d9488","store_count":48,"source":"recorded_gps_operation_envelope","operation_spans":[[0,615,1012]],"label_center":[51.36759752233133,35.731950979609486]}},{"type":"Feature","geometry":{"type":"Polygon","coordinates":[[[51.323227325527014,35.69885489510437],[51.323185613902474,35.698855018339316],[51.322695618761614,35.698865018216026],[51.32260032100981,35.698870784269765],[51.32250617308562,35.69888413294668],[51.32241407952619,35.69890493599801],[51.322324925132904,35.698932993556106],[51.32223956647111,35.69896803605456],[51.322158823641246,35.69900972681785],[51.322083472399875,35.69905766529576],[51.322014236706835,35.6991113909114],[51.28251420614726,35.73290116247755],[51.28251032806697,35.7329044971303],[51.28214032772129,35.73322449497851],[51.282078203536535,35.73328379841955],[51.28202350273818,35.73334777838404],[51.28197675147521,35.73341581949118],[51.28193839943887,35.73348726729718],[51.28190881553671,35.7335614345896],[51.281788811600805,35.73392143368126],[51.28176930657588,35.73399274279547],[51.28175791060407,35.73406521051034],[51.28175471989913,35.73413822513701],[51.281759761415834,35.73421117036866],[51.281772992621676,35.73428343048249],[51.28179430185515,35.7343543955371],[51.28236428503133,35.73593439998774],[51.28240333553032,35.73602292565589],[51.28261333188907,35.73642292721675],[51.282653869746234,35.73649099480755],[51.28270215904605,35.736555612913115],[51.28275776259257,35.736616196477534],[51.282820176962794,35.736672196972606],[51.28288883706451,35.73672310736454],[51.28296312125238,35.73676846670488],[51.29903319395882,35.74563853843798],[51.29911515368638,35.74567912617348],[51.29920160602326,35.745712957175755],[51.299291715436276,35.745739704477636],[51.299384611044694,35.74575910957367],[51.299984616661185,35.745859110508086],[51.3000791989421,35.74587096829514],[51.30017475132438,35.74587521401072],[51.3002703542187,35.74587180679453],[51.300365087549665,35.74586077943747],[51.30045803961119,35.745842238066146],[51.32696826900506,35.739412176426434],[51.3270536196959,35.73938790039447],[51.32713584723123,35.73935728660655],[51.32721424535751,35.739320598006444],[51.33204426906647,35.73681057711272],[51.33212867508841,35.73676137440794],[51.33220619252197,35.73670513951927],[51.33227594409188,35.736642508875725],[51.332685942751205,35.73623250634097],[51.33273831184875,35.736175035960414],[51.33278412888282,35.73611395824216],[51.33282302248285,35.736049768272984],[51.3328546774009,35.73598298636592],[51.33287883706664,35.73591415384246],[51.33414878822948,35.73156414422254],[51.33416583108663,35.73149052103448],[51.33417430052175,35.73141591681715],[51.3341741213781,35.73134099381109],[51.332293742538646,35.70011101086091],[51.33228449898076,35.70003406819981],[51.33226613952627,35.69995822129871],[51.33223883772358,35.6998841870184],[51.33220285163704,35.699812665085915],[51.33215852140699,35.69974433148134],[51.33210626603423,35.69967983204902],[51.33204657941933,35.69961977639378],[51.33170657889096,35.6993097784218],[51.331638181684504,35.69925335388712],[51.331563231400104,35.69920277030025],[51.331482474278715,35.69915853128809],[51.33139671437194,35.69912107730809],[51.33130680553684,35.69909078126329],[51.33121364293508,35.699067944789846],[51.331118154121064,35.69905279525409],[51.33102128980762,35.69904548348901],[51.32784132131476,35.69893548439807],[51.32782844033913,35.69893510822179],[51.32698844867211,35.69891510837356],[51.32698015569932,35.69891493969378],[51.32461017922252,35.69887493996175],[51.32460731182819,35.698874894980165],[51.323227325527014,35.69885489510437]]]},"properties":{"group":3,"color":"#7c3aed","store_count":49,"source":"recorded_gps_operation_envelope","operation_spans":[[0,602,1240]],"label_center":[51.31791289617435,35.715726002336]}},{"type":"Feature","geometry":{"type":"Polygon","coordinates":[[[51.40832000424763,35.65703844591889],[51.40814710326148,35.657046974625906],[51.40612713206142,35.65724697157427],[51.406046087166466,35.65725691846957],[51.40529609756855,35.657366916840736],[51.405192611604996,35.65738533456341],[51.40509107125949,35.657409929572985],[51.4044010796697,35.65759992692302],[51.40426973395788,35.65764206961018],[51.4041440934611,35.6576945346687],[51.40402537257152,35.657756814997],[51.403914718807364,35.65782830862253],[51.40381320172201,35.65790832451954],[51.40372180256635,35.657996089287515],[51.403641404804205,35.65809075462586],[51.40357278557242,35.658191405532605],[51.40351660816841,35.65829706914777],[51.40347341563749,35.65840672415624],[51.40344362552237,35.65851931065892],[51.40342752582526,35.65863374041716],[51.403425272222066,35.658748907371084],[51.40343688655535,35.65886369833055],[51.40349688011946,35.659233699072345],[51.40349841510366,35.659242886107656],[51.4036583989823,35.660172888077035],[51.40365869870814,35.66017462098946],[51.40373869073926,35.660634621973365],[51.4037406694091,35.660645624777885],[51.40610045031112,35.67334565366872],[51.40610130623671,35.673350199179225],[51.406681253873174,35.676390206268074],[51.40668202345698,35.67639419492397],[51.40845186745533,35.68546421652666],[51.41074188240394,35.697125345345256],[51.41076127770079,35.69720590893634],[51.410901269641045,35.697695910595286],[51.41094224913371,35.697811932985005],[51.412612190508625,35.70176195196543],[51.412663367376226,35.70186642727852],[51.41272659448135,35.70196641670072],[51.41280128876334,35.702060998091895],[51.412886761399754,35.702149299183795],[51.41298222415798,35.70223050562493],[51.413086796664004,35.702303868491526],[51.41319951452132,35.70236871119508],[51.4133193382051,35.70242443572276],[51.4955501447994,35.7364648683038],[51.49567311395069,35.73650992707435],[51.49580072152638,35.73654539097265],[51.49593184414117,35.73657094779354],[51.49606532746132,35.73658637254837],[51.49619999636807,35.73659152944589],[51.496710003838544,35.736591529386104],[51.496912851168695,35.736579796363124],[51.49992289380669,35.73622979101149],[51.499981566245886,35.736221954838975],[51.500511573589904,35.736141953642594],[51.500670705628856,35.73611018879176],[51.5008243682178,35.73606386117684],[51.501274373058514,35.73590385901759],[51.50142775858512,35.73584014937316],[51.501570698522045,35.73576194135881],[51.5123407492554,35.729071864023666],[51.51244619644521,35.7289995827189],[51.51254266910375,35.728919399163175],[51.512629280352705,35.72883205051184],[51.51270523398091,35.728738339788926],[51.51276983176356,35.72863912850401],[51.5128224798802,35.7285353287316],[51.51286269437258,35.728427894725776],[51.51289010559233,35.72831781414696],[51.51290446159741,35.72820609898192],[51.512905630466356,35.72809377624023],[51.51289360150909,35.72798187851268],[51.512868485363114,35.72787143447861],[51.51283051297444,35.72776345944939],[51.5127800334726,35.727658946034886],[51.51271751095933,35.727558855018714],[51.51264352024063,35.72746410652635],[51.5125587415413,35.72737557156696],[51.44639853418147,35.66465616368202],[51.446306217677154,35.664576429755755],[51.44620516759891,35.66450409137278],[51.44609626984646,35.66443978270376],[51.44598047911078,35.6643840675238],[51.44585881050493,35.6643374342704],[51.44573233066538,35.664300291762],[51.420822647293136,35.65804037578537],[51.42069325962776,35.65801315456969],[51.42056133126988,35.65799586947516],[51.41991134060074,35.65793587027099],[51.41990074999747,35.65793492511635],[51.409810895172924,35.65706493661089],[51.40970565733824,35.6570590387852],[51.408935668573214,35.6570390389988],[51.408889995922486,35.65703844597402],[51.40832000424763,35.65703844591889]]]},"properties":{"group":4,"color":"#d97706","store_count":48,"source":"recorded_gps_operation_envelope","operation_spans":[[0,236,1505]],"label_center":[51.4420477131632,35.69129478093596]}},{"type":"Feature","geometry":{"type":"Polygon","coordinates":[[[50.97459214831729,35.653526498174315],[50.974177926499046,35.653531105958855],[50.97376646238277,35.65357032437425],[50.97336208566057,35.65364374073872],[50.81067804894931,35.690292318099125],[50.81031157585784,35.69039015886629],[50.80957160025762,35.69062015021668],[50.80921061618983,35.690749124779444],[50.808520635411696,35.69102911466227],[50.80823658930693,35.69115621211473],[50.798316813986595,35.696026043431374],[50.797974295115274,35.69621426253115],[50.79765711824868,35.69643001995089],[50.79736859724888,35.69667106160164],[50.79711174668066,35.69693486922096],[50.796889250314024,35.69721868667554],[50.79670343307842,35.697519548749554],[50.79655623676203,35.69783431211793],[50.79644919971027,35.69815968818158],[50.79638344073632,35.69849227742175],[50.79635964741232,35.698828604914624],[50.796158375501754,35.72402859412428],[50.79617432761193,35.724343382522925],[50.79622706739338,35.72465549053007],[50.79631611331979,35.72496206600393],[50.79644065206347,35.72526030732873],[50.79659954591353,35.72554748901913],[50.79679134315986,35.725820986630026],[50.79701429134859,35.726078300743985],[50.797266353288165,35.726317079816674],[50.79754522566022,35.72653514167185],[50.7978483600653,35.72673049344856],[50.79940838528515,35.7276405236114],[50.79958369926394,35.72773723285059],[50.80315377197478,35.72959729679006],[50.80353829890692,35.729774291719465],[50.8041583161153,35.730024300882754],[50.80443944786191,35.73012698224313],[50.9225032230593,35.768838451357276],[50.92254640868645,35.76885234916331],[51.00172899571029,35.79387330069695],[51.00211136883048,35.79397644232899],[51.00250443689864,35.79404809114504],[51.00290430254648,35.79408753672601],[51.00330700098098,35.794094387956584],[51.003708539310765,35.79406857690461],[51.004104936151506,35.79401035949494],[51.00449226111716,35.793920312970954],[51.00486667380444,35.79379933016888],[51.005224461883685,35.79364861066211],[51.13102741567053,35.73389650648912],[51.131338138500155,35.73373265975036],[51.131629181039756,35.7335463307224],[51.13189810415003,35.73333908106439],[51.15258805726898,35.715858587832926],[51.15284870455829,35.71561552109913],[51.15307893360077,35.71535281960869],[51.153276534614754,35.71507300517171],[51.153439611093305,35.71477876384746],[51.15356659799943,35.7144729201551],[51.15365627677681,35.71415840995611],[51.153707787032246,35.713838252269056],[51.153720634778374,35.71351552028741],[51.153694697158066,35.71319331187852],[51.153630223605816,35.71287471984728],[51.15352783343579,35.712562802249735],[51.15338850988009,35.71226055304162],[51.15321359063546,35.711970873343375],[51.15300475500947,35.71169654359767],[51.15276400779025,35.71144019688592],[51.152493659994924,35.711204293660295],[51.152196306681894,35.710991098133164],[51.151874802040126,35.71080265655036],[51.15153223199455,35.710640777556826],[51.151171884590504,35.71050701484244],[50.97658750379469,35.653779147700334],[50.97615088071898,35.653659922856136],[50.97570046855076,35.65358203528533],[50.97524212167133,35.653546497353304],[50.97459214831729,35.653526498174315]]]},"properties":{"group":5,"color":"#0891b2","store_count":59,"source":"recorded_gps_operation_envelope","operation_spans":[[0,941,1694],[1,0,571]],"hull_override":{"hull_start":942,"hull_end":2267,"record_index_base":1,"start_time":27849,"end_time":55353,"reason":"reviewed first/last western distribution stop clusters; hull only"},"label_center":[50.971972020121925,35.7199435909786]}},{"type":"Feature","geometry":{"type":"Polygon","coordinates":[[[51.45088749277968,35.757615190700484],[51.45082643676248,35.75759531133917],[51.45076341157135,35.75758005179133],[51.450698942115,35.75756953914681],[51.45063356532998,35.75756386096064],[51.450567825709136,35.7575630645239],[51.45050227076699,35.75756715646981],[51.45000227435075,35.757617156083946],[51.44997546371827,35.75762025500977],[51.44837547499131,35.757830253424764],[51.44830659783319,35.757842133070014],[51.44823947210592,35.75785943573955],[51.448174738840116,35.757881996198456],[51.448113016220596,35.75790959900143],[51.44805489368313,35.75794198055007],[51.44800092628572,35.75797883161006],[51.44795162940808,35.758019800264066],[51.44790747382988,35.7580644952723],[51.447868881234854,35.75811248980856],[51.43819881191616,35.77152244101849],[51.43819549212803,35.77152709247995],[51.43694548273502,35.7732970861403],[51.43670540303938,35.77363719523904],[51.43669014966847,35.77365995200347],[51.43601014331894,35.77472994847763],[51.435985322569145,35.77477322930733],[51.43596490128837,35.774818011142195],[51.435824898588166,35.77516801037407],[51.43580745072495,35.775219455519014],[51.43579580704459,35.77527197919062],[51.43579006375419,35.775325147458716],[51.43579026831449,35.77537852106686],[51.43628019454845,35.783588524478596],[51.43628745137716,35.78364783617305],[51.43630204999766,35.78370624286468],[51.43632384000778,35.78376314275558],[51.436352596907,35.78381794957209],[51.436388024409055,35.783870098605554],[51.43642975749423,35.7839190525311],[51.43647736617004,35.783964306944135],[51.43653035990137,35.78400539555781],[51.44453037225955,35.78960542630533],[51.444587719106714,35.78964164157046],[51.44464924448404,35.78967297538933],[51.4447143248264,35.78969911018874],[51.44478230053644,35.7897197810882],[51.44485248266997,35.78973477858457],[51.46276260649277,35.79278479935762],[51.46283591073782,35.79279409884009],[51.46290999998733,35.792797209653685],[51.4629200000609,35.792797209653145],[51.46299259197915,35.79279422361719],[51.463064445608694,35.79278529589247],[51.46312444602147,35.79277529581827],[51.4631969701933,35.79275996983654],[51.463267149610914,35.79273859245979],[51.46860717855692,35.79084857965665],[51.468669268317655,35.79082364929504],[51.46872813627843,35.79079398087975],[51.46878323942045,35.79075984808467],[51.468834069455035,35.79072156576464],[51.468880157512366,35.790679487050916],[51.4689210784665,35.79063400009357],[51.46895645485675,35.79058552448091],[51.46898596036934,35.79053450736893],[51.46900932284713,35.79048141935642],[51.46902632679976,35.79042675014384],[51.469036815390936,35.79037100401617],[51.46908681192006,35.78998100374817],[51.469089836300704,35.789948930173885],[51.46937979317454,35.78515892878573],[51.46938010168307,35.78510672506079],[51.46937471878585,35.78505470530859],[51.469363687038204,35.78500328067276],[51.469347093641346,35.78495285759255],[51.4693250697528,35.784903834590615],[51.469115066958594,35.78449383575796],[51.46910536326535,35.784475751838215],[51.46163527780314,35.77116579265082],[51.46161518296429,35.771132764179974],[51.4554451304437,35.76174279672372],[51.4554006044162,35.761683699914954],[51.45510060312433,35.76133370137819],[51.4550611479548,35.76129181632593],[51.45160114157235,35.75794183201857],[51.45155768161281,35.75790336690691],[51.451510195798214,35.757868205688574],[51.451459060690134,35.75783662718775],[51.451404681787146,35.757808881817816],[51.45134749030925,35.75778518959568],[51.45088749277968,35.757615190700484]]]},"properties":{"group":6,"color":"#e11d48","store_count":46,"source":"recorded_gps_operation_envelope","operation_spans":[[0,325,1125]],"label_center":[51.44985604743603,35.77519373294654]}},{"type":"Feature","geometry":{"type":"Polygon","coordinates":[[[51.37457672004481,35.667234666325044],[51.37445393000452,35.66722346619854],[51.37433039300572,35.66722175821824],[51.374207208497886,35.66722955758504],[51.3740854727938,35.66724679488666],[51.37396626931389,35.66727331671534],[51.373850658944995,35.66730888703303],[51.37373967059979,35.667353189271694],[51.369699703191415,35.669163168206836],[51.36961237515723,35.66920597874861],[51.36903237878778,35.66951597531586],[51.36893527398288,35.66957321953041],[51.368844985013425,35.66963746425371],[51.368762267237415,35.66970817202636],[51.36868781267906,35.66978475131874],[51.36685779923703,35.67185473546862],[51.36680409988862,35.67192046449714],[51.36619409277055,35.67273045896074],[51.36616699148109,35.6727681513088],[51.36592698801253,35.67311814908116],[51.36588104319803,35.67319167660855],[51.3584208882468,35.68636160481564],[51.35837057626306,35.6864639711797],[51.358333463362094,35.68657002263104],[51.358309944826864,35.686678629785916],[51.35830027117218,35.686788636039296],[51.35830454547449,35.686898869881766],[51.358322722271765,35.68700815737551],[51.358354608045225,35.6871153346561],[51.361954468061526,35.696965372521085],[51.36196322516568,35.69698838048668],[51.36215321850763,35.69746838246763],[51.36219757257854,35.69756440571411],[51.36225301176088,35.697656516482425],[51.36231902500009,35.69774386560721],[51.362395003753974,35.69782564781782],[51.36248024760197,35.697901109162686],[51.362573970701796,35.69796955396042],[51.36267530903376,35.698030351213795],[51.36278332836625,35.698082940427625],[51.36289703286868,35.69812683677637],[51.363015374292765,35.69816163557426],[51.36313726163709,35.69818701600658],[51.389927598297476,35.702657071626064],[51.52411020036253,35.72486749777356],[51.52412335613976,35.72486961034933],[51.52476336426046,35.724969611575276],[51.52480644215379,35.72497573669034],[51.525586452224864,35.72507573790722],[51.52562819173563,35.725080529460776],[51.526318200763434,35.725150530299864],[51.5263742458075,35.72515522078392],[51.53228432410772,35.72554522523959],[51.53229164379439,35.72554569125735],[51.54746184503609,35.72647570173005],[51.54759076756607,35.72647840853832],[51.54771939217024,35.72647077019766],[51.547846473374,35.72645286067067],[51.54797078064944,35.72642485337596],[51.54809111033183,35.72638701950868],[51.54820629727598,35.72633972541419],[51.54831522613926,35.72628342904046],[51.54841684218225,35.726218675503084],[51.548510161482156,35.7261460918067],[51.54859428046025,35.72606638077289],[51.54866838463096,35.725980314234455],[51.54873175648792,35.72588872556113],[51.54878378245065,35.72579250158974],[51.548823958804654,35.725692574036586],[51.548851896577325,35.7255899104754],[51.54886732530272,35.725485504968276],[51.54887009563862,35.725380368440184],[51.54886018081065,35.72527551889043],[51.54883767686964,35.72517197153558],[51.54880280175966,35.72507072897985],[51.54875589320603,35.72497277150733],[51.548697405443484,35.72487904759078],[51.548627904816705,35.72479046470842],[51.548548064295424,35.724707880557766],[51.548458656957536,35.72463209475162],[51.54836054850324,35.72456384107635],[51.49542078350427,35.69123418668611],[51.49530834386998,35.69117069893059],[51.49518840456946,35.69111711846308],[51.49462840980285,35.69089712103082],[51.494500170429625,35.690853415958486],[51.49436697722948,35.69082103961004],[51.37574843130844,35.667431328555075],[51.375746931607274,35.66743103277332],[51.37513693908033,35.66731103426227],[51.37503671413082,35.66729466558164],[51.37457672004481,35.667234666325044]]]},"properties":{"group":7,"color":"#4f46e5","store_count":46,"source":"recorded_gps_operation_envelope","operation_spans":[[0,21,729],[1,0,279]],"label_center":[51.43043979491981,35.6940997796036]}},{"type":"Feature","geometry":{"type":"Polygon","coordinates":[[[51.553299814652306,35.75768137247414],[51.55322742811069,35.75757628727272],[51.5531427668607,35.75747748371061],[51.55304664444759,35.7573859111821],[51.55293998453633,35.757302449596175],[51.55282381203562,35.75722790092231],[51.55269924324951,35.75716298148521],[51.55256747515127,35.75710831508249],[51.55242977388256,35.75706442699146],[51.552287462588346,35.757031738922386],[51.55214190870448,35.75701056496691],[51.551994510819924,35.75700110858043],[51.55184668523985,35.75700346062733],[51.55169985237861,35.75701759850801],[51.55155542311323,35.75704338637599],[51.39062762815552,35.79247285001969],[51.39049293685774,35.79250799225689],[51.3903628751595,35.79255325376814],[51.39023858550293,35.79260823698642],[51.39012115963613,35.792672458950406],[51.39001162902416,35.79274535554624],[51.38991095578928,35.79282628646192],[51.38982002425984,35.79291454081122],[51.38973963320232,35.793009343377335],[51.38630958860463,35.79748930760972],[51.386215802055666,35.797631903649474],[51.38343573322434,35.80262187271731],[51.383368981029435,35.80276464580737],[51.382218931671154,35.80577463250793],[51.38218239467484,35.805889535046404],[51.382159629923294,35.8060067721786],[51.38215084966039,35.806125251175295],[51.3821561357868,35.806243867727495],[51.38217543909425,35.80636151623919],[51.38220857972186,35.80647710013248],[51.38225524883041,35.80658954206873],[51.38231501147875,35.80669779399059],[51.38236501048992,35.806777794548694],[51.382436931100145,35.80688036318496],[51.382520603556735,35.80697683609218],[51.38261525550888,35.80706632271642],[51.38272001324385,35.80714799699228],[51.3828339097517,35.807221104969074],[51.38295589365186,35.80728497177136],[51.38308483889878,35.80733900782958],[51.389154907008376,35.80958903855584],[51.38920402839915,35.80960639497588],[51.43202453884858,35.82399659400223],[51.4321847972152,35.82404201057329],[51.432350301740286,35.824072492678155],[51.43251896124772,35.82408765517062],[51.43548900689339,35.82421765682856],[51.43562344862864,35.82421865676764],[51.43575746638647,35.82420991083014],[51.43588999708712,35.82419148839247],[51.436019989448425,35.82416353558863],[51.436146412326046,35.824126274150814],[51.47119682273203,35.812326105230404],[51.47120388777254,35.8123237082106],[51.514544390080864,35.79750349640271],[51.514684839049906,35.79744831755087],[51.51533484510145,35.797158313633226],[51.51547549382195,35.79708712357895],[51.559785770187624,35.7717968063687],[51.55989173270938,35.77173039537639],[51.55999006533856,35.771656600754035],[51.56007999600661,35.77157600192437],[51.56016081862208,35.771489231733696],[51.560440815868475,35.7711592289072],[51.56051626834798,35.77106064738624],[51.56057996464212,35.77095670135756],[51.56063133589903,35.770848319207744],[51.56066992335288,35.77073646894037],[51.56069538241979,35.770622149530055],[51.56070748577346,35.77050638199989],[51.56070612537366,35.77039020030223],[51.560676117302265,35.76996020074579],[51.560659696044105,35.76983623776748],[51.56062795304646,35.76971426776281],[51.56058121485888,35.76959554520797],[51.56051996225233,35.76948129117333],[51.553299814652306,35.75768137247414]]]},"properties":{"group":8,"color":"#65a30d","store_count":48,"source":"recorded_gps_operation_envelope","operation_spans":[[0,45,1223]],"label_center":[51.489628950530005,35.782134828194195]}},{"type":"Feature","geometry":{"type":"Polygon","coordinates":[[[51.11063518937399,35.681901571817406],[51.11056903669931,35.68173534225041],[51.11048331082234,35.68157517544003],[51.11037883074218,35.68142260135839],[51.11025659458846,35.68127907744067],[51.110117770083875,35.68114597466466],[51.109963683387555,35.681024564456266],[51.10979580642594,35.680916006546106],[51.109615742832275,35.68082133789315],[51.10942521262884,35.680741462781114],[51.10922603579846,35.680677144182006],[51.10902011490187,35.68062899646954],[51.108809416907135,35.68059747955158],[51.108595954404336,35.680582894478015],[51.10838176638492,35.68058538056559],[51.046593136678936,35.68375530919486],[51.04645240272577,35.68376621959381],[51.04597241317469,35.683816218494],[51.045767571562145,35.683845673050094],[51.04556707439314,35.683890836599204],[51.04537272722826,35.68395130242651],[51.04518628025548,35.68402652601321],[51.045009412531414,35.6841158299394],[51.04484371686253,35.68421840998328],[51.044690685462406,35.68433334236244],[51.04455169651416,35.68445959205156],[51.044201694022995,35.68480958718196],[51.04413533457819,35.68487939676153],[50.993984775116665,35.74036867130543],[50.99387489019237,35.74050234481441],[50.99378018981129,35.74064353071658],[50.993701440936505,35.74079108569226],[50.986741116581605,35.755620968696626],[50.9866629058818,35.75582254449862],[50.98653289541685,35.75624254222832],[50.986487514704116,35.75643152617169],[50.98646732918507,35.75662339200492],[50.98434583239427,35.81116335351289],[50.98434479260455,35.81120649422856],[50.984334762881765,35.812286494041174],[50.98433501524957,35.81233031916251],[50.98434500204329,35.81281031933946],[50.98435673644893,35.81296711311338],[50.98438531982581,35.813122463028286],[50.98484526992261,35.81504247115183],[50.98492727238912,35.81528930265928],[50.98498726919313,35.815429303679316],[50.98501003935347,35.815479967386075],[50.985170031895834,35.81581997007654],[50.98517176029913,35.81582363109641],[50.98535175198993,35.81620363412071],[50.98537081255824,35.81624251350567],[50.98717073760792,35.8197925434715],[50.9872997368637,35.820005613809805],[50.987569730837826,35.820385618020175],[50.98768926557989,35.820535948271825],[50.98782666555513,35.82067578544199],[50.98798055238361,35.82080372661019],[50.98814938225804,35.82091848819654],[50.988331461431315,35.8210189188412],[50.98852496320943,35.82110401095724],[50.98872794627927,35.82117291084112],[50.98893837418732,35.82122492723908],[50.989154135773816,35.821259538283634],[50.98937306635699,35.82127639673026],[50.989592969454925,35.82127533344192],[50.98981163882669,35.821256359086334],[50.990026880611566,35.82121966402888],[50.99023653534385,35.82116561642243],[50.990438499622286,35.821094758512885],[51.00856877626859,35.81383461436837],[51.008766991121725,35.81374456943592],[51.01099701677818,35.81260454807183],[51.01104454773922,35.81257954757951],[51.01165455410285,35.81224954149748],[51.01181898319183,35.812151327027976],[51.01197151530868,35.81204110957681],[51.01211083455994,35.81191984002601],[51.07148050654854,35.75511902641379],[51.07164059415819,35.754945358944276],[51.07177366515657,35.754757149726366],[51.112242438853585,35.68845650017158],[51.11233304777786,35.68828629978255],[51.112401548453384,35.68810935537153],[51.11244720338147,35.6879275723578],[51.11246952108858,35.68774290825204],[51.11246826141215,35.68755735157617],[51.112443438079836,35.687372900450036],[51.11239531855472,35.687191541075066],[51.11063518937399,35.681901571817406]]]},"properties":{"group":9,"color":"#ea580c","store_count":57,"source":"recorded_gps_operation_envelope","operation_spans":[[0,1174,2283]],"hull_override":{"hull_start":1175,"hull_end":2284,"record_index_base":1,"start_time":26095,"end_time":42367,"reason":"reviewed first/last western distribution stop clusters; hull only"},"label_center":[51.03322999032339,35.74777411770931]}},{"type":"Feature","geometry":{"type":"Polygon","coordinates":[[[51.09143349198705,35.597014729341275],[51.09111783770272,35.59684627457369],[51.090782783328756,35.59670501057499],[51.09043182768437,35.59659241246384],[51.09006863558306,35.596509656016366],[51.08969699957336,35.596457605392],[51.089320800347785,35.596436804112784],[51.08894396623293,35.59644746938954],[51.02618629277146,35.600837305422914],[51.02616044352452,35.60083918152153],[51.025630463139855,35.60087918003988],[51.025276498560366,35.600920096807585],[51.02492904277926,35.60098879556124],[51.02459135683856,35.60108463153288],[51.02426661011555,35.60120670525696],[51.02386661980946,35.6013766996747],[51.02356577057716,35.60151967286574],[51.02328275392878,35.60168516114494],[51.02302008812383,35.60187169207796],[51.022780110397136,35.6020776059923],[51.022564956163244,35.60230107074086],[51.02237654001413,35.602540097999814],[51.02221653867967,35.602792560956686],[51.02208637610251,35.603056213230765],[51.021987210760194,35.603328708858065],[50.99316320858638,35.69869786305771],[50.993142214739756,35.69877116191048],[50.993042198883884,35.69914115895172],[50.99297729431323,35.699463471301975],[50.9929555355308,35.69978962027648],[50.99297717868005,35.700115774356334],[50.992997171882394,35.70026577495778],[50.993036538888404,35.70048546013414],[50.99309562800934,35.70070218492906],[50.993345595574375,35.70148219225069],[50.993459568809364,35.70177566164832],[50.9936096535228,35.70205811543631],[50.99379428386351,35.702326606042234],[50.99401153342029,35.70257833157932],[50.99425913531471,35.70281066509075],[50.99453450585,35.70302118196941],[51.00252457132379,35.708531338209205],[51.002751605982674,35.708675898276354],[51.00299175779293,35.70880559497315],[51.026272230896694,35.72033596091409],[51.02661608971619,35.720486544933266],[51.026977507648645,35.72060671280972],[51.02735245264508,35.720695123906076],[51.0277367416951,35.720750791871616],[51.030316836652254,35.721010801413605],[51.030347808744246,35.72101381412173],[51.124051269913885,35.72976413283095],[51.124398322470476,35.72978297060006],[51.124746009937745,35.729775121668446],[51.12509125252194,35.729740655562054],[51.125430992093385,35.729679877579485],[51.125762219284,35.72959332608684],[51.12608200015227,35.72948176774727],[51.12638750217893,35.729346190727824],[51.12667601936285,35.7291877959438],[51.12694499619455,35.72900798641803],[51.12728499792865,35.72875797951445],[51.12755179925615,35.728540671543115],[51.12847179391898,35.727710650870875],[51.128515354430405,35.72767064161095],[51.190994854283915,35.66918921653991],[51.19122811782437,35.6689466393707],[51.19142978248104,35.668685881228456],[51.19159773720816,35.66840967216517],[51.19173022394837,35.6681209039701],[51.1918258560266,35.66782259988962],[51.19188363265324,35.66751788297176],[51.19190294938527,35.66720994336732],[51.19190294616146,35.667139943377286],[51.19188747312813,35.666864480392825],[51.19184120916451,35.66659132476371],[51.19176454194138,35.666322763569354],[51.19165811367316,35.66606104539851],[51.191522815731076,35.665808361523794],[51.19135978117133,35.66556682755705],[51.191299779220614,35.66548682911161],[51.19113740496354,35.66528843069982],[51.190956308067896,35.665101135765326],[51.1666060945322,35.64186169619435],[51.16638095769303,35.64166522199155],[51.166135253511115,35.64148592008803],[51.16559525882449,35.641125930403504],[51.165432430166184,35.641023414741575],[51.09143349198705,35.597014729341275]]]},"properties":{"group":10,"color":"#0284c7","store_count":57,"source":"recorded_gps_operation_envelope","operation_spans":[[0,1021,2726]],"label_center":[51.09280522647833,35.65348141597984]}},{"type":"Feature","geometry":{"type":"Polygon","coordinates":[[[51.13733347677574,35.64545136493358],[51.13725775768227,35.645382875715164],[51.13717410529171,35.64532084049662],[51.13708334120252,35.64526586854908],[51.136986356854095,35.64521849977149],[51.13688410477188,35.64517919938848],[51.13677758921267,35.64514835338175],[51.1366678563022,35.64512626469943],[51.136555983761646,35.64511315028111],[51.136443070323985,35.64510913892738],[51.136330224944096,35.64511427003498],[51.091920731344096,35.64893422561595],[51.091340214163175,35.648984270093194],[51.091314122248065,35.64898676766681],[51.0907441286943,35.64904676697615],[51.09074202249202,35.64904699030401],[51.057272400812074,35.65261694932795],[51.05714854605378,35.6526358714162],[51.056698550817664,35.652725870411096],[51.0566944233046,35.65272670256354],[51.05295446278078,35.65348669408559],[51.05282338558729,35.65352028745853],[51.049933412331704,35.65442027780956],[51.04985013425634,35.65444935262922],[51.02039037304976,35.66587923428537],[51.02028381265566,35.665926377463684],[51.02018398373121,35.66598248151878],[51.02009201344754,35.66604691298657],[51.02000894025211,35.666118944377516],[51.019935702143634,35.66619776239003],[51.01987312608082,35.66628247709279],[51.00088286417978,35.69537232042528],[51.000835450143946,35.695454308305],[51.00079803715335,35.695539669534064],[51.00077098005496,35.6956275945699],[51.0007545354861,35.695717249552814],[51.00074885943936,35.695807784213976],[51.00075400578183,35.695898339938964],[51.00076992574286,35.69598805791078],[51.00319978890485,35.70615808022737],[51.00322727012468,35.706248645403726],[51.00339726441768,35.706708646926856],[51.00343531496284,35.706795709749215],[51.00348376388377,35.706879265624835],[51.003542133542645,35.70695849075653],[51.0036098484858,35.70703260404259],[51.00368624111642,35.70710087477829],[51.003770558275995,35.70716262986057],[51.003861968669675,35.70721726042482],[51.003959571062225,35.70726422784838],[51.00406240316384,35.70730306906137],[51.00416945111819,35.70733340111278],[51.004279659499126,35.70735492494644],[51.00439194171742,35.7073674283498],[51.004505190734875,35.70737078804646],[51.00461828998024,35.707364970911726],[51.00473012435909,35.70735003429923],[51.00483959124914,35.707326125475426],[51.03126985332502,35.70038604963159],[51.03135906170725,35.70035921918452],[51.031859066136576,35.700189217382814],[51.03192599947363,35.700164365779266],[51.03249600395492,35.69993436341281],[51.03250013359397,35.69993268856774],[51.0356401580641,35.69865267542431],[51.0357322069761,35.698610707397286],[51.13697281690838,35.6472302067133],[51.13706896797995,35.647175549642334],[51.137157740781284,35.64711312831056],[51.13723819825072,35.647043601633364],[51.13730949110918,35.64696770352788],[51.137370866824746,35.64688623516529],[51.13742167755572,35.64680005651323],[51.13746138698814,35.646710077257616],[51.13759138265776,35.646360076105],[51.13761849574451,35.64627171443063],[51.13763489851523,35.64618161277986],[51.13764043393936,35.6460906339324],[51.13763504904885,35.645999649064734],[51.137618795444,35.64590952940813],[51.1375918287979,35.64582113790603],[51.13755440736443,35.64573532095119],[51.13750688950413,35.64565290028111],[51.137449730251504,35.645574665109855],[51.137383476956984,35.64550136457132],[51.13733347677574,35.64545136493358]]]},"properties":{"group":11,"color":"#9333ea","store_count":55,"source":"recorded_gps_operation_envelope","operation_spans":[[0,1314,2015]],"label_center":[51.040575298299075,35.680827398759035]}},{"type":"Feature","geometry":{"type":"Polygon","coordinates":[[[51.48487223707064,35.656193856793415],[51.484740911877985,35.65617200421931],[51.48460756487879,35.656160999958246],[51.48447353796256,35.656160954748124],[51.484340179860105,35.65617186904429],[51.484208832572826,35.65619363301509],[51.45094923993802,35.66313353971853],[51.4509263041357,35.66313849934554],[51.44525637251826,35.664408482415425],[51.44512826126371,35.664442935607596],[51.445005059307945,35.66448775376788],[51.44488802218748,35.66454248016328],[51.44477834262101,35.66460655708675],[51.44467713835536,35.66467933154018],[51.444585440775,35.66476006188825],[51.444504184391306,35.664847925415735],[51.444434197318586,35.66494202671102],[51.44437619283399,35.66504140679048],[51.44433076210727,35.66514505287091],[51.44429836817467,35.66525190869028],[51.44427934121824,35.66536088527168],[51.44427387519885,35.665470872020926],[51.444403698081814,35.67610087471968],[51.444412700550785,35.67621682326886],[51.44443677161652,35.67633133210049],[51.44522672800311,35.67917134085363],[51.44526406041107,35.679279425362125],[51.44531481947871,35.679383803936354],[51.45041471163448,35.68847385552207],[51.450481068886326,35.68857713547551],[51.45056056600971,35.68867404383835],[51.45090056391273,35.68904404683442],[51.450978124064015,35.68912087776136],[51.451063948922,35.68919161886536],[51.451157323379256,35.68925568070268],[51.45125746941628,35.68931252948277],[51.5135079109926,35.721282889621726],[51.51352108051263,35.721289560428545],[51.51400108406179,35.721529563150554],[51.514065067578265,35.72155960498066],[51.51456507189444,35.721779607548534],[51.51462960833907,35.721806192071654],[51.51514961338362,35.72200619446234],[51.515218683319226,35.72203084319155],[51.52358877264676,35.72479087685429],[51.5237372954152,35.72483176328924],[51.55429766952675,35.73164184839982],[51.55442701502822,35.731665108403526],[51.5545585481752,35.731677821079465],[51.55469097853006,35.73167986170735],[51.55482300685194,35.73167121026757],[51.555293013078305,35.73162120954481],[51.55543005904707,35.73160066024333],[51.55556373839685,35.731568594620754],[51.555692599645575,35.73152536084519],[51.55581524363212,35.73147142834746],[51.55593033870959,35.73140738272355],[51.55603663520523,35.731333919375494],[51.55613297898976,35.731251835960045],[51.55621832400876,35.73116202372698],[51.556448322033454,35.73089202167253],[51.5565158478702,35.73080409981458],[51.55657282056238,35.730711343450984],[51.55661872443731,35.73061459220179],[51.556653144020736,35.73051472184517],[51.55667576779633,35.73041263638965],[51.55668639102398,35.73030925989101],[51.55668491759149,35.73020552808765],[51.55667136088282,35.73010237993063],[51.5566458436553,35.73000074908431],[51.55660859692683,35.72990155547548],[51.554728538940545,35.725631575403234],[51.55467198136095,35.72552222768494],[51.55460118542313,35.725418539668006],[51.55451698980871,35.72532173961148],[51.48849667658263,35.65748230887965],[51.48844419683876,35.657431574710486],[51.4883341966198,35.65733157560845],[51.488251741878145,35.65726295765222],[51.488162204116456,35.65720053180077],[51.48806627893839,35.65714478301948],[51.48736628367525,35.65677478714837],[51.48724139922579,35.656716319232586],[51.48710953127943,35.656669158063494],[51.486972211106234,35.65663385128045],[51.48487223707064,35.656193856793415]]]},"properties":{"group":12,"color":"#059669","store_count":45,"source":"recorded_gps_operation_envelope","operation_spans":[[0,259,576],[1,0,693],[2,0,52]],"label_center":[51.50870629762792,35.70529770955225]}},{"type":"Feature","geometry":{"type":"Polygon","coordinates":[[[51.38939733825055,35.610782837418725],[51.38922161311422,35.61078830931762],[51.38876162289574,35.61081830862146],[51.38853391956639,35.61084338191051],[51.388310890139806,35.61088847682974],[51.38809516646586,35.61095306124102],[51.38788929419953,35.61103637302031],[51.387499299102736,35.611216369665435],[51.38732765774103,35.611304715786225],[51.387167171823634,35.61140608525333],[51.38701931812068,35.611519545306805],[51.38688545718275,35.6116440519299],[51.386766820821286,35.61177845945423],[51.386664500772746,35.61192153110069],[51.386579438651005,35.61207195035859],[51.38651241728038,35.612228333098706],[51.38627240201729,35.61288832920935],[51.38622917595111,35.61302841387129],[51.38620043697955,35.61317095830641],[51.386186386233184,35.61331496529768],[51.384145223176446,35.65751493724437],[51.38414785248636,35.65768789899903],[51.384171666759094,35.657859778702985],[51.38421642727014,35.65802885238701],[51.38428168519494,35.65819342421593],[51.38436678610566,35.65835184349879],[51.384470876530685,35.65850252124667],[51.38459291251132,35.65864394611187],[51.38473167006984,35.6587746995487],[51.38488575748427,35.65889347004354],[51.385053629246606,35.65899906627159],[51.38523360156462,35.65909042904801],[51.38542386925182,35.65916664195373],[51.38562252383587,35.65922694052914],[51.385827572704045,35.659270719943216],[51.509450076580556,35.680261138641654],[51.50961135217138,35.68028316941293],[51.509774230903055,35.680294977354926],[51.51026424143362,35.68031497769284],[51.510500772582645,35.6803138356323],[51.51149079376803,35.680263834395774],[51.5117106008502,35.68024328048996],[51.51192657783107,35.68020412011183],[51.51213636530741,35.68014678106445],[51.51233767150521,35.680071889739835],[51.51252829731957,35.67998026427482],[51.51302830224808,35.67971025944545],[51.51319306994423,35.67961163225638],[51.51334541349793,35.679500501616225],[51.51348391313401,35.67937790325399],[51.51360727811905,35.679244979771795],[51.51371435878994,35.67910296999464],[51.513804157266854,35.67895319742345],[51.51387583675091,35.67879705789909],[51.5139287293198,35.678636006592434],[51.513962342149064,35.67847154444177],[51.513976362100976,35.678305204163905],[51.513986351539074,35.677905204078186],[51.513970938856026,35.677659044049825],[51.504459316273184,35.61454922108705],[51.504423888457815,35.61438215208518],[51.50436857040505,35.61421872470139],[51.5042938953468,35.61406051392357],[51.50420058305101,35.61390904445714],[51.50408953288135,35.61376577603204],[51.50396181512681,35.6136320893365],[51.50381866068473,35.61350927271248],[51.50366144919711,35.61339850974145],[51.503491695754185,35.613300867839655],[51.50331103629366,35.61321728797298],[51.50312121183627,35.61314857559039],[51.50292405170942,35.61309539286304],[51.494074222027336,35.61109543237702],[51.49389037759368,35.611061003855035],[51.49370350823995,35.61104008700617],[51.49351510002711,35.611032848170396],[51.38939733825055,35.610782837418725]]]},"properties":{"group":13,"color":"#db2777","store_count":48,"source":"recorded_gps_operation_envelope","operation_spans":[[0,495,1587]],"label_center":[51.446417209785,35.636032079165716]}},{"type":"Feature","geometry":{"type":"Polygon","coordinates":[[[51.59591399767657,35.810287121529754],[51.59580389970458,35.81027317753321],[51.595692704920666,35.81026739899125],[51.59558132415224,35.81026983323789],[51.59507133050349,35.810299832805875],[51.59504848178472,35.810301351111704],[51.59099853196812,35.81060134692637],[51.59096475549551,35.81060423144917],[51.59034476310558,35.81066423063761],[51.59032944617293,35.81066579226341],[51.58976945301149,35.81072579146038],[51.58967904291315,35.810738283949654],[51.58959002522449,35.81075622353137],[51.589120030397176,35.81086622217043],[51.58901977139806,35.81089353367512],[51.58892275864148,35.810927750848],[51.58811276554613,35.811247747209606],[51.58800595741111,35.811295394900625],[51.5875259605433,35.81153539233269],[51.587521199939296,35.81153778475401],[51.58457121888985,35.81302776886004],[51.58456281579608,35.8130320511782],[51.58209283121257,35.814302037705076],[51.58207683135936,35.814310405447024],[51.58160683412324,35.81456040282322],[51.581574570804385,35.81457816305392],[51.58085457447888,35.81498815884901],[51.58075409772351,35.81505192208894],[51.58066224701321,35.81512379966649],[51.58058000550653,35.81520302223244],[51.569579941958786,35.826982934291834],[51.569559424295136,35.827005553731695],[51.551419294698015,35.84759540581074],[51.55136810086901,35.84765837094739],[51.55132287160461,35.84772429393267],[51.535532611032174,35.87291415386231],[51.53551769357947,35.872938769167625],[51.5280075531123,35.885768701716884],[51.52798020144687,35.88581891703883],[51.5259201523472,35.889898898156524],[51.52588742068718,35.88997158222357],[51.52586167677336,35.89004610429093],[51.52308154212155,35.899476078038994],[51.52305876850487,35.89957493827721],[51.52304828159764,35.8996751574257],[51.52305018695454,35.899775727185705],[51.523064465452656,35.89987563572725],[51.52309097348198,35.89997387786911],[51.52312944438844,35.900069465192125],[51.52317949115501,35.900161435983975],[51.52324061029399,35.900248864915376],[51.52331218691126,35.90033087235038],[51.523393500891856,35.90040663319705],[51.52348373414434,35.9004753852093],[51.5235819788314,35.900536436656694],[51.52368724650372,35.90058917328459],[51.52379847804521,35.900633064494905],[51.52391455432963,35.90066766868512],[51.52403430748127,35.90069263769176],[51.524156532626336,35.900707720293745],[51.524280000016816,35.90071276474038],[51.52429000014296,35.900712764739325],[51.52440678053845,35.900708253087664],[51.524522510068564,35.90069475876589],[51.52463614732885,35.90067240320445],[51.52484614963816,35.900622402587665],[51.52495716856636,35.90059122545429],[51.52506403594031,35.90055159205952],[51.52516578130419,35.90050386231441],[51.52526148071984,35.900448469652225],[51.64217190088245,35.825577734101074],[51.64228267094015,35.825497415124936],[51.64239267090627,35.82540741433688],[51.64247473479632,35.82533322283129],[51.64249473471073,35.82531322267535],[51.64256574464384,35.82523470272966],[51.642627053507155,35.825150936748926],[51.64267808149946,35.8250627169557],[51.64271834605655,35.824970877692024],[51.642747466413994,35.82487628752827],[51.64276516720693,35.82477984104836],[51.64277128107289,35.82468245038906],[51.642765750233025,35.824585036613264],[51.642748627036966,35.82448852099921],[51.64272007346616,35.824393816327614],[51.64268035960036,35.824301818249374],[51.6426403586575,35.82422181863372],[51.642592196892515,35.824137035180925],[51.64253455647125,35.824056269666485],[51.64246793765431,35.82398022301482],[51.64239291861652,35.82390955519583],[51.642310150428706,35.823844879497656],[51.6422203514071,35.823786757204665],[51.642124300879345,35.82373569272681],[51.642022832421326,35.82369212922256],[51.64191682662334,35.823656444753205],[51.596937294527145,35.810466594157894],[51.59676398758026,35.81042711992343],[51.59591399767657,35.810287121529754]]]},"properties":{"group":14,"color":"#475569","store_count":48,"source":"recorded_gps_operation_envelope","operation_spans":[[0,540,1059]],"label_center":[51.56567545709308,35.86031922389749]}},{"type":"Feature","geometry":{"type":"Polygon","coordinates":[[[51.55545779572411,35.7283767680579],[51.55527598754717,35.72827275290571],[51.55508293877417,35.72818321211229],[51.554880377145885,35.72810894703235],[51.55467011552305,35.72805062230727],[51.55445403566436,35.72800875991804],[51.55423407138853,35.72798373451461],[51.554012191270914,35.72797577006352],[51.553790381029316,35.72798493784408],[51.288786625429566,35.748924403083905],[51.28854757319116,35.748953205509615],[51.28831341748041,35.74900188182867],[51.28808663773282,35.7490699166184],[51.28786963529748,35.74915658947166],[51.28766470801385,35.749260982623554],[51.28747402588337,35.74938199066765],[51.2872996080936,35.74951833225888],[51.287143301637855,35.74966856367934],[51.2870067617567,35.749831094123486],[51.27171643876526,35.77020084428848],[51.27161277295376,35.7703542544762],[51.271526744603314,35.77051474384341],[51.27145907388078,35.77068096909155],[51.271410327310704,35.77085153890426],[51.27138091302994,35.771025025591904],[51.27137107736756,35.771199977041036],[51.271371067663424,35.771529977083496],[51.27138264932358,35.77171988240099],[51.27141729131259,35.771907914562085],[51.27147465201191,35.772092218432704],[51.271554165648766,35.77227097564979],[51.27165504787234,35.77244242256243],[51.27177630348718,35.772604867633625],[51.27191673626766,35.77275670813098],[51.272074960757024,35.77289644594143],[51.272249415934326,35.77302270235409],[51.27243838061499,35.77313423166513],[51.27263999043267,35.77322993347038],[51.272852256235026,35.77330886352435],[51.311492985114945,35.78581913510438],[51.31171818587628,35.78588144407955],[51.31194996439749,35.78592488152019],[51.336340523515965,35.78944496062],[51.33653797768646,35.789466448069035],[51.33673695622753,35.78947422940485],[51.48522051705734,35.7900542196113],[51.48540653022445,35.79004882391112],[51.485591435336765,35.79003144742742],[51.50056178036464,35.7881314002625],[51.500677752033724,35.7881142352077],[51.50132776657378,35.78800423254177],[51.50154910226265,35.78795751627275],[51.50217911519512,35.78779751255344],[51.50220299191794,35.787791334538184],[51.54152378887247,35.77742109440198],[51.54153548006549,35.77741798114422],[51.54220549355276,35.777237976982384],[51.54227406109411,35.7772185935434],[51.5429140734828,35.77702858921189],[51.54296857892487,35.77701178067908],[51.54421860227858,35.77661177166673],[51.5442615589694,35.77659762514519],[51.54488157019907,35.77638762045932],[51.54489295636478,35.776383735175635],[51.54553296785586,35.77616373027953],[51.5455707003317,35.776150441448046],[51.55785091412893,35.77172034372749],[51.55801097633542,35.77165656714423],[51.55865098579469,35.771376561224024],[51.558737106808664,35.77133695729255],[51.559317114414974,35.77105695152602],[51.559362840025614,35.771034299365205],[51.5599728474357,35.770724293076675],[51.56002901496694,35.7706948363203],[51.560639021600764,35.77036482975752],[51.560727252444885,35.77031468819319],[51.561297257384126,35.76997468165929],[51.56136276471646,35.76993415206109],[51.56295277558275,35.768914133006255],[51.56296530156123,35.76890604078098],[51.56794533372928,35.76566598060342],[51.5679506668871,35.76566250018207],[51.5685006703499,35.76530249351257],[51.568557885346856,35.76526381319847],[51.56908788772988,35.764893806531376],[51.56909761298975,35.76488697941556],[51.56960761511827,35.76452697296085],[51.569650650894594,35.764495833916584],[51.57174065650701,35.76294580675532],[51.571755787063104,35.762934486043996],[51.57383579150308,35.76136445876516],[51.573923570575964,35.761294641613745],[51.57534356866804,35.76010462201367],[51.57537601837375,35.76007687667571],[51.575846017068905,35.75966687006953],[51.57602832724293,35.759487002853355],[51.576448321816265,35.759016996361204],[51.57645001518991,35.75901509888811],[51.57686000984447,35.75855509254533],[51.57694513219004,35.75845279605516],[51.57732512470628,35.757962789934666],[51.57735707523703,35.75792037799146],[51.58111698986931,35.75278031655627],[51.58121969012617,35.75262384507952],[51.58130417263549,35.752460293343496],[51.581369711426376,35.75229106699377],[51.58141574335122,35.75211762043734],[51.581441872921744,35.75194144434197],[51.58148186007936,35.75150144369351],[51.58148710784688,35.75129961575833],[51.581466251891555,35.751098459643096],[51.58141952436041,35.75090021252749],[51.58134744512433,35.7507070792223],[51.57899731973524,35.74542712295482],[51.5789644043228,35.74535743773469],[51.57873439400743,35.74489744193402],[51.57872546744013,35.74487984066474],[51.57854545971765,35.74452984393467],[51.578444293563216,35.74435774345947],[51.578322610371096,35.74419471028575],[51.57818161966828,35.74404236479762],[51.57452159695222,35.74047241910669],[51.57434908380019,35.74032147755266],[51.57415764807537,35.74018654884986],[51.55545779572411,35.7283767680579]]]},"properties":{"group":15,"color":"#ca8a04","store_count":50,"source":"recorded_gps_operation_envelope","operation_spans":[[0,642,722],[1,0,1288]],"label_center":[51.4284702770333,35.75878509571672]}}]}
