{"type":"FeatureCollection","features":[{"type":"Feature","geometry":{"type":"Polygon","coordinates":[[[51.38907835212266,35.700473248590185],[51.38903469972228,35.70047345175147],[51.38844470337175,35.70049345160619],[51.388388499022376,35.700497489495],[51.38833299359047,35.70050575099722],[51.380363039048916,35.702005741764154],[51.38030635215502,35.70201879175133],[51.38025147499389,35.70203624546172],[51.38019892042082,35.70205793978188],[51.380149179586454,35.702083671967614],[51.38010271734693,35.702113201538694],[51.38005996791965,35.70214625252607],[51.38002133082532,35.70218251605091],[51.37974133014645,35.70247251495625],[51.379727621531714,35.702487270350304],[51.37846761737303,35.70389726528938],[51.37843282977755,35.70394080638483],[51.37789282641111,35.70470080407147],[51.377871764600556,35.70473313551751],[51.37765176264471,35.705103134540586],[51.37763137638381,35.70514144043942],[51.37761500482133,35.70518100705137],[51.37751500294035,35.70546100658323],[51.37750136191374,35.705507382545925],[51.37740135880543,35.70593738207406],[51.377393013840674,35.70598658152616],[51.37739073148491,35.70603621465952],[51.37744070668536,35.70929621506055],[51.377440779509165,35.709299882604654],[51.377450776391385,35.70970988267361],[51.37745509462861,35.709759877787654],[51.37746556493965,35.709809263942006],[51.37748208084934,35.709857538863815],[51.37750447439605,35.7099042115809],[51.37771447231266,35.71028421255014],[51.377732284625736,35.710313786393804],[51.38277224796812,35.71802380884144],[51.38280073638866,35.718062953751875],[51.38283349730618,35.718099808724986],[51.38287025587648,35.71813406456362],[51.38291070371562,35.718165433875875],[51.38332070421739,35.71845543521521],[51.38337426764341,35.71848925686522],[51.38855428184139,35.72139927146221],[51.38860274094053,35.721423846998036],[51.38865380644162,35.7214446185568],[51.388707030598006,35.72146140401108],[51.38876194673473,35.72147405618393],[51.389341950065884,35.72158405681962],[51.3893476861004,35.721585120902944],[51.39513771958666,35.72263512697255],[51.395187350243255,35.722642383570374],[51.39523754665331,35.72264626974804],[51.397077558041666,35.72272627016485],[51.39713735238794,35.722726474013356],[51.39719688342464,35.72272189858923],[51.39725557807344,35.72271258793808],[51.39731287130797,35.72269863168933],[51.39736821159336,35.722680164193456],[51.39742106619593,35.72265736322849],[51.3974709263117,35.7226304482886],[51.397517311964556,35.72259967847093],[51.3975597766269,35.72256534998144],[51.398669775634005,35.7215753458937],[51.39870771864004,35.72153799672031],[51.39874101645255,35.72149780935817],[51.400311007641484,35.719387802707125],[51.40031638098641,35.71938043849493],[51.40511635146747,35.71267041796904],[51.40514552851961,35.712624237779494],[51.40516863516099,35.712575825853484],[51.40518541891057,35.71252571120069],[51.405195696380304,35.71247444143593],[51.40524569360981,35.712104441205724],[51.405249136074694,35.712063492561754],[51.40524842363855,35.71202245189562],[51.40524356116724,35.71198159914438],[51.40478354124992,35.70928160155107],[51.40477350609968,35.709237443599186],[51.404758624313374,35.70919420480934],[51.40458862162476,35.708774205633446],[51.404580905853294,35.70875629947113],[51.401150860139815,35.7012563158231],[51.40112757005812,35.70121206221378],[51.40109913815045,35.70116985511954],[51.40106583140745,35.70113009087573],[51.40102796259437,35.70109314287822],[51.40098588731394,35.701059358077096],[51.400940000667,35.70102905371895],[51.400890733542504,35.70100251436792],[51.400838548571286,35.70097998923371],[51.400783935782044,35.70096168983157],[51.40072740799997,35.70094778799623],[51.40013741134572,35.70082778868761],[51.40005458301788,35.700815823418154],[51.39890459004549,35.70071582398174],[51.39885829148571,35.700713247507174],[51.38907835212266,35.700473248590185]]]},"properties":{"group":1,"color":"#2563eb","store_count":49,"source":"recorded_gps_operation_envelope","operation_spans":[[0,324,743]],"label_center":[51.39168944135102,35.71114769276909]}},{"type":"Feature","geometry":{"type":"Polygon","coordinates":[[[51.54314000640746,35.71841012242435],[51.54292490890116,35.71841845714462],[51.359049096828976,35.73255810545211],[51.35901938403316,35.7325605281289],[51.35832939969617,35.73262052667668],[51.35812071690316,35.732646728234926],[51.3579159248973,35.73268863344709],[51.35771679718663,35.732745879414054],[51.35752505823622,35.732817970384595],[51.35734236853658,35.732904282047706],[51.35717031022572,35.73300406693816],[51.35246034234458,35.73601401268593],[51.3522920804678,35.73613284678218],[51.352138910782436,35.736264552331924],[51.35200230772371,35.736407861584105],[51.35188358628352,35.73656139508738],[51.35178388935076,35.73672367496665],[51.351704176707315,35.73689313914718],[51.35164521578561,35.73706815638943],[51.35160757427701,35.73724704199006],[51.35159161466227,35.737428073997904],[51.35159749071685,35.737609509788925],[51.35162514602508,35.7377896028405],[51.35167431451748,35.73796661954388],[51.35174452302651,35.73813885589263],[51.35183509583621,35.73830465388653],[51.351945161182165,35.73846241749314],[51.3520736596394,35.73861062801295],[51.3522193543177,35.73874785870067],[51.352380842766074,35.738872788501226],[51.3525565704722,35.7389842147688],[51.371996761092355,35.750104421478056],[51.37222686094555,35.7502199809285],[51.372866870339614,35.750499986505986],[51.37300560411799,35.75055580317859],[51.48356748078918,35.791206637072285],[51.483769009747746,35.79127136849528],[51.48397719331441,35.79132015694613],[51.48419013628561,35.79135255827712],[51.484405900121686,35.79136827752133],[51.484622520597924,35.79136717157839],[51.484838025689754,35.79134925051742],[51.485050453528956,35.79131467748525],[51.50081078399334,35.788104603641976],[51.50086103197584,35.78809386626313],[51.50162104758699,35.78792386238816],[51.50170234376401,35.78790434073004],[51.50244235839314,35.787714336467566],[51.50246067333824,35.78770956433769],[51.541091429176795,35.777489335726756],[51.54114106966077,35.77747567501356],[51.541841082966855,35.77727567058273],[51.54185073654271,35.77727289243841],[51.5425407495819,35.777072888016704],[51.54258443397637,35.77705981307687],[51.54326444647069,35.776849808478325],[51.54333363342577,35.776827377311974],[51.54539366941495,35.77612736222643],[51.54540073511013,35.77612494975728],[51.54814078270644,35.77518492953287],[51.54814430330046,35.77518371883478],[51.55632444495513,35.77236365820621],[51.556384938121205,35.7723419491055],[51.557724960139105,35.771841938516474],[51.55772883656442,35.77184048845973],[51.558368847041976,35.77160048338203],[51.55850999273325,35.77154261989096],[51.55916000182077,35.77125261399478],[51.559229713366484,35.77122019292022],[51.55986972143963,35.770910186756346],[51.55997718961689,35.77085475280559],[51.56059719595842,35.770514746300734],[51.560640488253256,35.77049040637863],[51.56123049365678,35.77015039998453],[51.561299689833376,35.77010890058932],[51.56815973989681,35.765828822460975],[51.56820121886264,35.7658023123232],[51.5687512222089,35.76544230587795],[51.568822693098106,35.765393522682544],[51.56934269507735,35.765023516294654],[51.56939789257992,35.76498292286598],[51.56989789350718,35.76460291650625],[51.56990732253083,35.76459570926357],[51.5732373275254,35.76203566666131],[51.573248932001896,35.7620266816842],[51.57492893377444,35.76071666003836],[51.5749479094864,35.760701689577765],[51.576037909825686,35.75983167537165],[51.57605785086945,35.75981556041882],[51.57638785070526,35.759545556066385],[51.57648039707476,35.75946518126102],[51.57879038625441,35.757335149130114],[51.57880106741488,35.75732522860739],[51.579111065796084,35.757035224269934],[51.579174571210785,35.75697312528166],[51.580064563477556,35.756063112394145],[51.58020447912884,35.75590333757192],[51.58032283508936,35.75573237683983],[51.58041829865475,35.755552155445294],[51.5804897949426,35.75536470290989],[51.58062978328125,35.754914700491746],[51.58064257336671,35.754871404708275],[51.581392502651084,35.752191391753385],[51.58142864563642,35.75202919111856],[51.58144692991804,35.75186501158725],[51.581447210393314,35.751700157065784],[51.581429484945865,35.75153593681319],[51.58134947144257,35.75104593841613],[51.58130855755304,35.750864842191255],[51.581245759578096,35.75068795899434],[51.57869561794347,35.74464800520941],[51.57860916616834,35.74447283831591],[51.57850126242958,35.74430576806231],[51.57837303097157,35.74414853494654],[51.57807302770741,35.74381853946405],[51.57797041258832,35.743713819600565],[51.57470039652096,35.74061386590477],[51.57468365205934,35.740598170778014],[51.55397356746676,35.72139846096593],[51.55380719743867,35.721259598589675],[51.553623898091665,35.72113571906418],[51.55342568818789,35.721028186685906],[51.55321475067321,35.72093818571396],[51.55299340863808,35.720866707330096],[51.544393577095306,35.718506756870845],[51.544157137645186,35.71845328114499],[51.54391499905338,35.71842094358995],[51.54366999415644,35.7184101225318],[51.54314000640746,35.71841012242435]]]},"properties":{"group":2,"color":"#0d9488","store_count":51,"source":"recorded_gps_operation_envelope","operation_spans":[[0,6,748]],"label_center":[51.48271910276662,35.75489305260001]}},{"type":"Feature","geometry":{"type":"Polygon","coordinates":[[[51.51876913454462,35.72404414123013],[51.5187502899297,35.72404336233374],[51.5187314425172,35.72404409483879],[51.518712774165635,35.72404633167736],[51.51869446500584,35.724050051266225],[51.518676691702815,35.7240552177151],[51.51865962575122,35.72406178117293],[51.51864343182056,35.72406967830896],[51.51862826616636,35.724078832923716],[51.51861427512246,35.72408915668429],[51.518601593689,35.72410054997665],[51.51859034422988,35.72411290286677],[51.518580635291976,35.724126096161456],[51.5185725605578,35.72414000255835],[51.518566197941546,35.724154487874245],[51.51856160883723,35.72416941233994],[51.51855883752629,35.72418463194872],[51.51855791075025,35.724199999845965],[51.5185579105822,35.72426999984738],[51.518558621673144,35.724283465582616],[51.51856074974595,35.72429683161864],[51.5185642790449,35.72430999899209],[51.52051426612059,35.730330002070986],[51.520515912217526,35.73033477610157],[51.52081591051002,35.73115477656891],[51.52082232966176,35.731169571879356],[51.520830532345265,35.73118376918362],[51.520840436219345,35.731197225963015],[51.52085194186537,35.73120980713243],[51.520864933785255,35.7312213863965],[51.52087928156086,35.731231847517364],[51.52089484116319,35.731241085481564],[51.52134484159507,35.731481085866086],[51.52136060573442,35.73148864521614],[51.52137718003737,35.73149494805498],[51.52139441429423,35.73149993726112],[51.52141215231418,35.73150356761834],[51.521430233340816,35.731505806225364],[51.52309023654642,35.731645806467505],[51.52311134146794,35.73164663376051],[51.523132430161326,35.73164556622574],[51.52315324751176,35.731642616777435],[51.52591325247109,35.73112261575633],[51.52592010316437,35.73112121631903],[51.531140112255656,35.72997121409603],[51.53115754697232,35.72996663511208],[51.531174367586466,35.729960723001895],[51.531190421173875,35.729953531515335],[51.53181042180629,35.7296435309992],[51.53182584474559,35.729634951668764],[51.53184017344931,35.72962519208569],[51.53185327257317,35.729614344436094],[51.5318650183873,35.72960251118366],[51.5318752999449,35.72958980410171],[51.53188402013027,35.72957634321741],[51.53189109657606,35.729562255678104],[51.53189646244129,35.72954767455022],[51.53190006704267,35.729532737562394],[51.53190187633332,35.72951758580454],[51.531901873224285,35.72950236239513],[51.53190005774597,35.72948721112936],[51.53189644704779,35.729472275120884],[51.53189107523613,35.729457695450044],[51.53188399305216,35.72944360983125],[51.53187526739254,35.729430151312236],[51.53186498067749,35.72941744701728],[51.53185323007224,35.72940561694652],[51.528773229154346,35.72659562057281],[51.52875786151414,35.72658310227522],[51.528317861657605,35.726263102735444],[51.528297768548896,35.726250334961094],[51.5279177688906,35.72604033529407],[51.5278998760044,35.72603156457506],[51.52788092154301,35.72602442899933],[51.527861129388256,35.7260190128491],[51.519291144419334,35.72408901631659],[51.51927526592692,35.72408602459549],[51.519259133597764,35.72408414116117],[51.51876913454462,35.72404414123013]]]},"properties":{"group":3,"color":"#7c3aed","store_count":42,"source":"recorded_gps_operation_envelope","operation_spans":[[0,127,250]],"label_center":[51.525036483329714,35.728000618759665]}},{"type":"Feature","geometry":{"type":"Polygon","coordinates":[[[50.966555062205366,35.67459146463524],[50.96628739460037,35.67458528296689],[50.966020183597934,35.674599454051894],[50.965755748524785,35.67463385488852],[50.96549638461948,35.67468818688519],[50.96524434311529,35.67476197845167],[50.96500181170451,35.674854589091346],[50.964770895553556,35.674965214959194],[50.96455359903364,35.675092895837444],[50.96435180832516,35.67523652346827],[50.9581718192811,35.680066422786474],[50.95813106340132,35.68009891011725],[50.95706106359006,35.68096889232633],[50.957023710802225,35.68099982981015],[50.9567037103613,35.68126982439114],[50.95661074193954,35.681352105459226],[50.956190739559574,35.68174209802553],[50.956021639070876,35.68191490932602],[50.95587323982018,35.682099947041294],[50.95574686136318,35.68229556601172],[50.95564362749546,35.68250002698817],[50.95556445625615,35.68271151209388],[50.955510051760065,35.6829281409856],[50.955480897930926,35.68314798757089],[50.955477254191784,35.683369097132356],[50.955499153151045,35.683589503707175],[50.95554640030513,35.68380724756714],[50.95561857576041,35.684020392643696],[51.000065205328895,35.79450138774423],[51.000166635153505,35.79471676134216],[51.00029354780921,35.794922973704615],[51.00044471536122,35.79511802932674],[51.00061867513023,35.79530004065279],[51.00081374384208,35.79546724634458],[51.00102803391384,35.79561802832875],[51.001259471718626,35.79575092745793],[51.00150581765252,35.795864657634],[51.00176468780944,35.795958118256564],[51.00203357705383,35.79603040487615],[51.00230988326808,35.7960808179491],[51.002590932539555,35.79610886960875],[51.00287400504321,35.79611428838807],[51.00315636136926,35.796097021847366],[51.003435269040445,35.79605723708188],[51.003708028962315,35.795995319104364],[51.01983842887491,35.79162519881607],[51.020048383362095,35.791560792440755],[51.24120327639972,35.715298749085676],[51.24145451616074,35.71519980734984],[51.24169281522609,35.715081474166105],[51.24191593014352,35.71494486360577],[51.24212176044587,35.71479126180987],[51.242308368427175,35.714622114878104],[51.242328368236386,35.714602114513454],[51.2424968300133,35.7144155355701],[51.24264189196644,35.714216309182234],[51.24276213806742,35.71400638035287],[51.24285639458833,35.71378779855503],[51.242923741554016,35.7135626977211],[51.24296352171575,35.71333327540838],[51.24297534695917,35.71310177134392],[51.24295910208403,35.71287044555866],[51.24291494591941,35.71264155632375],[51.242843309763835,35.7124173381052],[51.24274489316576,35.71219997975123],[51.24160483453738,35.71002000469968],[51.24142171415786,35.709728226977916],[51.24105170447223,35.709228234482914],[51.24089503999403,35.7090381736438],[51.240716392778424,35.70886148243025],[51.240517466683514,35.708699845909074],[51.24030015892794,35.70855480556429],[51.240066541996526,35.708427744598985],[51.239818843876215,35.7083198747468],[51.23955942681049,35.70823222471853],[51.239290764774914,35.70816563039402],[51.23901541988839,35.70812072685257],[50.96726311121878,35.67464167019301],[50.96704504799281,35.6746214637641],[50.966555062205366,35.67459146463524]]]},"properties":{"group":4,"color":"#d97706","store_count":66,"source":"recorded_gps_operation_envelope","operation_spans":[[1,910,2422]],"label_center":[51.05708393857009,35.75342977076322]}},{"type":"Feature","geometry":{"type":"Polygon","coordinates":[[[51.37926596615708,35.672949554164894],[51.37918684425087,35.67293997611831],[51.379106975077846,35.672936421651286],[51.37902704588586,35.672938921349036],[51.37440708594673,35.67325891834318],[51.374303838237005,35.67327123772828],[51.37420317007266,35.67329364287291],[51.37373317351085,35.67342364178577],[51.37363400938103,35.673456807872356],[51.37320401195571,35.67362680653173],[51.373116573747886,35.67366664776734],[51.37236657699227,35.674056644899224],[51.37230597079725,35.67409122824479],[51.37224921918162,35.67412992179018],[51.36390922765357,35.68032988204111],[51.36385290861274,35.68037580124096],[51.3638020202615,35.68042576266455],[51.36375699639299,35.680479340430615],[51.36371822081266,35.68053607783052],[51.36368602406633,35.68059549122123],[51.36366068062221,35.68065707414785],[51.36364240653078,35.68072030166063],[51.36363135758265,35.680784634789646],[51.361531162239864,35.69914462115326],[51.36152743335191,35.699211964330246],[51.36153162244114,35.69927928950304],[51.36154369107338,35.69934597865576],[51.36156352848301,35.699411419609405],[51.36159095258902,35.699475011641454],[51.361625711665845,35.699536171000396],[51.36166748665345,35.69959433626452],[51.36171589408577,35.69964897349565],[51.361770489610336,35.69969958114083],[51.361830772067066,35.699745694636555],[51.36189618808856,35.69978689067358],[51.36196613717982,35.69982279108299],[51.36203997723077,35.69985306630793],[51.36211703041077,35.69987743842901],[51.36219658939131,35.69989568371577],[51.366086621044126,35.700625689696984],[51.366168642592406,35.70063771107887],[51.366251703538936,35.700643220208434],[51.394011947157125,35.701383225124076],[51.39406123471368,35.70138338407654],[51.4079613566754,35.7011033808594],[51.4079624902228,35.701103357351656],[51.40843249434611,35.70109335723779],[51.40850322734063,35.70108947505063],[51.49240394985179,35.69361940541482],[51.49246764646063,35.693611739292535],[51.49253046452874,35.693600218277965],[51.493040468534296,35.69349021732424],[51.4931574488526,35.69345750554109],[51.49488746019227,35.69285750066426],[51.494962222688294,35.69282802759044],[51.495033164411296,35.692792826293655],[51.495099627829084,35.692752223044245],[51.495160996920234,35.692706594181146],[51.49521670288392,35.69265636262337],[51.49526622941184,35.69260199394997],[51.4953091174736,35.69254399208452],[51.495344969570965,35.69248289462421],[51.49537345342173,35.692419267856785],[51.49539430503901,35.69235370151185],[51.495407331177404,35.692286803294586],[51.495412411123475,35.69221919325321],[51.495409497813824,35.692151498031954],[51.495398618270585,35.692084345062995],[51.495379873350196,35.69201835675105],[51.495353436807925,35.691954144704816],[51.49531955368674,35.69189230406836],[51.49527853804553,35.69183340800519],[51.49523077004777,35.69177800238619],[51.49517669243759,35.691726600730384],[51.49511680643596,35.69167967944578],[51.49505166709505,35.69163767341398],[51.49469166838797,35.691427674884274],[51.4946138256805,35.69138721931169],[51.49453112941422,35.69135378128294],[51.49444452661318,35.69132774372296],[51.49435500903496,35.691309404807875],[51.37926596615708,35.672949554164894]]]},"properties":{"group":5,"color":"#0891b2","store_count":53,"source":"recorded_gps_operation_envelope","operation_spans":[[0,221,954],[1,0,194]],"label_center":[51.41219852575045,35.686047019798764]}},{"type":"Feature","geometry":{"type":"Polygon","coordinates":[[[51.45734512388545,35.61395153728534],[51.457289775336314,35.613854528040804],[51.45722321430869,35.61376233624492],[51.45714606288348,35.613675823473095],[51.45705904210686,35.613595798225035],[51.45696296525113,35.613523008369455],[51.456858730213895,35.61345813415554],[51.456747311126776,35.6134017818563],[51.456629749252066,35.613354478103254],[51.45650714325225,35.61331666496542],[51.45638063892346,35.61328869581848],[51.45625141848865,35.61327083204271],[51.45612068955059,35.61326324058058],[51.45598967380781,35.613265992376824],[51.4164402136307,35.61565595614006],[51.41630133310067,35.61567024229221],[51.41404136268691,35.61600023767519],[51.413907203170545,35.616025627936324],[51.41377689014705,35.61606200062097],[51.41365176818556,35.61610898043784],[51.35174231213781,35.64251865860164],[51.351622465181805,35.6425763053446],[51.3515104825689,35.64264366994707],[51.35140754242085,35.64272004370735],[51.351314727738206,35.64280462314163],[51.35123301500649,35.64289651843635],[51.35116326392267,35.642994762808584],[51.35110620834962,35.64309832267635],[51.3510624485941,35.64320610853185],[51.351032445089444,35.64331698640306],[51.35101651354935,35.643429789783355],[51.351014821644085,35.64354333190366],[51.35166459340925,35.657083340422446],[51.35167360303036,35.65717451236497],[51.35173359642845,35.657574513064574],[51.351752065916415,35.6576658201338],[51.35187205849599,35.65813582148186],[51.35190792149014,35.65824701808146],[51.35195772374555,35.65835457894935],[51.35202092803672,35.658457343690145],[51.35225092479395,35.65878734593077],[51.352324935752655,35.65888201690743],[51.35241031816209,35.65897008148784],[51.352506193445116,35.65905063345921],[51.35261157504056,35.65912284391338],[51.35272537855494,35.659185969777326],[51.35284643292134,35.659239361460386],[51.352973492450694,35.65928246953941],[51.35345349792368,35.65942247130357],[51.3535827455663,35.6594543444888],[51.353715235590606,35.6594755735331],[51.353849655308494,35.65948594810286],[51.36624982605652,35.65993595322956],[51.366292695960176,35.659936952921974],[51.37690284239437,35.660046953538455],[51.37695053967327,35.660046761495764],[51.42539120748559,35.659146744900546],[51.42551391359281,35.65913988843504],[51.42563535427614,35.65912398933321],[51.425754531095606,35.65909917831188],[51.42587046422618,35.65906565935821],[51.42598220051444,35.65902370805247],[51.43011223722205,35.6572836867401],[51.430231169536015,35.65722716343518],[51.43100117454846,35.656817158723655],[51.43113293408984,35.65673732680578],[51.43125191709482,35.6566450934573],[51.43157191658941,35.656365090859836],[51.431674743590015,35.65626363625992],[51.431762084431696,35.65615293559198],[51.457681700454955,35.61854268738326],[51.45774042651435,35.61844684598909],[51.457787527950124,35.61834681709519],[51.45782256339763,35.618243538117554],[51.457845204572195,35.61813797692656],[51.45792519598183,35.61761797610893],[51.457935564980225,35.61749907912195],[51.457930218391525,35.61737996102906],[51.457630173461105,35.61467996468062],[51.45761143221739,35.614571394921995],[51.45757963080492,35.61446487147421],[51.457539629192006,35.61435487191197],[51.457495127756125,35.61425153571458],[51.45734512388545,35.61395153728534]]]},"properties":{"group":6,"color":"#e11d48","store_count":57,"source":"recorded_gps_operation_envelope","operation_spans":[[1,535,1706]],"label_center":[51.4146322569481,35.63053067299245]}},{"type":"Feature","geometry":{"type":"Polygon","coordinates":[[[51.01192000008445,35.75122590273082],[51.011807501102176,35.7512292072659],[51.01163750379056,35.75123920710855],[51.01145059917869,35.751259496423636],[51.01101060579909,35.751329495341956],[51.010959626221165,35.75133832730594],[51.010479633281875,35.75142832592533],[51.0093086891726,35.751648503055364],[51.009232745290454,35.751664428254415],[51.00746277023423,35.75207442204855],[51.007334475753865,35.752109091079454],[51.00721033518826,35.75215266536858],[51.00709127680283,35.75220481909006],[50.99997133987927,35.75565477244315],[50.999837035094544,35.755727744920385],[50.999712678194534,35.75581161766881],[50.999599595189565,35.75590549638026],[50.99949899189251,35.75600838005287],[50.999411941061105,35.75611917166349],[50.999339370958225,35.75623668986398],[50.99928205545238,35.756359681576605],[50.97972122837243,35.80586944258206],[50.979682329585,35.80598672908118],[50.97965732135239,35.80610650043647],[50.979646431128806,35.80622766760778],[50.97964975800015,35.80634912885828],[50.979667271780706,35.80646977977232],[50.97969881328529,35.806588523297435],[50.9797440957744,35.80670427971988],[50.98270399313894,35.81318431530394],[50.98271329477861,35.81320416920213],[50.98454323581912,35.81701419106817],[50.98460299912748,35.817123250484954],[50.98467503770937,35.817227272962356],[50.98475871861613,35.81732534446627],[50.98485330659127,35.817416603249896],[50.98804330097581,35.82021663327463],[50.98815704519687,35.820306823116574],[50.98828142690022,35.82038715976939],[50.98841516521761,35.82045681591655],[50.98855688291381,35.820515074228666],[50.988705120570444,35.82056133475151],[50.98885835161654,35.82059512108526],[51.018198788319694,35.82577520088351],[51.01834896265341,35.82579552224571],[51.01850085126543,35.82580386050921],[51.018653015892525,35.82580013671741],[51.018804015657494,35.82578438613163],[51.018952420714996,35.82575675789719],[51.01909682579296,35.82571751363093],[51.019235863501066,35.82566702494351],[51.019368217280295,35.82560576992021],[51.01949263387086,35.82553432859317],[51.01960793518031,35.825453377448376],[51.01971302943949,35.82536368301917],[51.02005302824321,35.825043679717645],[51.020168141045154,35.82492104499829],[51.02026419811053,35.82478797295717],[51.06483327336679,35.75340746386731],[51.06489705445358,35.753291156786545],[51.06494626730625,35.753170239007936],[51.064980419942444,35.75304591951452],[51.06499917096319,35.75291944129537],[51.06500233296349,35.75279206891739],[51.0649898744032,35.75266507588158],[51.064961919919476,35.752539731890245],[51.064918749077584,35.752417290152344],[51.06486079357302,35.75229897485407],[51.064788632912816,35.75218596891977],[51.06470298861931,35.752079402185565],[51.06460471701449,35.75198034010406],[51.06449480065714,35.75188977309259],[51.06437433851829,35.75180860663224],[51.0642445349935,35.75173765221551],[51.0641066878615,35.75167761923422],[51.06396217530988,35.75162910788783],[51.063812442157236,35.75159260318352],[51.063712443612985,35.75157260348748],[51.06353311203198,35.75154566515625],[51.06335115207995,35.75153593572482],[51.01194197143555,35.75122594010312],[51.01192999992506,35.75122590273086],[51.01192000008445,35.75122590273082]]]},"properties":{"group":7,"color":"#4f46e5","store_count":65,"source":"recorded_gps_operation_envelope","operation_spans":[[0,1166,2268]],"label_center":[51.01851747908741,35.78111456207933]}},{"type":"Feature","geometry":{"type":"Polygon","coordinates":[[[51.067815462410266,35.63209024142548],[51.06761131119834,35.63203624239636],[51.06740166127862,35.63199883476586],[51.067188530476436,35.631978378571965],[51.066973970113025,35.63197507069969],[51.06676004526603,35.631988942986396],[51.06654881489767,35.632019861915644],[51.066342312041805,35.63206752990179],[51.0661425242402,35.6321314881537],[51.06595137441627,35.632211121089625],[51.06577070237019,35.63230566226096],[51.06560224707325,35.63241420172778],[51.01932243228318,35.66534365655289],[51.01915719713669,35.665474229597265],[51.01900966935329,35.6656182346886],[51.01888147888667,35.66577408088972],[50.99478098295933,35.698673709886506],[50.99467478534315,35.698837308978895],[50.99458992134021,35.69900899699945],[50.9945273030628,35.699186928939234],[50.99448760357913,35.69936919267805],[50.994471249674135,35.69955382953169],[50.994478417256545,35.69973885529997],[50.99451840670747,35.70012885601442],[50.99453906195314,35.70026608225736],[50.99457267079993,35.700401593724095],[50.99471265905206,35.70087159616441],[50.99476759244186,35.701025541385555],[50.99483923311556,35.701174846927536],[50.99492700361213,35.7013183091197],[50.995030196424295,35.701454771393],[50.999720128249976,35.70707484096956],[50.999724462685755,35.70708001504678],[51.000094457431324,35.707520020523134],[51.000122930852726,35.707553073629754],[51.000422927215006,35.707893078000076],[51.00056701332608,35.708039483447585],[51.000729149256465,35.70817274173917],[51.00090754295713,35.70829137993409],[51.00110022265035,35.708394086685566],[51.00130505862478,35.70847972673754],[51.001519786777656,35.708547353475346],[51.001742033643765,35.70859621939075],[51.112574343092746,35.727876632336546],[51.11278237651327,35.72790426133099],[51.11299270386757,35.72791545464845],[51.11320337672454,35.72791010859657],[51.1134124434518,35.72788827270029],[51.11361796729887,35.727850149243125],[51.114057976011864,35.72775014710583],[51.114252255346585,35.72769790401464],[51.11443970830594,35.72763110653912],[51.114618699097484,35.72755033758838],[51.11478766578721,35.72745630199176],[51.11494513393115,35.72734982034718],[51.115089729442836,35.72723182185901],[51.115220190584324,35.72710333622821],[51.1153353789761,35.72696548466552],[51.11543428952977,35.726819470106115],[51.12751391697807,35.706829276311204],[51.12760111316511,35.70666454114586],[51.12766759982098,35.70649350042838],[51.127712705784745,35.706317881104184],[51.12773597577999,35.70613945633616],[51.12773717500607,35.705960027600966],[51.12771629150291,35.705781406499874],[51.12767353626583,35.705605396468066],[51.12760934110938,35.70543377456657],[51.12752435430201,35.70526827354126],[51.12741943401592,35.705110564329416],[51.07501840904755,35.634921368454464],[51.074892020058684,35.63476997095296],[51.07474729469702,35.63462994218973],[51.07458575641834,35.634502756094065],[51.07440910562497,35.63438975140803],[51.07421920176705,35.63429211759706],[51.074018043770785,35.63421088233178],[51.07350805225019,35.63403088594762],[51.07349487508901,35.63402627694206],[51.068734955087635,35.63237631017993],[51.068655457285885,35.632350239156295],[51.06823546477396,35.63222024181554],[51.067815462410266,35.63209024142548]]]},"properties":{"group":8,"color":"#65a30d","store_count":60,"source":"recorded_gps_operation_envelope","operation_spans":[[0,992,1997]],"hull_override":{"hull_start":993,"hull_end":1998,"record_index_base":1,"start_time":27943,"end_time":43267,"reason":"reviewed first/last western distribution stop clusters; hull only"},"label_center":[51.058582102306424,35.68222389538811]}},{"type":"Feature","geometry":{"type":"Polygon","coordinates":[[[51.45675163220014,35.64469612318137],[51.45667757632483,35.64468050678898],[51.4566018736895,35.64467158750496],[51.456525430438745,35.64466947209141],[51.45644916158165,35.64467418586949],[51.45270918743624,35.64507418289568],[51.45264258641895,35.645084001734226],[51.45257746059668,35.645099031163376],[51.45251442029489,35.64511913033541],[51.45245405629587,35.64514411089152],[51.45239693430248,35.64517373872692],[51.45234358963684,35.64520773618463],[51.45229452222373,35.64524578465744],[51.45225019190558,35.645287527573515],[51.45221101413295,35.64533257373791],[51.45217735607107,35.64538050099848],[51.45214953315867,35.645430860202005],[51.452127806151566,35.64548317940331],[51.452112378678585,35.645536968287935],[51.452103395332855,35.64559172276724],[51.45210094031625,35.645646929702345],[51.45210503664976,35.645702071713046],[51.45211564595734,35.64575663202656],[51.45213266882496,35.64581009932057],[51.45215594573184,35.64586197251518],[51.452185258545,35.645911765469],[51.460985187744974,35.65917181032414],[51.46101907143435,35.65921759488052],[51.505248861404894,35.71305780719757],[51.505249777143646,35.71305891816234],[51.50643977158772,35.71449892387006],[51.506445862867565,35.71450617363747],[51.50685586114346,35.71498617558201],[51.506860143495736,35.714991132705016],[51.5076901402627,35.71594113661037],[51.50769877462542,35.7159508032769],[51.50811877323659,35.716410805221386],[51.5081328029825,35.71642565552485],[51.50856280193335,35.71686565746313],[51.50856556185826,35.716868463380315],[51.51154555506343,35.71987847674216],[51.51156910851302,35.719901041489656],[51.51200910805179,35.72030104337317],[51.512037324089924,35.7203252318004],[51.512507324178316,35.72070523369877],[51.51256504701301,35.72074701520832],[51.51307504811414,35.7210770170185],[51.51310718516162,35.72109661372353],[51.513647186794955,35.721406615493976],[51.51367942603103,35.72142405652031],[51.51422942810362,35.72170405817473],[51.51427445399444,35.721725129133915],[51.51483445659087,35.72196513060755],[51.514845232946755,35.72196965233414],[51.53603533512601,35.73066970616632],[51.536102013370936,35.73069361318597],[51.54879208656601,35.734613638355945],[51.54886171936577,35.73463181385005],[51.548933297819744,35.73464396724089],[51.549006040761256,35.73464996589334],[51.55001604794922,35.73468996611096],[51.55008579944174,35.734689890957384],[51.55015519534809,35.734684155324786],[51.55022354637936,35.73467281618365],[51.55029017362572,35.73465598616238],[51.550354415300305,35.73463383242853],[51.55041563331281,35.73460657502832],[51.55047321960779,35.7345744847008],[51.55089322057911,35.73431448323404],[51.55093880983692,35.734283698368216],[51.550981045423576,35.734249882578965],[51.55518104203279,35.73058986500241],[51.555230138652725,35.73054209589463],[51.55602013591018,35.729682092289394],[51.55605938342582,35.72963456827561],[51.5560925884907,35.72958407472325],[51.55611941637305,35.7295311206628],[51.55613959663177,35.729476239928346],[51.55615292584237,35.72941998577586],[51.556159269647125,35.72936292530559],[51.556158564109005,35.729305633745135],[51.556150816355625,35.72924868865047],[51.55613610450678,35.72919266408369],[51.55611457688632,35.72913812482584],[51.55608645052636,35.72908562068358],[51.55605200897887,35.72903568094661],[51.55601159945681,35.728988809052254],[51.55596562933354,35.72894547751027],[51.4575855938503,35.64498588559211],[51.45753477119822,35.6449465879852],[51.45747938857231,35.64491163623902],[51.45742000129715,35.64488138081329],[51.45735720484967,35.64485612507756],[51.457291628888484,35.64483612226956],[51.45675163220014,35.64469612318137]]]},"properties":{"group":9,"color":"#ea580c","store_count":46,"source":"recorded_gps_operation_envelope","operation_spans":[[0,0,374]],"label_center":[51.494469694031494,35.686137701039044]}},{"type":"Feature","geometry":{"type":"Polygon","coordinates":[[[51.48537712236062,35.66015982474119],[51.4852664408302,35.660126023332964],[51.48515249624404,35.66010044299438],[51.48503620339257,35.66008328909389],[51.48491849591676,35.66007469934943],[51.48480031881342,35.66007474272277],[51.45821067427609,35.661054727041254],[51.45807304573114,35.66106570628015],[51.457937582190254,35.66108838500901],[51.45780577273064,35.661122513933556],[51.45767906626695,35.66116771789356],[51.446919161801986,35.66556766508827],[51.44675502387288,35.66564739800893],[51.44517503257518,35.666547388169995],[51.44508223010268,35.66660540446657],[51.44499608702892,35.66666989828051],[51.44466608695701,35.66693989575521],[51.444569781777965,35.66702783982087],[51.44448584565831,35.66712385419906],[51.444415286404656,35.66722678611446],[51.444358951227215,35.66733539973327],[51.444208946613394,35.667675398240796],[51.4441748430739,35.6677646928945],[51.44415036787011,35.667856066375464],[51.444135705840665,35.667948828747974],[51.444085698017695,35.6684288282657],[51.4440815160039,35.6684886708102],[51.4437113454923,35.67885866803754],[51.44371274220827,35.678948599330084],[51.44372333595284,35.679038121534326],[51.44551316829365,35.68954814191503],[51.44553847736003,35.6896560189928],[51.44557713084038,35.689761230246354],[51.44562872628905,35.68986268011544],[51.445692726490506,35.68995931220295],[51.44576846505158,35.69005012027571],[51.44585515333929,35.69013415874302],[51.44595188869188,35.69021055250375],[51.44605766381772,35.69027850605967],[51.44617137728417,35.69033731179966],[51.51418192876068,35.72162766907686],[51.5142579690169,35.72166001024193],[51.5147679738299,35.72186001259462],[51.514788542097854,35.72186790144388],[51.51534854755833,35.72207790393126],[51.515392514767,35.72209360814533],[51.52337259752242,35.724803640663765],[51.52353933670757,35.72484987929219],[51.55417970886422,35.73151996162598],[51.5543100474246,35.73154263852508],[51.55444252606086,35.731554484075915],[51.55457579439823,35.73155537753546],[51.55470849401154,35.73154530979706],[51.55483927227353,35.73152438348317],[51.55496679614402,35.731492811899166],[51.55508976575931,35.73145091685887],[51.55520692768314,35.73139912540383],[51.55531708768428,35.73133796544999],[51.55541912291014,35.73126806040593],[51.55551199333256,35.73119012281788],[51.555594752348895,35.73110494710596],[51.55566655643041,35.73101340146602],[51.55572667371963,35.730916419019415],[51.55577449148903,35.730814988301184],[51.55580952238507,35.73071014318342],[51.55583140939397,35.7306029523367],[51.55605138409424,35.72904295019686],[51.55605985962623,35.728936967421184],[51.55605548398978,35.72883081950602],[51.55603829984024,35.72872553998686],[51.55600847454468,35.72862215393984],[51.55596629855037,35.72852166800108],[51.554476259628366,35.72547168333684],[51.554415321026916,35.725364470072584],[51.554340336682095,35.725263350157704],[51.55425221043759,35.72516954239966],[51.486552009787,35.66069010032013],[51.4864689822552,35.66061793484777],[51.48637818213517,35.660552299517605],[51.48628037741493,35.66049374946113],[51.48617639532044,35.660442779882885],[51.486067115319386,35.66039982187239],[51.48537712236062,35.66015982474119]]]},"properties":{"group":10,"color":"#0284c7","store_count":51,"source":"recorded_gps_operation_envelope","operation_spans":[[0,238,1123]],"label_center":[51.50714170757338,35.70598249043826]}},{"type":"Feature","geometry":{"type":"Polygon","coordinates":[[[51.502449163603785,35.648838571571225],[51.50244768837837,35.64883634407969],[51.50244595853813,35.648834242164384],[51.50244398999024,35.648832285153915],[51.502441800836934,35.648830491044436],[51.50243941120908,35.648828876334115],[51.502436843081064,35.64882745587134],[51.50243412006869,35.648826242718314],[51.50243126721204,35.64882524803087],[51.50242831074521,35.648824480955874],[51.502425277855046,35.64882394854712],[51.50242219643118,35.64882365570053],[51.50241909480954,35.648823605109015],[51.502416001511776,35.6488237972378],[51.50241294498301,35.64882423032014],[51.502409953330236,35.648824900373505],[51.50225995337184,35.64886490036081],[51.50225692165991,35.648865848712234],[51.502254021676265,35.6488670403216],[51.50225128263028,35.6488684631867],[51.502248732110324,35.6488701029761],[51.50224639580588,35.64887194317343],[51.50224429724879,35.648873965243745],[51.502242457576294,35.64887614882027],[51.502240895318046,35.64887847190944],[51.50223962620954,35.64888091111254],[51.50223866303358,35.64888344186129],[51.50223801549154,35.64888603866534],[51.50223769010569,35.648888675369],[51.50219768984433,35.64953867536054],[51.50219767477606,35.64954105159177],[51.502197921496425,35.64954341930661],[51.502277921300454,35.65004341932924],[51.50227844451079,35.650045819982644],[51.50227923680285,35.650048171007604],[51.50228029142057,35.65005045235633],[51.50500028988426,35.655200453031085],[51.505001661537406,35.65520273982545],[51.505003296672875,35.65520490816888],[51.50500518008769,35.6552069379008],[51.50500729427047,35.65520881014939],[51.50500961956419,35.65521050750705],[51.505012134349,35.65521201419227],[51.5050148152432,35.65521331619635],[51.505017637320655,35.65521440141363],[51.50502057434255,35.65521525975413],[51.50502359900136,35.655215883237226],[51.50502668317471,35.65521626606597],[51.505029798186904,35.65521640468094],[51.505032915075496,35.655216297793345],[51.505036004860585,35.655215946396986],[51.5050390388143,35.65521535375901],[51.505041988727854,35.65521452538964],[51.505044827173855,35.65521346899077],[51.50504752776129,35.65521219438448],[51.50505006538093,35.65521071342169],[51.50505241643877,35.65520903987191],[51.5050545590754,35.65520718929532],[51.505056473369244,35.655205178898015],[51.505058141521815,35.65520302737203],[51.50505954802316,35.655200754721626],[51.505060679796095,35.6551983820772],[51.50506152631775,35.655195931498845],[51.50506207971747,35.655193425771294],[51.50506233484993,35.65519088819204],[51.50510233445913,35.654220888184646],[51.505102289192756,35.65421834547508],[51.50507228903659,35.6538283454843],[51.50507173002364,35.65382484475192],[51.504971729868544,35.65341484477918],[51.504970889084554,35.653412148386174],[51.50468088882214,35.65265214846174],[51.50467941545471,35.652649007527366],[51.504449415337284,35.652239007583766],[51.50444916454292,35.65223857108557],[51.502449163603785,35.648838571571225]]]},"properties":{"group":11,"color":"#9333ea","store_count":46,"source":"recorded_gps_operation_envelope","operation_spans":[[0,375,396]],"label_center":[51.50333186206532,35.65114451172095]}}]}
